{"type":"FeatureCollection","features":[{"type":"Feature","properties":{"DATA_ULT_A":"2009/10/09","DATA_CRIAC":"2009/10/09","id":26,"name":"Aricanduva/Vila Formosa","area":21.5,"pop_2010":267702,"pop_density_2010":12451,"budget_2015":43580390},"geometry":{"type":"Polygon","coordinates":[[[-46.54842250022687,-23.535106982591778],[-46.54837638032301,-23.535106982591778],[-46.548238020611436,-23.535106982591778],[-46.54805354099601,-23.535106982591778],[-46.54791518128444,-23.535106982591778],[-46.54777682157286,-23.535106982591778],[-46.547730701669,-23.53517214323341],[-46.54768458176515,-23.535302464516683],[-46.54763846186129,-23.53536762515832],[-46.547546222053576,-23.5356934283665],[-46.54722338272657,-23.536540516707763],[-46.54708502301499,-23.536866319915944],[-46.54708502301499,-23.53693148055758],[-46.54703890311114,-23.53693148055758],[-46.54703890311114,-23.536996641199217],[-46.54703890311114,-23.537061801840853],[-46.54699278320728,-23.537061801840853],[-46.54699278320728,-23.53712696248249],[-46.54694666330342,-23.53712696248249],[-46.54694666330342,-23.53719212312412],[-46.546900543399566,-23.537257283765758],[-46.54685442349571,-23.537322444407394],[-46.54680830359185,-23.53738760504903],[-46.54676218368799,-23.537452765690666],[-46.54671606378413,-23.537452765690666],[-46.54671606378413,-23.537517926332303],[-46.54657770407256,-23.537648247615575],[-46.546531584168704,-23.537648247615575],[-46.546531584168704,-23.53771340825721],[-46.54648546426485,-23.53771340825721],[-46.54643934436099,-23.53771340825721],[-46.54643934436099,-23.537778568898847],[-46.54639322445713,-23.537778568898847],[-46.54634710455327,-23.537843729540484],[-46.5462087448417,-23.537908890182116],[-46.54597814532241,-23.538104372107025],[-46.54593202541855,-23.538104372107025],[-46.545747545803124,-23.538234693390297],[-46.5456553059954,-23.538299854031933],[-46.545609186091546,-23.538299854031933],[-46.545609186091546,-23.53836501467357],[-46.54556306618769,-23.53836501467357],[-46.54551694628383,-23.53836501467357],[-46.545470826379976,-23.53836501467357],[-46.54542470647612,-23.538430175315206],[-46.5453324666684,-23.538430175315206],[-46.544594548206675,-23.538755978523383],[-46.543672150129524,-23.539081781731564],[-46.54357991032181,-23.5391469423732],[-46.54353379041795,-23.5391469423732],[-46.54344155061023,-23.539212103014833],[-46.54334931080252,-23.539212103014833],[-46.54334931080252,-23.53927726365647],[-46.543257070994805,-23.53927726365647],[-46.54321095109095,-23.539342424298106],[-46.54316483118709,-23.539342424298106],[-46.54311871128323,-23.539342424298106],[-46.54288811176394,-23.53940758493974],[-46.54210407339836,-23.539733388147923],[-46.54136615493664,-23.5400591913561],[-46.541181675321205,-23.540124351997736],[-46.54099719570578,-23.54025467328101],[-46.54067435637877,-23.54038499456428],[-46.54030539714791,-23.540515315847554],[-46.54002867772476,-23.540645637130822],[-46.539751958301615,-23.54071079777246],[-46.53970583839776,-23.540775958414095],[-46.539613598590044,-23.540775958414095],[-46.53956747868619,-23.540775958414095],[-46.53947523887847,-23.54084111905573],[-46.53942911897461,-23.54084111905573],[-46.53938299907075,-23.54084111905573],[-46.539336879166896,-23.54084111905573],[-46.53929075926304,-23.54084111905573],[-46.53924463935918,-23.540906279697367],[-46.539198519455326,-23.540906279697367],[-46.53915239955147,-23.540906279697367],[-46.539106279647605,-23.540906279697367],[-46.53906015974375,-23.540906279697367],[-46.53901403983989,-23.540906279697367],[-46.538967919936034,-23.540906279697367],[-46.53892180003218,-23.540906279697367],[-46.53887568012832,-23.540906279697367],[-46.538829560224464,-23.540906279697367],[-46.538322241282025,-23.540906279697367],[-46.53823000147431,-23.540906279697367],[-46.53721536358944,-23.540906279697367],[-46.53703088397401,-23.540906279697367],[-46.53661580483929,-23.540906279697367],[-46.53615460580071,-23.540971440339003],[-46.53523220772356,-23.54129724354718],[-46.53472488878112,-23.541688207396998],[-46.5343098096464,-23.542014010605175],[-46.534125330030975,-23.542144331888448],[-46.53394085041554,-23.54227465317172],[-46.53380249070397,-23.542339813813356],[-46.533618011088535,-23.54247013509663],[-46.53352577128082,-23.542535295738265],[-46.53343353147311,-23.542600456379898],[-46.53338741156925,-23.542600456379898],[-46.53338741156925,-23.542665617021534],[-46.53320293195382,-23.54273077766317],[-46.53251113339595,-23.54305658087135],[-46.53195769454966,-23.543252062796256],[-46.53145037560723,-23.5435127053628],[-46.53066633724164,-23.543838508570982],[-46.530066778491495,-23.544099151137523],[-46.52960557945291,-23.544424954345704],[-46.529190500318194,-23.54475075755388],[-46.52868318137576,-23.545272042686967],[-46.528221982337186,-23.545793327820057],[-46.5277607832986,-23.546314612953143],[-46.52766854349089,-23.54637977359478],[-46.52753018377932,-23.54651009487805],[-46.527437943971606,-23.546575255519688],[-46.527345704163885,-23.546705576802957],[-46.52729958426003,-23.546770737444593],[-46.527207344452314,-23.54683589808623],[-46.52702286483688,-23.5469662193695],[-46.52670002550988,-23.54716170129441],[-46.52633106627902,-23.54742234386095],[-46.52596210704816,-23.547682986427496],[-46.525639267721154,-23.547878468352405],[-46.525039708971,-23.5485952354104],[-46.52476298954785,-23.548986199260213],[-46.52462462983628,-23.54918168118512],[-46.52453239002857,-23.549246841826758],[-46.524486270124704,-23.549377163110027],[-46.52439403031699,-23.5495074843933],[-46.52430179050928,-23.549572645034935],[-46.52420955070156,-23.549702966318208],[-46.52416343079771,-23.549768126959844],[-46.524071190989986,-23.54983328760148],[-46.52397895118227,-23.549898448243116],[-46.52388671137456,-23.54996360888475],[-46.523794471566845,-23.550028769526385],[-46.52365611185527,-23.55009393016802],[-46.52347163223984,-23.550224251451294],[-46.522733713778116,-23.55061521530111],[-46.522364754547255,-23.550810697226016],[-46.52190355550867,-23.55107133979256],[-46.52139623656624,-23.551331982359102],[-46.521073397239235,-23.55152746428401],[-46.520427718585225,-23.551918428133828],[-46.52010487925822,-23.552113910058733],[-46.51973592002736,-23.55230939198364],[-46.51941308070036,-23.55250487390855],[-46.519366960796496,-23.55250487390855],[-46.51932084089264,-23.55250487390855],[-46.51927472098878,-23.552439713266914],[-46.519228601084926,-23.55230939198364],[-46.51918248118107,-23.55230939198364],[-46.51890576175792,-23.552570034550186],[-46.518582922430916,-23.552830677116727],[-46.518306203007775,-23.553091319683272],[-46.518213963200054,-23.55315648032491],[-46.51812172339234,-23.55328680160818],[-46.51802948358463,-23.55341712289145],[-46.51798336368077,-23.553482283533086],[-46.51802948358463,-23.553547444174722],[-46.518075603488484,-23.553547444174722],[-46.51812172339234,-23.553612604816358],[-46.51793724377691,-23.553808086741267],[-46.517798884065336,-23.55400356866617],[-46.51770664425762,-23.554133889949444],[-46.51752216464219,-23.55439453251599],[-46.51733768502676,-23.554720335724166],[-46.51724544521905,-23.55485065700744],[-46.517153205411326,-23.55498097829071],[-46.51710708550747,-23.55498097829071],[-46.51706096560361,-23.555046138932347],[-46.51706096560361,-23.555111299573984],[-46.517014845699755,-23.55517646021562],[-46.5169687257959,-23.55517646021562],[-46.5169687257959,-23.555241620857256],[-46.516876485988185,-23.555306781498892],[-46.516784246180464,-23.555502263423797],[-46.51659976656504,-23.555697745348706],[-46.5164152869496,-23.556023548556883],[-46.51627692723803,-23.556153869840156],[-46.51613856752646,-23.556349351765064],[-46.51604632771874,-23.556479673048337],[-46.5157696082956,-23.556805476256514],[-46.51563124858402,-23.556935797539786],[-46.51549288887245,-23.55706611882306],[-46.5152161694493,-23.557326761389604],[-46.51512392964159,-23.557391922031236],[-46.51498556993001,-23.557587403956145],[-46.51484721021844,-23.557717725239417],[-46.51461661069915,-23.557913207164326],[-46.51447825098758,-23.558043528447595],[-46.51433989127601,-23.558173849730867],[-46.51420153156443,-23.558239010372503],[-46.51420153156443,-23.55830417101414],[-46.51406317185286,-23.558434492297412],[-46.513740332525856,-23.558695134863953],[-46.51355585291043,-23.558825456147225],[-46.51341749319885,-23.558955777430498],[-46.51327913348728,-23.55908609871377],[-46.5131407737757,-23.55928158063868],[-46.51286405435256,-23.55954222320522],[-46.51263345483327,-23.559802865771765],[-46.51240285531398,-23.560128668979942],[-46.51208001598698,-23.560454472188123],[-46.511941656275404,-23.560584793471396],[-46.51189553637155,-23.560649954113032],[-46.51184941646769,-23.560715114754665],[-46.51175717665998,-23.5607802753963],[-46.5116188169484,-23.560910596679573],[-46.51157269704454,-23.560910596679573],[-46.51143433733297,-23.561040917962845],[-46.511157617909824,-23.56130156052939],[-46.51069641887125,-23.561627363737568],[-46.5104196994481,-23.561822845662476],[-46.51000462031338,-23.562083488229018],[-46.50972790089023,-23.562278970153926],[-46.50935894165937,-23.562604773362107],[-46.50885162271694,-23.563060897853557],[-46.50848266348608,-23.56345186170337],[-46.508252063966786,-23.56377766491155],[-46.50806758435136,-23.56397314683646],[-46.507883104735924,-23.564364110686274],[-46.507744745024354,-23.564559592611182],[-46.50765250521663,-23.564755074536087],[-46.507606385312776,-23.564820235177724],[-46.50756026540892,-23.564820235177724],[-46.50756026540892,-23.56488539581936],[-46.50751414550506,-23.56488539581936],[-46.507468025601206,-23.56488539581936],[-46.50742190569735,-23.56488539581936],[-46.50728354598577,-23.565146038385905],[-46.50719130617806,-23.56521119902754],[-46.507099066370344,-23.565276359669177],[-46.507099066370344,-23.56540668095245],[-46.50705294646649,-23.565471841594082],[-46.50705294646649,-23.56553700223572],[-46.506960706658774,-23.565797644802263],[-46.506960706658774,-23.5658628054439],[-46.506960706658774,-23.565927966085535],[-46.506960706658774,-23.56599312672717],[-46.50691458675491,-23.566058287368808],[-46.50691458675491,-23.56612344801044],[-46.50686846685105,-23.56612344801044],[-46.50677622704334,-23.56631892993535],[-46.506683987235625,-23.56644925121862],[-46.506453387716334,-23.566709893785166],[-46.50613054838933,-23.567035696993344],[-46.50585382896619,-23.567361500201525],[-46.505669349350754,-23.567491821484793],[-46.50543874983146,-23.567687303409702],[-46.505254270216035,-23.56788278533461],[-46.505115910504465,-23.567947945976247],[-46.5050697906006,-23.568013106617883],[-46.505023670696744,-23.56807826725952],[-46.50497755079289,-23.568143427901152],[-46.50493143088903,-23.568208588542788],[-46.50488531098517,-23.568273749184424],[-46.50483919108132,-23.568273749184424],[-46.504746951273596,-23.568273749184424],[-46.504746951273596,-23.56833890982606],[-46.50470083136974,-23.568404070467697],[-46.50465471146588,-23.568469231109333],[-46.504608591562025,-23.568599552392605],[-46.50456247165817,-23.56866471303424],[-46.50451635175431,-23.56879503431751],[-46.5044241119466,-23.568925355600783],[-46.504377992042734,-23.56899051624242],[-46.50433187213888,-23.569055676884055],[-46.50428575223502,-23.569185998167328],[-46.50423963233116,-23.569381480092236],[-46.50414739252345,-23.56957696201714],[-46.50414739252345,-23.569642122658777],[-46.50410127261959,-23.56977244394205],[-46.504055152715736,-23.56996792586696],[-46.50400903281187,-23.5702285684335],[-46.50400903281187,-23.57055437164168],[-46.50400903281187,-23.571401459982948],[-46.504055152715736,-23.571531781266216],[-46.504055152715736,-23.571922745116034],[-46.504055152715736,-23.57198790575767],[-46.504055152715736,-23.572053066399306],[-46.504055152715736,-23.57224854832421],[-46.504055152715736,-23.572378869607483],[-46.504055152715736,-23.57244403024912],[-46.504055152715736,-23.572509190890756],[-46.50400903281187,-23.572704672815664],[-46.50400903281187,-23.572834994098933],[-46.503962912908015,-23.57290015474057],[-46.503962912908015,-23.573030476023842],[-46.50391679300416,-23.573095636665478],[-46.5038706731003,-23.573291118590387],[-46.503824553196445,-23.573356279232023],[-46.503824553196445,-23.57342143987366],[-46.50377843329259,-23.573551761156928],[-46.50373231338873,-23.5736820824402],[-46.50364007358101,-23.573812403723473],[-46.5035478337733,-23.573942725006745],[-46.503409474061726,-23.574203367573286],[-46.50331723425401,-23.57433368885656],[-46.50322499444629,-23.574529170781467],[-46.50313275463858,-23.57465949206474],[-46.503040514830865,-23.574789813348012],[-46.50294827502315,-23.574985295272917],[-46.502763795407716,-23.575180777197826],[-46.502625435696146,-23.575376259122734],[-46.50257931579229,-23.57544141976437],[-46.502533195888425,-23.575506580406007],[-46.50248707598457,-23.57557174104764],[-46.502348716273,-23.57570206233091],[-46.50221035656143,-23.57589754425582],[-46.50216423665756,-23.57589754425582],[-46.50207199684985,-23.576027865539093],[-46.50202587694599,-23.576027865539093],[-46.50193363713828,-23.576158186822365],[-46.50188751723442,-23.576223347463998],[-46.50193363713828,-23.576223347463998],[-46.50207199684985,-23.57635366874727],[-46.50216423665756,-23.576418829388906],[-46.502256476465284,-23.576483990030543],[-46.502348716273,-23.576614311313815],[-46.502394836176855,-23.576614311313815],[-46.502394836176855,-23.576744632597087],[-46.502394836176855,-23.576809793238724],[-46.502394836176855,-23.576874953880356],[-46.502394836176855,-23.576940114521992],[-46.502394836176855,-23.57700527516363],[-46.502394836176855,-23.577070435805265],[-46.502348716273,-23.5771355964469],[-46.502348716273,-23.577200757088537],[-46.502348716273,-23.577265917730173],[-46.50230259636914,-23.577396239013446],[-46.502256476465284,-23.57759172093835],[-46.502256476465284,-23.577722042221623],[-46.50221035656143,-23.577852363504896],[-46.50216423665756,-23.578047845429804],[-46.50211811675371,-23.57824332735471],[-46.50207199684985,-23.57837364863798],[-46.50202587694599,-23.57856913056289],[-46.50202587694599,-23.578634291204526],[-46.501979757042136,-23.5787646124878],[-46.50193363713828,-23.578960094412704],[-46.50193363713828,-23.579090415695976],[-46.50188751723442,-23.579155576337612],[-46.50188751723442,-23.57922073697925],[-46.50188751723442,-23.579285897620885],[-46.501841397330566,-23.57935105826252],[-46.501841397330566,-23.579416218904157],[-46.501841397330566,-23.579481379545793],[-46.501841397330566,-23.5796768614707],[-46.501841397330566,-23.57980718275397],[-46.501841397330566,-23.579872343395607],[-46.50188751723442,-23.579937504037243],[-46.50188751723442,-23.58000266467888],[-46.50193363713828,-23.580067825320516],[-46.50202587694599,-23.58026330724542],[-46.50207199684985,-23.580393628528693],[-46.50216423665756,-23.58045878917033],[-46.50221035656143,-23.580523949811965],[-46.50230259636914,-23.5805891104536],[-46.502394836176855,-23.58078459237851],[-46.50248707598457,-23.580849753020146],[-46.50257931579229,-23.580980074303415],[-46.50271767550386,-23.581175556228324],[-46.50280991531157,-23.581305877511596],[-46.50290215511929,-23.58143619879487],[-46.503040514830865,-23.581566520078137],[-46.50313275463858,-23.58169684136141],[-46.503178874542435,-23.581827162644682],[-46.50327111435015,-23.581957483927955],[-46.50336335415787,-23.582087805211227],[-46.503409474061726,-23.582087805211227],[-46.50350171386944,-23.582283287136132],[-46.5035478337733,-23.58234844777777],[-46.50364007358101,-23.58247876906104],[-46.50373231338873,-23.582609090344313],[-46.503824553196445,-23.58280457226922],[-46.50391679300416,-23.58293489355249],[-46.503962912908015,-23.583065214835763],[-46.504055152715736,-23.583195536119035],[-46.50410127261959,-23.58326069676067],[-46.50414739252345,-23.583391018043944],[-46.50419351242731,-23.583391018043944],[-46.50428575223502,-23.58358649996885],[-46.504377992042734,-23.58371682125212],[-46.5044241119466,-23.583847142535394],[-46.504470231850455,-23.583977463818666],[-46.50456247165817,-23.58410778510194],[-46.50465471146588,-23.58423810638521],[-46.50465471146588,-23.584303267026844],[-46.50470083136974,-23.58436842766848],[-46.504746951273596,-23.584498748951752],[-46.50479307117746,-23.58456390959339],[-46.50483919108132,-23.58469423087666],[-46.50483919108132,-23.584759391518297],[-46.50488531098517,-23.58488971280157],[-46.50488531098517,-23.584954873443202],[-46.50488531098517,-23.585020034084838],[-46.50488531098517,-23.585215516009747],[-46.50488531098517,-23.585410997934655],[-46.50488531098517,-23.585541319217928],[-46.50488531098517,-23.58560647985956],[-46.50488531098517,-23.585736801142833],[-46.50488531098517,-23.58580196178447],[-46.50488531098517,-23.585867122426105],[-46.50488531098517,-23.586062604351014],[-46.50488531098517,-23.58612776499265],[-46.50488531098517,-23.58625808627592],[-46.50493143088903,-23.58638840755919],[-46.50497755079289,-23.586518728842464],[-46.50497755079289,-23.586649050125736],[-46.5050697906006,-23.58677937140901],[-46.505115910504465,-23.58690969269228],[-46.50516203040832,-23.58704001397555],[-46.50520815031218,-23.587105174617186],[-46.50530039011989,-23.587235495900458],[-46.50534651002375,-23.58736581718373],[-46.505392629927606,-23.58736581718373],[-46.50543874983146,-23.587496138467003],[-46.50548486973533,-23.587496138467003],[-46.50553098963918,-23.58756129910864],[-46.5056232294469,-23.587756781033544],[-46.505669349350754,-23.587756781033544],[-46.50576158915847,-23.587952262958453],[-46.505807709062324,-23.587952262958453],[-46.505807709062324,-23.58801742360009],[-46.50585382896619,-23.58801742360009],[-46.50585382896619,-23.588082584241725],[-46.505899948870045,-23.58814774488336],[-46.5059460687739,-23.588212905524998],[-46.50599218867776,-23.58827806616663],[-46.506038308581616,-23.588343226808266],[-46.506176668293186,-23.588538708733175],[-46.50626890810091,-23.588734190658084],[-46.50636114790862,-23.58879935129972],[-46.50649950762019,-23.588994833224625],[-46.50654562752405,-23.58905999386626],[-46.50654562752405,-23.589125154507897],[-46.50659174742791,-23.58905999386626],[-46.50663786733177,-23.589125154507897],[-46.506683987235625,-23.58905999386626],[-46.50677622704334,-23.589190315149533],[-46.50677622704334,-23.58925547579117],[-46.506822346947196,-23.589320636432806],[-46.506822346947196,-23.589385797074442],[-46.50686846685105,-23.58945095771608],[-46.50691458675491,-23.589516118357714],[-46.50691458675491,-23.589646439640983],[-46.506960706658774,-23.589646439640983],[-46.506960706658774,-23.589776760924256],[-46.50700682656263,-23.589972242849164],[-46.506960706658774,-23.5900374034908],[-46.50700682656263,-23.5900374034908],[-46.50756026540892,-23.589776760924256],[-46.507606385312776,-23.589776760924256],[-46.50779086492821,-23.58971160028262],[-46.50792922463978,-23.58971160028262],[-46.50806758435136,-23.589646439640983],[-46.50815982415907,-23.589646439640983],[-46.5083443037745,-23.58958127899935],[-46.508528783389934,-23.58958127899935],[-46.50862102319765,-23.589516118357714],[-46.50880550281308,-23.589516118357714],[-46.50908222223622,-23.58945095771608],[-46.50912834214008,-23.58945095771608],[-46.5092205819478,-23.58945095771608],[-46.509451181467085,-23.589385797074442],[-46.509543421274806,-23.589385797074442],[-46.50968178098638,-23.589320636432806],[-46.50972790089023,-23.589320636432806],[-46.50991238050567,-23.58925547579117],[-46.510096860121095,-23.589190315149533],[-46.510235219832666,-23.58905999386626],[-46.51028133973653,-23.58905999386626],[-46.510327459640386,-23.58905999386626],[-46.51046581935196,-23.588929672582992],[-46.510604179063535,-23.588864511941356],[-46.510742538775105,-23.588734190658084],[-46.510880898486676,-23.58860386937481],[-46.510973138294396,-23.588538708733175],[-46.51101925819825,-23.58847354809154],[-46.511157617909824,-23.588343226808266],[-46.511295977621394,-23.58827806616663],[-46.51148045723683,-23.58814774488336],[-46.5116188169484,-23.58801742360009],[-46.51171105675612,-23.587952262958453],[-46.51184941646769,-23.58782194167518],[-46.51203389608312,-23.587691620391908],[-46.512172255794695,-23.58756129910864],[-46.51221837569855,-23.587496138467003],[-46.51235673541012,-23.587430977825367],[-46.5124950951217,-23.587300656542094],[-46.51254121502556,-23.587235495900458],[-46.51263345483327,-23.587170335258822],[-46.51277181454484,-23.587105174617186],[-46.512817934448705,-23.58704001397555],[-46.51291017425642,-23.58704001397555],[-46.51291017425642,-23.586974853333913],[-46.512956294160276,-23.586974853333913],[-46.51304853396799,-23.58690969269228],[-46.5131407737757,-23.58690969269228],[-46.51332525339114,-23.586844532050645],[-46.513371373294994,-23.58677937140901],[-46.513509733006565,-23.58677937140901],[-46.51355585291043,-23.58677937140901],[-46.513694212622,-23.586714210767372],[-46.513740332525856,-23.586714210767372],[-46.51378645242971,-23.586714210767372],[-46.51383257233357,-23.586714210767372],[-46.51397093204515,-23.586714210767372],[-46.514155411660575,-23.586714210767372],[-46.51424765146829,-23.586714210767372],[-46.51433989127601,-23.586714210767372],[-46.514386011179866,-23.586714210767372],[-46.51447825098758,-23.586714210767372],[-46.51457049079529,-23.586714210767372],[-46.51461661069915,-23.586714210767372],[-46.514662730603014,-23.586714210767372],[-46.514801090314585,-23.58677937140901],[-46.51484721021844,-23.58677937140901],[-46.514939450026155,-23.58677937140901],[-46.51498556993001,-23.586844532050645],[-46.515031689833876,-23.586844532050645],[-46.51512392964159,-23.586844532050645],[-46.515170049545446,-23.58690969269228],[-46.515354529160874,-23.586974853333913],[-46.51553900877631,-23.58704001397555],[-46.51572348839174,-23.587105174617186],[-46.515815728199456,-23.587105174617186],[-46.51595408791103,-23.587170335258822],[-46.51600020781488,-23.587170335258822],[-46.51604632771874,-23.587170335258822],[-46.516092447622604,-23.587170335258822],[-46.516230807334175,-23.587170335258822],[-46.51627692723803,-23.587170335258822],[-46.516369167045745,-23.587170335258822],[-46.5164152869496,-23.587170335258822],[-46.516461406853466,-23.587170335258822],[-46.51650752675732,-23.587170335258822],[-46.51655364666118,-23.587170335258822],[-46.51659976656504,-23.587170335258822],[-46.51669200637275,-23.587170335258822],[-46.516876485988185,-23.587105174617186],[-46.51692260589204,-23.587105174617186],[-46.51706096560361,-23.58704001397555],[-46.51710708550747,-23.586974853333913],[-46.517153205411326,-23.58690969269228],[-46.51724544521905,-23.58690969269228],[-46.51733768502676,-23.586844532050645],[-46.517429924834474,-23.586714210767372],[-46.51752216464219,-23.586649050125736],[-46.517660524353765,-23.586518728842464],[-46.51784500396919,-23.58638840755919],[-46.51789112387305,-23.586323246917555],[-46.51802948358463,-23.58625808627592],[-46.51802948358463,-23.586192925634286],[-46.5181678432962,-23.58612776499265],[-46.518213963200054,-23.586062604351014],[-46.51826008310391,-23.586062604351014],[-46.518306203007775,-23.585997443709378],[-46.51835232291163,-23.585997443709378],[-46.51839844281549,-23.58593228306774],[-46.51853680252706,-23.585867122426105],[-46.518582922430916,-23.585867122426105],[-46.51862904233477,-23.58580196178447],[-46.51867516223864,-23.58580196178447],[-46.518721282142494,-23.585736801142833],[-46.51881352195021,-23.585736801142833],[-46.518998001565635,-23.585671640501197],[-46.519090241373355,-23.585671640501197],[-46.51913636127721,-23.58560647985956],[-46.51932084089264,-23.585541319217928],[-46.51941308070036,-23.585541319217928],[-46.51955144041193,-23.58547615857629],[-46.51973592002736,-23.585410997934655],[-46.51978203993122,-23.58534583729302],[-46.51996651954665,-23.585280676651383],[-46.52010487925822,-23.585215516009747],[-46.5202432389698,-23.58515035536811],[-46.52038159868137,-23.585085194726474],[-46.520519958392946,-23.585020034084838],[-46.52061219820066,-23.584954873443202],[-46.52079667781609,-23.584824552159933],[-46.52084279771995,-23.584824552159933],[-46.520935037527664,-23.584759391518297],[-46.521073397239235,-23.58469423087666],[-46.52111951714309,-23.58469423087666],[-46.52116563704695,-23.58469423087666],[-46.52116563704695,-23.584629070235025],[-46.52121175695081,-23.584629070235025],[-46.52125787685467,-23.58469423087666],[-46.521303996758526,-23.58469423087666],[-46.5214423564701,-23.58469423087666],[-46.52148847637395,-23.58469423087666],[-46.52153459627781,-23.58469423087666],[-46.5217651957971,-23.58469423087666],[-46.52190355550867,-23.58469423087666],[-46.521949675412536,-23.584759391518297],[-46.52213415502796,-23.584759391518297],[-46.52222639483568,-23.584759391518297],[-46.5223186346434,-23.584759391518297],[-46.522364754547255,-23.584759391518297],[-46.52241087445111,-23.584759391518297],[-46.52245699435497,-23.584759391518297],[-46.522641473970396,-23.584824552159933],[-46.52268759387426,-23.584824552159933],[-46.52277983368197,-23.584824552159933],[-46.52287207348969,-23.584824552159933],[-46.522918193393544,-23.584824552159933],[-46.52305655310512,-23.584824552159933],[-46.52324103272055,-23.58488971280157],[-46.523287152624405,-23.58488971280157],[-46.52333327252826,-23.58488971280157],[-46.52337939243212,-23.58488971280157],[-46.52342551233598,-23.58488971280157],[-46.52365611185527,-23.58488971280157],[-46.523794471566845,-23.584954873443202],[-46.52388671137456,-23.584954873443202],[-46.524071190989986,-23.584954873443202],[-46.52411731089384,-23.584954873443202],[-46.52425567060542,-23.584954873443202],[-46.52439403031699,-23.584954873443202],[-46.52439403031699,-23.585020034084838],[-46.524578509932425,-23.585020034084838],[-46.524716869643996,-23.585020034084838],[-46.52476298954785,-23.585020034084838],[-46.52494746916329,-23.585020034084838],[-46.524993589067144,-23.585020034084838],[-46.52517806868257,-23.585085194726474],[-46.52522418858643,-23.585085194726474],[-46.52527030849029,-23.585085194726474],[-46.52559314781729,-23.585085194726474],[-46.525777627432724,-23.58515035536811],[-46.526008226952015,-23.58515035536811],[-46.52610046675973,-23.58515035536811],[-46.526146586663586,-23.58515035536811],[-46.52619270656744,-23.58515035536811],[-46.5262388264713,-23.58515035536811],[-46.52646942599059,-23.58515035536811],[-46.52651554589445,-23.58515035536811],[-46.52660778570216,-23.58515035536811],[-46.52674614541374,-23.58515035536811],[-46.526792265317596,-23.58515035536811],[-46.52697674493302,-23.58515035536811],[-46.5271151046446,-23.58515035536811],[-46.52716122454846,-23.58515035536811],[-46.527207344452314,-23.58515035536811],[-46.52725346435617,-23.58515035536811],[-46.52739182406774,-23.585020034084838],[-46.52753018377932,-23.58488971280157],[-46.527576303683176,-23.58488971280157],[-46.52766854349089,-23.584759391518297],[-46.5277607832986,-23.584759391518297],[-46.52789914301018,-23.584629070235025],[-46.52803750272175,-23.584498748951752],[-46.52817586243333,-23.584433588310116],[-46.528221982337186,-23.58436842766848],[-46.52840646195261,-23.584303267026844],[-46.52854482166419,-23.58423810638521],[-46.52872930127962,-23.58423810638521],[-46.528775421183475,-23.584172945743575],[-46.52886766099119,-23.584172945743575],[-46.52891378089505,-23.584172945743575],[-46.52905214060662,-23.58410778510194],[-46.52909826051048,-23.58410778510194],[-46.529282740125915,-23.584042624460302],[-46.52937497993363,-23.584042624460302],[-46.5295133396452,-23.583977463818666],[-46.52960557945291,-23.58391230317703],[-46.52979005906835,-23.58391230317703],[-46.52988229887606,-23.583847142535394],[-46.529974538683774,-23.583847142535394],[-46.53015901829921,-23.583781981893758],[-46.530343497914636,-23.58371682125212],[-46.53052797753007,-23.583651660610485],[-46.53066633724164,-23.583651660610485],[-46.53075857704936,-23.58358649996885],[-46.530850816857075,-23.58358649996885],[-46.53089693676093,-23.58358649996885],[-46.5310352964725,-23.583521339327216],[-46.53121977608794,-23.58345617868558],[-46.531265895991794,-23.58345617868558],[-46.531404255703364,-23.583391018043944],[-46.53154261541494,-23.583391018043944],[-46.531634855222656,-23.583391018043944],[-46.53172709503037,-23.583325857402308],[-46.53181933483809,-23.583325857402308],[-46.531911574645804,-23.583325857402308],[-46.53195769454966,-23.583325857402308],[-46.53200381445352,-23.583325857402308],[-46.532049934357374,-23.583325857402308],[-46.53209605426123,-23.583325857402308],[-46.53209605426123,-23.583391018043944],[-46.53214217416509,-23.583391018043944],[-46.532280533876666,-23.58345617868558],[-46.53264949310753,-23.583651660610485],[-46.532695613011384,-23.583651660610485],[-46.532926212530676,-23.58371682125212],[-46.533064572242246,-23.583781981893758],[-46.53320293195382,-23.583847142535394],[-46.53329517176154,-23.58391230317703],[-46.53338741156925,-23.583977463818666],[-46.53352577128082,-23.584042624460302],[-46.53357189118468,-23.584042624460302],[-46.5336641309924,-23.58410778510194],[-46.533710250896256,-23.58410778510194],[-46.53375637080011,-23.58410778510194],[-46.53375637080011,-23.584172945743575],[-46.53380249070397,-23.584172945743575],[-46.53389473051168,-23.584172945743575],[-46.53394085041554,-23.584172945743575],[-46.53403309022326,-23.584172945743575],[-46.53417144993483,-23.58410778510194],[-46.53435592955026,-23.584042624460302],[-46.53440204945412,-23.584042624460302],[-46.53458652906955,-23.583977463818666],[-46.53463264897341,-23.583977463818666],[-46.534678768877264,-23.583977463818666],[-46.53472488878112,-23.584042624460302],[-46.5348632484927,-23.583847142535394],[-46.53500160820427,-23.583651660610485],[-46.53509384801198,-23.58358649996885],[-46.53523220772356,-23.58345617868558],[-46.53532444753127,-23.583325857402308],[-46.53532444753127,-23.58326069676067],[-46.535462807242844,-23.5831303754774],[-46.53560116695442,-23.58293489355249],[-46.53564728685828,-23.582869732910858],[-46.535693406762135,-23.58280457226922],[-46.53573952666599,-23.582739411627585],[-46.53578564656985,-23.58267425098595],[-46.53592400628143,-23.582609090344313],[-46.53597012618528,-23.58247876906104],[-46.536062365993,-23.582413608419404],[-46.536108485896854,-23.582413608419404],[-46.53615460580071,-23.58234844777777],[-46.53624684560843,-23.582283287136132],[-46.53629296551229,-23.582283287136132],[-46.536339085416145,-23.5822181264945],[-46.53638520532,-23.5822181264945],[-46.536477445127716,-23.582152965852863],[-46.536569684935436,-23.582152965852863],[-46.53661580483929,-23.582152965852863],[-46.53670804464701,-23.582087805211227],[-46.536754164550864,-23.582087805211227],[-46.53680028445472,-23.582087805211227],[-46.536892524262434,-23.582087805211227],[-46.536892524262434,-23.58202264456959],[-46.53703088397401,-23.58202264456959],[-46.53716924368558,-23.581957483927955],[-46.537261483493296,-23.581957483927955],[-46.537399843204874,-23.58189232328632],[-46.5375843228203,-23.581762002003046],[-46.537768802435735,-23.581631680719774],[-46.537907162147306,-23.581501359436505],[-46.53804552185888,-23.581371038153232],[-46.538183881570454,-23.581305877511596],[-46.53823000147431,-23.58124071686996],[-46.53836836118588,-23.581175556228324],[-46.538967919936034,-23.580719431736874],[-46.539106279647605,-23.580654271095238],[-46.539198519455326,-23.5805891104536],[-46.539336879166896,-23.580523949811965],[-46.53952135878233,-23.580393628528693],[-46.53989031801319,-23.580132985962152],[-46.53993643791705,-23.580132985962152],[-46.54007479762862,-23.58000266467888],[-46.54044375685948,-23.5796768614707],[-46.54048987676334,-23.579611700829062],[-46.54058211657105,-23.579611700829062],[-46.540628236474916,-23.579546540187426],[-46.54081271609034,-23.579481379545793],[-46.54108943551349,-23.579416218904157],[-46.54122779522506,-23.579416218904157],[-46.54136615493664,-23.57935105826252],[-46.542242433109934,-23.579155576337612],[-46.54256527243694,-23.579090415695976],[-46.54270363214851,-23.57902525505434],[-46.54284199186009,-23.57902525505434],[-46.54394886955267,-23.5787646124878],[-46.54408722926424,-23.578699451846163],[-46.544686788014396,-23.57856913056289],[-46.54551694628383,-23.57837364863798],[-46.54556306618769,-23.57837364863798],[-46.5456553059954,-23.578308487996345],[-46.54579366570698,-23.578308487996345],[-46.54643934436099,-23.578178166713077],[-46.54676218368799,-23.578047845429804],[-46.54694666330342,-23.578047845429804],[-46.54699278320728,-23.577982684788168],[-46.54703890311114,-23.577982684788168],[-46.54708502301499,-23.577982684788168],[-46.547177262822714,-23.577982684788168],[-46.54846862013073,-23.577656881579987],[-46.54856085993844,-23.577656881579987],[-46.5486069798423,-23.57759172093835],[-46.54906817888088,-23.577526560296718],[-46.54934489830402,-23.577461399655082],[-46.5494832580156,-23.577396239013446],[-46.54957549782331,-23.577396239013446],[-46.54975997743875,-23.57733107837181],[-46.54985221724646,-23.577265917730173],[-46.550451775996606,-23.5771355964469],[-46.55077461532361,-23.577070435805265],[-46.550959094939046,-23.57700527516363],[-46.55105133474676,-23.57700527516363],[-46.55114357455447,-23.57700527516363],[-46.55132805416991,-23.576940114521992],[-46.551743133304626,-23.576809793238724],[-46.55183537311234,-23.576809793238724],[-46.552019852727774,-23.576744632597087],[-46.55248105176635,-23.57667947195545],[-46.552665531381784,-23.576614311313815],[-46.55285001099721,-23.57654915067218],[-46.552942250804925,-23.57654915067218],[-46.553357329939644,-23.576418829388906],[-46.55349568965122,-23.576418829388906],[-46.553587929458935,-23.57635366874727],[-46.55386464888208,-23.57635366874727],[-46.554003008593654,-23.576288508105634],[-46.55409524840137,-23.576288508105634],[-46.55451032753609,-23.576158186822365],[-46.55464868724766,-23.576158186822365],[-46.55630900378654,-23.57570206233091],[-46.55640124359426,-23.57570206233091],[-46.55713916205598,-23.575506580406007],[-46.557231401863696,-23.575506580406007],[-46.55727752176755,-23.575506580406007],[-46.55727752176755,-23.575376259122734],[-46.557231401863696,-23.575311098481098],[-46.55718528195984,-23.57492013463128],[-46.55713916205598,-23.574594331423103],[-46.55713916205598,-23.574268528214922],[-46.557093042152125,-23.574268528214922],[-46.557000802344405,-23.574268528214922],[-46.556862442632834,-23.57433368885656],[-46.55681632272898,-23.574268528214922],[-46.55677020282512,-23.574203367573286],[-46.55663184311354,-23.573942725006745],[-46.55626288388268,-23.573030476023842],[-46.556216763978824,-23.572965315382206],[-46.55617064407497,-23.572834994098933],[-46.555940044555676,-23.572313708965847],[-46.55575556494025,-23.57198790575767],[-46.55570944503639,-23.571857584474397],[-46.555663325132535,-23.57179242383276],[-46.555663325132535,-23.571727263191125],[-46.55561720522868,-23.571727263191125],[-46.555571085324814,-23.571596941907853],[-46.555432725613244,-23.57133629934131],[-46.55510988628624,-23.57055437164168],[-46.55497152657467,-23.5702285684335],[-46.55483316686309,-23.570033086508595],[-46.554787046959234,-23.569902765225322],[-46.554787046959234,-23.56977244394205],[-46.55474092705538,-23.56977244394205],[-46.55469480715152,-23.569642122658777],[-46.55460256734381,-23.569511801375505],[-46.55432584792066,-23.56879503431751],[-46.5542797280168,-23.56879503431751],[-46.55404912849751,-23.568599552392605],[-46.55524824599782,-23.567491821484793],[-46.5560322843634,-23.5667750544268],[-46.55617064407497,-23.566579572501894],[-46.55640124359426,-23.566384090576985],[-46.55653960330583,-23.56631892993535],[-46.55663184311354,-23.566253769293713],[-46.557093042152125,-23.56599312672717],[-46.5575542411907,-23.565797644802263],[-46.55783096061385,-23.565602162877354],[-46.55796932032542,-23.56553700223572],[-46.558015440229276,-23.56553700223572],[-46.55833827955628,-23.565341520310813],[-46.55861499897943,-23.56521119902754],[-46.55884559849871,-23.56508087774427],[-46.55912231792186,-23.565015717102632],[-46.55926067763344,-23.564950556460996],[-46.559306797537296,-23.56488539581936],[-46.559860236383585,-23.56462475325282],[-46.56022919561445,-23.56442927132791],[-46.56041367522988,-23.564364110686274],[-46.560644274749166,-23.564233789403],[-46.5608287543646,-23.564168628761365],[-46.561151593691605,-23.56397314683646],[-46.56133607330703,-23.563907986194824],[-46.561428313114746,-23.563842825553188],[-46.56147443301861,-23.563842825553188],[-46.56152055292247,-23.56377766491155],[-46.56165891263404,-23.563712504269915],[-46.561705032537894,-23.563712504269915],[-46.56179727234561,-23.56364734362828],[-46.561935632057185,-23.563582182986643],[-46.56230459128805,-23.563386701061738],[-46.56244295099962,-23.5633215404201],[-46.562581310711195,-23.563256379778466],[-46.56267355051891,-23.56319121913683],[-46.562719670422766,-23.56319121913683],[-46.56281191023048,-23.563126058495193],[-46.562996389845914,-23.563060897853557],[-46.56308862965363,-23.56299573721192],[-46.56331922917292,-23.56286541592865],[-46.564011027730785,-23.56253961272047],[-46.56405714763464,-23.562474452078835],[-46.56424162725007,-23.5624092914372],[-46.56428774715393,-23.5624092914372],[-46.56461058648093,-23.56221380951229],[-46.56507178551951,-23.56195316694575],[-46.56511790542337,-23.56195316694575],[-46.56516402532723,-23.561888006304113],[-46.565210145231084,-23.561888006304113],[-46.5653023850388,-23.561822845662476],[-46.565348504942655,-23.561822845662476],[-46.56539462484651,-23.56175768502084],[-46.56548686465423,-23.561692524379204],[-46.56553298455809,-23.561627363737568],[-46.565579104461946,-23.56156220309593],[-46.56567134426966,-23.561497042454295],[-46.56571746417352,-23.56143188181266],[-46.565763584077374,-23.561366721171026],[-46.56580970398123,-23.56130156052939],[-46.565855823885094,-23.561236399887754],[-46.56590194378895,-23.561171239246118],[-46.56594806369281,-23.56110607860448],[-46.56594806369281,-23.561040917962845],[-46.565994183596665,-23.56097575732121],[-46.56604030350052,-23.560845436037937],[-46.566132543308235,-23.560584793471396],[-46.56640926273138,-23.560258990263215],[-46.56645538263524,-23.56019382962158],[-46.56659374234682,-23.559998347696673],[-46.56668598215453,-23.5598680264134],[-46.566778221962245,-23.559802865771765],[-46.5668243418661,-23.55973770513013],[-46.566916581673816,-23.55973770513013],[-46.56696270157768,-23.559672544488492],[-46.56700882148154,-23.559607383846856],[-46.56705494138539,-23.55954222320522],[-46.567193301096964,-23.559346741280315],[-46.567654500135546,-23.55876029550559],[-46.56793121955869,-23.558499652939048],[-46.568207938981836,-23.55830417101414],[-46.5685768982127,-23.558173849730867],[-46.56880749773199,-23.55810868908923],[-46.569499296289855,-23.557326761389604],[-46.569776015712996,-23.557000958181423],[-46.56986825552072,-23.556935797539786],[-46.56996049532843,-23.556740315614878],[-46.56968377590528,-23.555762905990342],[-46.56954541619371,-23.55517646021562],[-46.56931481667442,-23.554459693157625],[-46.56917645696285,-23.553873247382903],[-46.56913033705899,-23.55374292609963],[-46.56913033705899,-23.553677765457994],[-46.56913033705899,-23.553612604816358],[-46.56908421715513,-23.553612604816358],[-46.56903809725127,-23.553612604816358],[-46.567977339462544,-23.55315648032491],[-46.567838979750974,-23.553091319683272],[-46.56779285984712,-23.553091319683272],[-46.5677006200394,-23.553091319683272],[-46.567562260327826,-23.553026159041636],[-46.56751614042397,-23.553026159041636],[-46.56747002052011,-23.5529609984],[-46.567423900616255,-23.5529609984],[-46.56723942100082,-23.552895837758363],[-46.567193301096964,-23.552895837758363],[-46.56714718119311,-23.552895837758363],[-46.56705494138539,-23.552895837758363],[-46.56700882148154,-23.552895837758363],[-46.56673210205839,-23.552895837758363],[-46.566547622442954,-23.5529609984],[-46.5665015025391,-23.5529609984],[-46.56636314282753,-23.5529609984],[-46.56631702292367,-23.5529609984],[-46.56627090301981,-23.5529609984],[-46.566132543308235,-23.5529609984],[-46.56608642340438,-23.5529609984],[-46.565855823885094,-23.553026159041636],[-46.5656252243658,-23.553026159041636],[-46.56544074475037,-23.553026159041636],[-46.56525626513494,-23.553091319683272],[-46.565210145231084,-23.553091319683272],[-46.56511790542337,-23.553091319683272],[-46.56497954571179,-23.553091319683272],[-46.56488730590408,-23.553091319683272],[-46.564702826288645,-23.553091319683272],[-46.56461058648093,-23.55315648032491],[-46.56447222676936,-23.55315648032491],[-46.564426106865504,-23.55315648032491],[-46.56437998696165,-23.55315648032491],[-46.56433386705778,-23.55315648032491],[-46.56428774715393,-23.55315648032491],[-46.56424162725007,-23.55315648032491],[-46.56419550734621,-23.55315648032491],[-46.564149387442356,-23.55315648032491],[-46.5641032675385,-23.55315648032491],[-46.56396490782692,-23.55315648032491],[-46.563918787923065,-23.55315648032491],[-46.56382654811535,-23.553221640966544],[-46.56368818840378,-23.553221640966544],[-46.563642068499924,-23.553221640966544],[-46.56345758888449,-23.553221640966544],[-46.5632269893652,-23.55328680160818],[-46.56308862965363,-23.55328680160818],[-46.56304250974977,-23.55328680160818],[-46.562996389845914,-23.55328680160818],[-46.5629041500382,-23.55328680160818],[-46.56267355051891,-23.55328680160818],[-46.56253519080734,-23.553351962249813],[-46.56239683109576,-23.553351962249813],[-46.56216623157648,-23.553351962249813],[-46.5620278718649,-23.553351962249813],[-46.5620278718649,-23.55341712289145],[-46.56198175196104,-23.55341712289145],[-46.561935632057185,-23.55341712289145],[-46.56188951215333,-23.553482283533086],[-46.56175115244175,-23.553547444174722],[-46.561705032537894,-23.553612604816358],[-46.56161279273018,-23.553677765457994],[-46.561566672826324,-23.553677765457994],[-46.56138219321089,-23.553808086741267],[-46.56133607330703,-23.553873247382903],[-46.56124383349932,-23.553873247382903],[-46.56124383349932,-23.55393840802454],[-46.56110547378775,-23.55400356866617],[-46.56101323398003,-23.554068729307808],[-46.56087487426846,-23.554133889949444],[-46.5608287543646,-23.55419905059108],[-46.56078263446074,-23.55419905059108],[-46.560736514556886,-23.554264211232717],[-46.56069039465302,-23.554264211232717],[-46.56059815484531,-23.554329371874353],[-46.56041367522988,-23.554459693157625],[-46.560367555326025,-23.55452485379926],[-46.560275315518304,-23.55452485379926],[-46.56022919561445,-23.55452485379926],[-46.56022919561445,-23.554590014440898],[-46.56018307571059,-23.554590014440898],[-46.56013695580673,-23.554590014440898],[-46.56004471599902,-23.554655175082534],[-46.55999859609516,-23.554655175082534],[-46.5599524761913,-23.554720335724166],[-46.55990635628744,-23.554720335724166],[-46.559860236383585,-23.554720335724166],[-46.559860236383585,-23.554785496365803],[-46.55981411647973,-23.554785496365803],[-46.55976799657587,-23.554785496365803],[-46.559721876672015,-23.55485065700744],[-46.55967575676816,-23.55485065700744],[-46.5596296368643,-23.55485065700744],[-46.55958351696044,-23.55485065700744],[-46.55958351696044,-23.554915817649075],[-46.55953739705658,-23.554915817649075],[-46.55949127715272,-23.554915817649075],[-46.55944515724887,-23.554915817649075],[-46.55944515724887,-23.55498097829071],[-46.55939903734501,-23.55498097829071],[-46.559306797537296,-23.55498097829071],[-46.559214557729575,-23.555046138932347],[-46.55916843782572,-23.555046138932347],[-46.559076198018005,-23.555046138932347],[-46.55903007811415,-23.555111299573984],[-46.558937838306434,-23.555111299573984],[-46.55889171840258,-23.555111299573984],[-46.55879947859486,-23.555111299573984],[-46.55879947859486,-23.55517646021562],[-46.55870723878714,-23.55517646021562],[-46.558661118883286,-23.55517646021562],[-46.558522759171716,-23.555241620857256],[-46.558430519363995,-23.555241620857256],[-46.55838439946014,-23.555241620857256],[-46.558292159652424,-23.555306781498892],[-46.55819991984471,-23.555306781498892],[-46.558015440229276,-23.555371942140525],[-46.557877080517706,-23.555371942140525],[-46.55773872080613,-23.55543710278216],[-46.55760036109456,-23.55543710278216],[-46.55746200138299,-23.555502263423797],[-46.55732364167141,-23.555567424065433],[-46.55704692224827,-23.55563258470707],[-46.55695468244055,-23.55563258470707],[-46.556862442632834,-23.55563258470707],[-46.55677020282512,-23.555697745348706],[-46.556724082921264,-23.555697745348706],[-46.556447363498116,-23.555762905990342],[-46.55626288388268,-23.555828066631978],[-46.5560322843634,-23.555893227273614],[-46.55598616445954,-23.555893227273614],[-46.555940044555676,-23.555893227273614],[-46.55584780474796,-23.555893227273614],[-46.555801684844106,-23.555893227273614],[-46.55570944503639,-23.55595838791525],[-46.555432725613244,-23.556023548556883],[-46.55538660570939,-23.556023548556883],[-46.55520212609395,-23.556023548556883],[-46.555156006190096,-23.556023548556883],[-46.555017646478525,-23.55608870919852],[-46.55492540667081,-23.55608870919852],[-46.554879286766955,-23.55608870919852],[-46.55474092705538,-23.55608870919852],[-46.55460256734381,-23.556153869840156],[-46.55451032753609,-23.556153869840156],[-46.55446420763223,-23.556153869840156],[-46.55441808772837,-23.556153869840156],[-46.55432584792066,-23.556153869840156],[-46.5542797280168,-23.556153869840156],[-46.5542797280168,-23.55621903048179],[-46.5542797280168,-23.556153869840156],[-46.554233608112945,-23.556153869840156],[-46.554233608112945,-23.55608870919852],[-46.55418748820909,-23.556023548556883],[-46.55418748820909,-23.555893227273614],[-46.55418748820909,-23.555828066631978],[-46.55418748820909,-23.555762905990342],[-46.55418748820909,-23.555697745348706],[-46.55418748820909,-23.555567424065433],[-46.55414136830523,-23.55543710278216],[-46.55414136830523,-23.555371942140525],[-46.55414136830523,-23.555111299573984],[-46.55414136830523,-23.55498097829071],[-46.55414136830523,-23.55485065700744],[-46.55409524840137,-23.554590014440898],[-46.55409524840137,-23.55439453251599],[-46.55404912849751,-23.55400356866617],[-46.55404912849751,-23.55393840802454],[-46.55404912849751,-23.553873247382903],[-46.55404912849751,-23.553808086741267],[-46.554003008593654,-23.553677765457994],[-46.554003008593654,-23.55328680160818],[-46.5539568886898,-23.55315648032491],[-46.5539568886898,-23.552895837758363],[-46.5539568886898,-23.552830677116727],[-46.5539568886898,-23.55276551647509],[-46.554003008593654,-23.552635195191822],[-46.55404912849751,-23.55250487390855],[-46.55404912849751,-23.552374552625277],[-46.55409524840137,-23.552244231342005],[-46.55414136830523,-23.55217907070037],[-46.55414136830523,-23.552113910058733],[-46.55418748820909,-23.55198358877546],[-46.554233608112945,-23.55185326749219],[-46.554233608112945,-23.55172294620892],[-46.5542797280168,-23.551592624925647],[-46.55432584792066,-23.551462303642374],[-46.55432584792066,-23.551397143000738],[-46.55432584792066,-23.551331982359102],[-46.554371967824515,-23.551201661075833],[-46.55441808772837,-23.551136500434197],[-46.55446420763223,-23.55094101850929],[-46.55446420763223,-23.550810697226016],[-46.55455644743995,-23.55061521530111],[-46.55464868724766,-23.550159090809657],[-46.55469480715152,-23.550028769526385],[-46.55469480715152,-23.54996360888475],[-46.55474092705538,-23.549898448243116],[-46.55474092705538,-23.54983328760148],[-46.554787046959234,-23.54983328760148],[-46.554787046959234,-23.549702966318208],[-46.55483316686309,-23.54963780567657],[-46.55483316686309,-23.5495074843933],[-46.55492540667081,-23.549246841826758],[-46.55492540667081,-23.549116520543485],[-46.55497152657467,-23.548986199260213],[-46.55497152657467,-23.548921038618577],[-46.555017646478525,-23.54885587797694],[-46.555017646478525,-23.548790717335304],[-46.55506376638238,-23.548725556693668],[-46.55510988628624,-23.548530074768763],[-46.55510988628624,-23.54839975348549],[-46.555156006190096,-23.54839975348549],[-46.55520212609395,-23.548204271560582],[-46.55520212609395,-23.548139110918946],[-46.55524824599782,-23.547943628994037],[-46.55524824599782,-23.547878468352405],[-46.55529436590167,-23.54781330771077],[-46.55529436590167,-23.547748147069132],[-46.55534048580553,-23.54761782578586],[-46.55538660570939,-23.547487504502588],[-46.55538660570939,-23.54742234386095],[-46.55538660570939,-23.547357183219315],[-46.555432725613244,-23.54729202257768],[-46.555432725613244,-23.547226861936046],[-46.5554788455171,-23.547096540652774],[-46.55552496542096,-23.5469662193695],[-46.55552496542096,-23.546901058727865],[-46.55552496542096,-23.54683589808623],[-46.555571085324814,-23.546770737444593],[-46.555571085324814,-23.546705576802957],[-46.55561720522868,-23.54664041616132],[-46.555663325132535,-23.546314612953143],[-46.55570944503639,-23.546249452311507],[-46.55575556494025,-23.546119131028235],[-46.555801684844106,-23.545793327820057],[-46.55584780474796,-23.54572816717842],[-46.55584780474796,-23.545663006536785],[-46.55589392465182,-23.545532685253512],[-46.555940044555676,-23.54540236397024],[-46.5560322843634,-23.545076560762062],[-46.5560322843634,-23.54494623947879],[-46.556078404267254,-23.544815918195518],[-46.556078404267254,-23.54475075755388],[-46.55612452417111,-23.544685596912245],[-46.55612452417111,-23.54462043627061],[-46.556216763978824,-23.544424954345704],[-46.556216763978824,-23.544359793704068],[-46.55630900378654,-23.54416431177916],[-46.5563551236904,-23.544033990495887],[-46.55640124359426,-23.543838508570982],[-46.556447363498116,-23.54370818728771],[-46.55649348340197,-23.543643026646073],[-46.55653960330583,-23.5435127053628],[-46.55663184311354,-23.543317223437892],[-46.55667796301741,-23.543252062796256],[-46.556724082921264,-23.543121741512987],[-46.55677020282512,-23.54305658087135],[-46.55681632272898,-23.54292625958808],[-46.55681632272898,-23.542861098946442],[-46.556862442632834,-23.542795938304806],[-46.556862442632834,-23.54273077766317],[-46.55690856253669,-23.542665617021534],[-46.55690856253669,-23.542535295738265],[-46.55695468244055,-23.542404974454993],[-46.55695468244055,-23.54227465317172],[-46.557000802344405,-23.54227465317172],[-46.557000802344405,-23.542209492530084],[-46.55704692224827,-23.542014010605175],[-46.557093042152125,-23.541883689321907],[-46.557093042152125,-23.54181852868027],[-46.557093042152125,-23.541688207396998],[-46.55713916205598,-23.54162304675536],[-46.55713916205598,-23.541557886113726],[-46.55718528195984,-23.541427564830453],[-46.557231401863696,-23.541232082905545],[-46.55727752176755,-23.54084111905573],[-46.55732364167141,-23.540775958414095],[-46.55732364167141,-23.54071079777246],[-46.55732364167141,-23.540645637130822],[-46.55732364167141,-23.540580476489186],[-46.557369761575266,-23.540515315847554],[-46.557369761575266,-23.540450155205917],[-46.55746200138299,-23.54025467328101],[-46.557508121286844,-23.539928870072828],[-46.5575542411907,-23.539733388147923],[-46.55760036109456,-23.53960306686465],[-46.557646480998415,-23.53940758493974],[-46.557646480998415,-23.539342424298106],[-46.55769260090227,-23.539342424298106],[-46.55769260090227,-23.53927726365647],[-46.55769260090227,-23.539212103014833],[-46.55783096061385,-23.538755978523383],[-46.557877080517706,-23.538560496598475],[-46.557877080517706,-23.538495335956842],[-46.55792320042156,-23.538430175315206],[-46.55792320042156,-23.538299854031933],[-46.55796932032542,-23.538299854031933],[-46.55796932032542,-23.538234693390297],[-46.55810768003699,-23.53771340825721],[-46.558153799940854,-23.537517926332303],[-46.55824603974857,-23.537257283765758],[-46.55824603974857,-23.53719212312412],[-46.55824603974857,-23.53712696248249],[-46.55819991984471,-23.537061801840853],[-46.55810768003699,-23.537061801840853],[-46.55796932032542,-23.537061801840853],[-46.557877080517706,-23.536996641199217],[-46.55783096061385,-23.536996641199217],[-46.55778484070999,-23.536996641199217],[-46.55769260090227,-23.536996641199217],[-46.55760036109456,-23.536996641199217],[-46.55746200138299,-23.53693148055758],[-46.55741588147913,-23.53693148055758],[-46.557369761575266,-23.53693148055758],[-46.55732364167141,-23.53693148055758],[-46.55727752176755,-23.53693148055758],[-46.557231401863696,-23.53693148055758],[-46.55718528195984,-23.536866319915944],[-46.55713916205598,-23.536866319915944],[-46.557093042152125,-23.536866319915944],[-46.55681632272898,-23.536801159274308],[-46.55663184311354,-23.536801159274308],[-46.556585723209686,-23.536801159274308],[-46.55649348340197,-23.536801159274308],[-46.556447363498116,-23.536801159274308],[-46.55640124359426,-23.536801159274308],[-46.5563551236904,-23.536735998632672],[-46.55630900378654,-23.536735998632672],[-46.55626288388268,-23.536735998632672],[-46.556216763978824,-23.536735998632672],[-46.55617064407497,-23.536735998632672],[-46.55612452417111,-23.536670837991036],[-46.556078404267254,-23.536670837991036],[-46.5560322843634,-23.536670837991036],[-46.55598616445954,-23.536670837991036],[-46.555663325132535,-23.5366056773494],[-46.555571085324814,-23.5366056773494],[-46.5554788455171,-23.5366056773494],[-46.555432725613244,-23.5366056773494],[-46.555156006190096,-23.536540516707763],[-46.554879286766955,-23.53647535606613],[-46.554787046959234,-23.53647535606613],[-46.55469480715152,-23.536410195424494],[-46.554371967824515,-23.536345034782858],[-46.554233608112945,-23.536345034782858],[-46.554003008593654,-23.536279874141222],[-46.55391076878594,-23.536279874141222],[-46.553818528978226,-23.536279874141222],[-46.55349568965122,-23.536214713499586],[-46.55331121003579,-23.53614955285795],[-46.55326509013193,-23.53614955285795],[-46.5530806105165,-23.536084392216313],[-46.5527577711895,-23.536019231574677],[-46.552665531381784,-23.536019231574677],[-46.55252717167021,-23.53595407093304],[-46.55243493186249,-23.53595407093304],[-46.552388811958636,-23.53595407093304],[-46.552158212439345,-23.535888910291405],[-46.5518814930162,-23.535823749649772],[-46.55178925320848,-23.535823749649772],[-46.551374174073764,-23.535758589008136],[-46.55132805416991,-23.5356934283665],[-46.55128193426605,-23.5356934283665],[-46.55118969445833,-23.5356934283665],[-46.55082073522747,-23.535563107083227],[-46.55054401580433,-23.53549794644159],[-46.55040565609275,-23.53549794644159],[-46.55012893666961,-23.535432785799955],[-46.549667737631026,-23.53536762515832],[-46.54925265849631,-23.535237303875046],[-46.548514740034584,-23.535106982591778],[-46.54846862013073,-23.535106982591778],[-46.54842250022687,-23.535106982591778]]]}}]}