{"type":"FeatureCollection","features":[{"type":"Feature","properties":{"DATA_ULT_A":"2009/10/09","DATA_CRIAC":"2009/10/09","id":10,"name":"Butantã","area":56.1,"pop_2010":428217,"pop_density_2010":7633,"budget_2015":50220904},"geometry":{"type":"Polygon","coordinates":[[[-46.75808358316411,-23.55094101850929],[-46.75803746326025,-23.55107133979256],[-46.75789910354868,-23.551397143000738],[-46.757714623933246,-23.55198358877546],[-46.7574379045101,-23.552570034550186],[-46.75739178460624,-23.552700355833455],[-46.75739178460624,-23.552830677116727],[-46.75729954479853,-23.5529609984],[-46.75725342489467,-23.553026159041636],[-46.757207304990814,-23.55315648032491],[-46.75683834575995,-23.554068729307808],[-46.75674610595224,-23.554329371874353],[-46.75665386614452,-23.554590014440898],[-46.75660774624066,-23.554655175082534],[-46.756423266625234,-23.55517646021562],[-46.75637714672138,-23.555241620857256],[-46.75633102681751,-23.555306781498892],[-46.75633102681751,-23.555371942140525],[-46.756284906913656,-23.55543710278216],[-46.75619266710594,-23.555567424065433],[-46.75610042729823,-23.555697745348706],[-46.75605430739437,-23.555762905990342],[-46.75596206758665,-23.555828066631978],[-46.75586982777894,-23.555893227273614],[-46.755777587971224,-23.555893227273614],[-46.75568534816351,-23.55595838791525],[-46.75559310835579,-23.55595838791525],[-46.755500868548076,-23.55595838791525],[-46.75540862874036,-23.55595838791525],[-46.75531638893265,-23.55595838791525],[-46.75522414912493,-23.55595838791525],[-46.755131909317214,-23.55595838791525],[-46.75508578941336,-23.555893227273614],[-46.7550396695095,-23.555893227273614],[-46.75499354960564,-23.555893227273614],[-46.75462459037478,-23.555762905990342],[-46.754578470470925,-23.555762905990342],[-46.75425563114392,-23.55563258470707],[-46.75411727143234,-23.555567424065433],[-46.753932791816915,-23.555502263423797],[-46.75379443210534,-23.555502263423797],[-46.75374831220148,-23.55543710278216],[-46.753517712682196,-23.555371942140525],[-46.75333323306676,-23.555306781498892],[-46.753287113162905,-23.555306781498892],[-46.75287203402819,-23.55517646021562],[-46.75282591412433,-23.55517646021562],[-46.752641434508895,-23.555111299573984],[-46.75241083498961,-23.555046138932347],[-46.752364715085754,-23.55498097829071],[-46.75222635537418,-23.55498097829071],[-46.75213411556646,-23.554915817649075],[-46.75204187575875,-23.554915817649075],[-46.75194963595103,-23.554915817649075],[-46.75190351604717,-23.55498097829071],[-46.75181127623946,-23.55498097829071],[-46.7517651563356,-23.55498097829071],[-46.75167291652789,-23.555046138932347],[-46.75158067672017,-23.555046138932347],[-46.75148843691245,-23.555111299573984],[-46.75139619710474,-23.555241620857256],[-46.75135007720088,-23.555306781498892],[-46.75135007720088,-23.555371942140525],[-46.75111947768159,-23.555828066631978],[-46.750934998066164,-23.55621903048179],[-46.75088887816231,-23.556284191123428],[-46.750796638354586,-23.5564145124067],[-46.75070439854687,-23.556544833689973],[-46.750658278643016,-23.55660999433161],[-46.750519918931445,-23.556740315614878],[-46.750289319412154,-23.55687063689815],[-46.750012599989006,-23.55706611882306],[-46.74973588056586,-23.557261600747967],[-46.749689760662,-23.557261600747967],[-46.749643640758144,-23.557326761389604],[-46.74959752085429,-23.557326761389604],[-46.74945916114272,-23.557457082672872],[-46.74941304123886,-23.557457082672872],[-46.749366921334996,-23.557457082672872],[-46.74927468152728,-23.55752224331451],[-46.749228561623426,-23.557587403956145],[-46.74913632181571,-23.55765256459778],[-46.749090201911855,-23.55765256459778],[-46.748997962104134,-23.557717725239417],[-46.74895184220028,-23.557717725239417],[-46.74890572229642,-23.557782885881053],[-46.748859602392564,-23.557782885881053],[-46.74881348248871,-23.55784804652269],[-46.748675122777136,-23.557913207164326],[-46.74862900287327,-23.557913207164326],[-46.74862900287327,-23.557978367805962],[-46.748582882969416,-23.557978367805962],[-46.74853676306556,-23.557978367805962],[-46.74853676306556,-23.558043528447595],[-46.7484906431617,-23.558043528447595],[-46.748444523257845,-23.55810868908923],[-46.74839840335399,-23.55810868908923],[-46.74839840335399,-23.558173849730867],[-46.74835228345013,-23.558173849730867],[-46.74835228345013,-23.558239010372503],[-46.74830616354627,-23.558239010372503],[-46.74830616354627,-23.55830417101414],[-46.74826004364241,-23.55830417101414],[-46.74826004364241,-23.558369331655776],[-46.74798332421927,-23.558499652939048],[-46.74789108441155,-23.55862997422232],[-46.74784496450769,-23.558695134863953],[-46.74784496450769,-23.55876029550559],[-46.747798844603835,-23.55876029550559],[-46.74775272469998,-23.55876029550559],[-46.74775272469998,-23.558825456147225],[-46.74770660479612,-23.558825456147225],[-46.74752212518069,-23.558825456147225],[-46.74747600527683,-23.558825456147225],[-46.74742988537297,-23.558825456147225],[-46.74742988537297,-23.55876029550559],[-46.74738376546912,-23.55876029550559],[-46.74733764556526,-23.55876029550559],[-46.7472915256614,-23.55876029550559],[-46.747245405757546,-23.55876029550559],[-46.747245405757546,-23.558695134863953],[-46.74719928585368,-23.558695134863953],[-46.747153165949825,-23.558695134863953],[-46.74710704604597,-23.55862997422232],[-46.74706092614211,-23.55862997422232],[-46.747014806238255,-23.55862997422232],[-46.74683032662282,-23.558499652939048],[-46.74673808681511,-23.558499652939048],[-46.74669196691125,-23.558434492297412],[-46.74664584700739,-23.558434492297412],[-46.746599727103536,-23.558369331655776],[-46.74655360719968,-23.558369331655776],[-46.74655360719968,-23.55830417101414],[-46.74632300768039,-23.558369331655776],[-46.746230767872675,-23.558369331655776],[-46.74604628825724,-23.558369331655776],[-46.74590792854567,-23.558434492297412],[-46.745723448930235,-23.558434492297412],[-46.745585089218665,-23.558434492297412],[-46.74540060960324,-23.558499652939048],[-46.74475493094923,-23.558564813580684],[-46.74443209162222,-23.558564813580684],[-46.74424761200679,-23.558564813580684],[-46.74406313239136,-23.558499652939048],[-46.74378641296821,-23.558434492297412],[-46.743601933352785,-23.558369331655776],[-46.743371333833494,-23.558239010372503],[-46.74318685421806,-23.558043528447595],[-46.74304849450649,-23.557913207164326],[-46.74277177508334,-23.55765256459778],[-46.74254117556406,-23.557457082672872],[-46.742310576044765,-23.557261600747967],[-46.742172216333195,-23.55719644010633],[-46.74203385662162,-23.557131279464695],[-46.74189549691005,-23.55706611882306],[-46.74180325710233,-23.557000958181423],[-46.7416187774869,-23.557000958181423],[-46.74148041777533,-23.557000958181423],[-46.741295938159894,-23.557000958181423],[-46.74083473912132,-23.557000958181423],[-46.7404196599866,-23.557000958181423],[-46.74018906046731,-23.557000958181423],[-46.74000458085188,-23.557000958181423],[-46.73977398133259,-23.556935797539786],[-46.73963562162102,-23.55687063689815],[-46.739451142005585,-23.556805476256514],[-46.7392205424863,-23.55667515497324],[-46.738897703159296,-23.556479673048337],[-46.73862098373615,-23.556284191123428],[-46.738113664793715,-23.556023548556883],[-46.73705290700499,-23.55543710278216],[-46.73626886863941,-23.55498097829071],[-46.73553095017768,-23.554590014440898],[-46.73465467200438,-23.554133889949444],[-46.73433183267738,-23.55393840802454],[-46.734193472965806,-23.553873247382903],[-46.73400899335037,-23.55374292609963],[-46.7338706336388,-23.553677765457994],[-46.73373227392723,-23.553547444174722],[-46.73359391421565,-23.553482283533086],[-46.73350167440794,-23.55341712289145],[-46.733409434600226,-23.55328680160818],[-46.73331719479251,-23.55315648032491],[-46.73308659527322,-23.552830677116727],[-46.73294823556164,-23.55250487390855],[-46.73280987585007,-23.552244231342005],[-46.732763755946216,-23.552048749417096],[-46.73271763604236,-23.551918428133828],[-46.73271763604236,-23.551788106850555],[-46.73271763604236,-23.551592624925647],[-46.73271763604236,-23.551331982359102],[-46.732763755946216,-23.550810697226016],[-46.73280987585007,-23.55048489401784],[-46.73280987585007,-23.55028941209293],[-46.73280987585007,-23.550159090809657],[-46.732763755946216,-23.550028769526385],[-46.73271763604236,-23.549898448243116],[-46.7326715161385,-23.549768126959844],[-46.732625396234646,-23.549572645034935],[-46.73244091661921,-23.54931200246839],[-46.73216419719606,-23.548921038618577],[-46.73170299815749,-23.548334592843855],[-46.7302732811379,-23.549377163110027],[-46.72921252334917,-23.549898448243116],[-46.72455441305954,-23.552244231342005],[-46.72072646103935,-23.554068729307808],[-46.717359708057735,-23.555828066631978],[-46.713070556998964,-23.55784804652269],[-46.71302443709511,-23.55784804652269],[-46.71283995747968,-23.557913207164326],[-46.71256323805653,-23.558043528447595],[-46.71219427882567,-23.558239010372503],[-46.71182531959481,-23.558434492297412],[-46.71177919969095,-23.558434492297412],[-46.71173307978709,-23.558434492297412],[-46.71168695988323,-23.558499652939048],[-46.711640839979374,-23.558499652939048],[-46.71113352103694,-23.55876029550559],[-46.708458566613196,-23.560063508338306],[-46.70739780882447,-23.560649954113032],[-46.706521530651166,-23.56130156052939],[-46.705737492285586,-23.56221380951229],[-46.7051840534393,-23.563126058495193],[-46.70504569372772,-23.5633215404201],[-46.70412329565057,-23.566058287368808],[-46.703108657765696,-23.568860194959147],[-46.70237073930397,-23.570358889716772],[-46.701540581034536,-23.571727263191125],[-46.701540581034536,-23.57179242383276],[-46.70149446113067,-23.57179242383276],[-46.70121774170753,-23.572183387682575],[-46.701171621803674,-23.572183387682575],[-46.70112550189981,-23.57224854832421],[-46.70112550189981,-23.572313708965847],[-46.70107938199595,-23.572313708965847],[-46.701033262092096,-23.572378869607483],[-46.698173828052916,-23.574985295272917],[-46.69729754987962,-23.57589754425582],[-46.696836350841046,-23.576483990030543],[-46.695406633821456,-23.578960094412704],[-46.69370019737872,-23.58202264456959],[-46.69227048035913,-23.584629070235025],[-46.69203988083984,-23.585020034084838],[-46.69180928132055,-23.58580196178447],[-46.69167092160898,-23.5865838894841],[-46.69167092160898,-23.586844532050645],[-46.69167092160898,-23.58704001397555],[-46.691763161416695,-23.587952262958453],[-46.69203988083984,-23.58879935129972],[-46.69277779930157,-23.59081933119043],[-46.69379243718643,-23.593881881347315],[-46.694253636225014,-23.595119933538395],[-46.694253636225014,-23.59518509418003],[-46.69434587603273,-23.595445736746576],[-46.69531439401374,-23.59824764433692],[-46.69563723334074,-23.599094732678182],[-46.6960061925716,-23.600202463585994],[-46.69785098872592,-23.605480475558497],[-46.69840442757221,-23.60704433095776],[-46.69886562661078,-23.608933989565198],[-46.69918846593779,-23.610563005606092],[-46.6992807057455,-23.611149451380815],[-46.699326825649365,-23.611475254588996],[-46.69955742516865,-23.61219202164699],[-46.70020310382266,-23.614993929237333],[-46.700894902380526,-23.61818680067749],[-46.701033262092096,-23.618903567735483],[-46.70121774170753,-23.61942485286857],[-46.7013561014191,-23.61975065607675],[-46.70149446113067,-23.62001129864329],[-46.70158670093839,-23.62001129864329],[-46.70163282084225,-23.62001129864329],[-46.701678940746106,-23.619946138001655],[-46.70172506064996,-23.61988097736002],[-46.70177118055382,-23.61988097736002],[-46.70181730045768,-23.61988097736002],[-46.70181730045768,-23.619815816718386],[-46.70186342036153,-23.619815816718386],[-46.701955660169254,-23.61975065607675],[-46.70200178007311,-23.619685495435114],[-46.70204789997697,-23.619620334793478],[-46.702094019880825,-23.61955517415184],[-46.702094019880825,-23.619490013510205],[-46.70214013978468,-23.619490013510205],[-46.70214013978468,-23.61942485286857],[-46.70214013978468,-23.619359692226933],[-46.70218625968854,-23.619294531585297],[-46.70218625968854,-23.61922937094366],[-46.70218625968854,-23.619164210302028],[-46.70218625968854,-23.61909904966039],[-46.70218625968854,-23.619033889018755],[-46.70218625968854,-23.61896872837712],[-46.70214013978468,-23.618903567735483],[-46.70214013978468,-23.618838407093847],[-46.702094019880825,-23.61864292516894],[-46.702094019880825,-23.618577764527302],[-46.70204789997697,-23.61851260388567],[-46.70204789997697,-23.618447443244033],[-46.702094019880825,-23.618447443244033],[-46.702094019880825,-23.618382282602397],[-46.702094019880825,-23.61831712196076],[-46.70214013978468,-23.618251961319125],[-46.70218625968854,-23.61818680067749],[-46.7022323795924,-23.618121640035852],[-46.70227849949626,-23.618121640035852],[-46.70227849949626,-23.618056479394216],[-46.70237073930397,-23.618056479394216],[-46.70237073930397,-23.61799131875258],[-46.70241685920783,-23.61799131875258],[-46.70246297911169,-23.61799131875258],[-46.7025552189194,-23.61799131875258],[-46.70283193834255,-23.617926158110944],[-46.70301641795798,-23.617860997469307],[-46.70320089757341,-23.617795836827675],[-46.7034314970927,-23.617795836827675],[-46.703662096611986,-23.61773067618604],[-46.70380045632356,-23.61773067618604],[-46.703938816035134,-23.61773067618604],[-46.70449225488143,-23.617665515544402],[-46.70467673449686,-23.617665515544402],[-46.704815094208435,-23.617665515544402],[-46.70504569372772,-23.617600354902766],[-46.70523017334315,-23.617600354902766],[-46.70532241315087,-23.617600354902766],[-46.70541465295858,-23.617600354902766],[-46.70546077286244,-23.617600354902766],[-46.705599132574015,-23.617600354902766],[-46.70569137238173,-23.617600354902766],[-46.70596809180488,-23.61753519426113],[-46.70619869132416,-23.61753519426113],[-46.706383170939596,-23.61753519426113],[-46.70656765055502,-23.61753519426113],[-46.706798250074314,-23.617470033619494],[-46.70712108940132,-23.617470033619494],[-46.70730556901675,-23.617404872977858],[-46.70753616853604,-23.617404872977858],[-46.70762840834375,-23.617404872977858],[-46.70813572728619,-23.61733971233622],[-46.708458566613196,-23.617274551694585],[-46.70864304622862,-23.617274551694585],[-46.70891976565177,-23.61720939105295],[-46.7091042452672,-23.61720939105295],[-46.70928872488263,-23.61720939105295],[-46.70933484478649,-23.61720939105295],[-46.70961156420964,-23.617144230411316],[-46.70984216372892,-23.617144230411316],[-46.70988828363278,-23.617144230411316],[-46.71094904142151,-23.617013909128044],[-46.711087401133085,-23.616948748486408],[-46.71127188074851,-23.616948748486408],[-46.711502480267804,-23.616948748486408],[-46.71173307978709,-23.61688358784477],[-46.711871439498665,-23.61688358784477],[-46.712009799210236,-23.61688358784477],[-46.71210203901795,-23.61688358784477],[-46.71214815892181,-23.61688358784477],[-46.71233263853724,-23.616818427203135],[-46.7123787584411,-23.616818427203135],[-46.712424878344954,-23.616818427203135],[-46.712517118152675,-23.6167532665615],[-46.71256323805653,-23.6167532665615],[-46.71260935796039,-23.616688105919863],[-46.712655477864246,-23.616688105919863],[-46.7127015977681,-23.616622945278227],[-46.71274771767196,-23.61655778463659],[-46.712793837575816,-23.616492623994958],[-46.71283995747968,-23.61642746335332],[-46.71288607738354,-23.616362302711686],[-46.71297831719125,-23.616231981428413],[-46.713070556998964,-23.61610166014514],[-46.7132550366144,-23.615906178220232],[-46.713577875941404,-23.615450053728782],[-46.71362399584526,-23.615384893087146],[-46.713716235652974,-23.615189411162238],[-46.71376235555683,-23.615124250520605],[-46.7139007152684,-23.61486360795406],[-46.71399295507612,-23.614733286670788],[-46.71399295507612,-23.61466812602915],[-46.71403907497998,-23.614602965387515],[-46.714085194883836,-23.61453780474588],[-46.71413131478769,-23.61440748346261],[-46.71417743469155,-23.6142120015377],[-46.71417743469155,-23.61408168025443],[-46.71422355459541,-23.61408168025443],[-46.71422355459541,-23.614016519612793],[-46.71426967449926,-23.614016519612793],[-46.71426967449926,-23.613951358971157],[-46.71431579440313,-23.613951358971157],[-46.714361914306984,-23.613951358971157],[-46.71440803421084,-23.613951358971157],[-46.7144541541147,-23.613951358971157],[-46.714500274018555,-23.613951358971157],[-46.71459251382627,-23.613951358971157],[-46.714638633730125,-23.614016519612793],[-46.7147769934417,-23.614016519612793],[-46.71491535315327,-23.61408168025443],[-46.71496147305713,-23.61408168025443],[-46.71500759296099,-23.61408168025443],[-46.71509983276871,-23.61408168025443],[-46.71519207257642,-23.614016519612793],[-46.71523819248028,-23.614016519612793],[-46.71533043228799,-23.613951358971157],[-46.71556103180728,-23.613755877046252],[-46.71574551142271,-23.61362555576298],[-46.71583775123043,-23.613560395121343],[-46.71602223084586,-23.613364913196435],[-46.71625283036515,-23.613169431271526],[-46.71639119007672,-23.613039109988257],[-46.7165295497883,-23.61297394934662],[-46.716575669692155,-23.612908788704985],[-46.71666790949987,-23.61284362806335],[-46.71676014930758,-23.612778467421712],[-46.71680626921144,-23.612713306780076],[-46.71689850901916,-23.61264814613844],[-46.71694462892302,-23.612517824855168],[-46.71708298863459,-23.612452664213535],[-46.71726746825002,-23.612257182288626],[-46.717359708057735,-23.612126861005354],[-46.71740582796159,-23.612126861005354],[-46.71745194786545,-23.612061700363718],[-46.717498067769306,-23.61199653972208],[-46.71754418767316,-23.61199653972208],[-46.71754418767316,-23.611931379080445],[-46.71759030757703,-23.611931379080445],[-46.71763642748088,-23.611931379080445],[-46.71768254738474,-23.61186621843881],[-46.7177286672886,-23.61186621843881],[-46.7177286672886,-23.611801057797177],[-46.717774787192454,-23.611801057797177],[-46.71782090709631,-23.611801057797177],[-46.71786702700017,-23.61173589715554],[-46.717913146904024,-23.61173589715554],[-46.71795926680789,-23.61173589715554],[-46.718005386711745,-23.611670736513904],[-46.71809762651946,-23.611670736513904],[-46.718143746423316,-23.611670736513904],[-46.71837434594261,-23.611540415230632],[-46.718420465846464,-23.611540415230632],[-46.71846658575032,-23.611540415230632],[-46.71851270565418,-23.611540415230632],[-46.71860494546189,-23.611475254588996],[-46.71869718526961,-23.611475254588996],[-46.71874330517347,-23.611475254588996],[-46.71883554498118,-23.611475254588996],[-46.71888166488504,-23.611475254588996],[-46.71897390469275,-23.61141009394736],[-46.719066144500474,-23.61141009394736],[-46.71915838430819,-23.61141009394736],[-46.7192506241159,-23.61141009394736],[-46.719342863923615,-23.61141009394736],[-46.71952734353905,-23.61141009394736],[-46.719573463442906,-23.61141009394736],[-46.71961958334676,-23.611475254588996],[-46.71966570325062,-23.611475254588996],[-46.71989630276991,-23.611475254588996],[-46.71994242267377,-23.611475254588996],[-46.719988542577624,-23.611540415230632],[-46.72003466248148,-23.611540415230632],[-46.72008078238534,-23.611540415230632],[-46.72017302219306,-23.611605575872268],[-46.720219142096916,-23.611605575872268],[-46.72031138190463,-23.611670736513904],[-46.72058810132778,-23.61186621843881],[-46.72081870084706,-23.61199653972208],[-46.72086482075092,-23.61199653972208],[-46.72095706055864,-23.612061700363718],[-46.72109542027021,-23.612126861005354],[-46.72114154017407,-23.612126861005354],[-46.72123377998178,-23.612126861005354],[-46.721279899885644,-23.612126861005354],[-46.7213260197895,-23.612126861005354],[-46.72137213969336,-23.612126861005354],[-46.72146437950107,-23.612126861005354],[-46.72151049940493,-23.61219202164699],[-46.721556619308785,-23.61219202164699],[-46.72160273921264,-23.61219202164699],[-46.72178721882808,-23.61219202164699],[-46.72192557853965,-23.61219202164699],[-46.721971698443504,-23.61219202164699],[-46.72224841786665,-23.612126861005354],[-46.722340657674366,-23.612126861005354],[-46.72238677757823,-23.612126861005354],[-46.7225251372898,-23.612126861005354],[-46.72266349700137,-23.612126861005354],[-46.722709616905234,-23.612126861005354],[-46.722986336328376,-23.612061700363718],[-46.72321693584767,-23.612061700363718],[-46.72335529555924,-23.612061700363718],[-46.72358589507853,-23.612061700363718],[-46.723770374693956,-23.61199653972208],[-46.72395485430939,-23.61199653972208],[-46.72409321402096,-23.61199653972208],[-46.72418545382868,-23.61199653972208],[-46.724416053347966,-23.611931379080445],[-46.72478501257883,-23.611931379080445],[-46.72501561209812,-23.61186621843881],[-46.725615170848265,-23.611801057797177],[-46.72603024998299,-23.611801057797177],[-46.726122489790704,-23.611801057797177],[-46.72616860969456,-23.611801057797177],[-46.72644532911771,-23.61173589715554],[-46.72681428834857,-23.61173589715554],[-46.727275487387146,-23.611670736513904],[-46.72750608690644,-23.611605575872268],[-46.7278750461373,-23.611605575872268],[-46.72801340584887,-23.611605575872268],[-46.72810564565658,-23.611605575872268],[-46.72824400536816,-23.611605575872268],[-46.72829012527202,-23.611670736513904],[-46.72829012527202,-23.61173589715554],[-46.72838236507973,-23.611801057797177],[-46.72842848498359,-23.61186621843881],[-46.728474604887445,-23.611931379080445],[-46.7285207247913,-23.611931379080445],[-46.728566844695166,-23.61199653972208],[-46.72865908450288,-23.612061700363718],[-46.72875132431059,-23.612126861005354],[-46.728889684022164,-23.61219202164699],[-46.72902804373374,-23.612322342930263],[-46.72916640344531,-23.6123875035719],[-46.7293970029646,-23.612517824855168],[-46.7293970029646,-23.612582985496804],[-46.72962760248389,-23.612713306780076],[-46.729904321907036,-23.612908788704985],[-46.730181041330184,-23.613104270629893],[-46.730411640849475,-23.613234591913162],[-46.730411640849475,-23.6132997525548],[-46.730550000561045,-23.613364913196435],[-46.730826719984194,-23.613560395121343],[-46.730826719984194,-23.61362555576298],[-46.73087283988805,-23.61362555576298],[-46.73091895979191,-23.613690716404616],[-46.730965079695764,-23.613690716404616],[-46.73101119959962,-23.613755877046252],[-46.73105731950348,-23.613821037687888],[-46.731103439407335,-23.61388619832952],[-46.7311495593112,-23.61388619832952],[-46.73128791902277,-23.61408168025443],[-46.73128791902277,-23.614146840896066],[-46.73142627873434,-23.614277162179338],[-46.731472398638196,-23.61440748346261],[-46.73156463844592,-23.61453780474588],[-46.73156463844592,-23.61466812602915],[-46.731610758349774,-23.614798447312424],[-46.73165687825363,-23.614798447312424],[-46.73165687825363,-23.61486360795406],[-46.73170299815749,-23.61486360795406],[-46.731749118061344,-23.61486360795406],[-46.73184135786906,-23.61486360795406],[-46.73221031709992,-23.614798447312424],[-46.732394796715354,-23.614733286670788],[-46.73244091661921,-23.614733286670788],[-46.73257927633078,-23.614733286670788],[-46.73271763604236,-23.614733286670788],[-46.73285599575393,-23.614733286670788],[-46.73290211565779,-23.614733286670788],[-46.73294823556164,-23.614733286670788],[-46.73299435546551,-23.614733286670788],[-46.733040475369364,-23.614733286670788],[-46.73313271517708,-23.614733286670788],[-46.733178835080935,-23.614733286670788],[-46.73327107488865,-23.614733286670788],[-46.73331719479251,-23.614733286670788],[-46.73336331469637,-23.614733286670788],[-46.73345555450408,-23.614733286670788],[-46.73350167440794,-23.614798447312424],[-46.73359391421565,-23.614798447312424],[-46.73364003411951,-23.614798447312424],[-46.733686154023374,-23.614798447312424],[-46.73373227392723,-23.61486360795406],[-46.73377839383109,-23.61486360795406],[-46.733824513734945,-23.61486360795406],[-46.733962873446515,-23.614928768595696],[-46.73428571277352,-23.614993929237333],[-46.73423959286966,-23.61505908987897],[-46.734193472965806,-23.615124250520605],[-46.73423959286966,-23.615189411162238],[-46.73428571277352,-23.615254571803874],[-46.734608552100525,-23.615580375012055],[-46.73488527152367,-23.615906178220232],[-46.73497751133139,-23.61597133886187],[-46.73530035065839,-23.616362302711686],[-46.7356231899854,-23.616688105919863],[-46.73571542979311,-23.6167532665615],[-46.73576154969697,-23.616818427203135],[-46.735807669600824,-23.616818427203135],[-46.73585378950468,-23.61688358784477],[-46.73599214921626,-23.616948748486408],[-46.736038269120115,-23.616948748486408],[-46.73608438902397,-23.617013909128044],[-46.73613050892783,-23.617013909128044],[-46.736176628831686,-23.617013909128044],[-46.73626886863941,-23.617013909128044],[-46.73636110844712,-23.61707906976968],[-46.736453348254834,-23.61707906976968],[-46.736591707966404,-23.61707906976968],[-46.73663782787027,-23.61707906976968],[-46.736683947774125,-23.61707906976968],[-46.73673006767798,-23.61707906976968],[-46.73677618758184,-23.61707906976968],[-46.73686842738955,-23.61707906976968],[-46.73691454729341,-23.61707906976968],[-46.736960667197266,-23.617013909128044],[-46.73705290700499,-23.617013909128044],[-46.7371451468127,-23.617013909128044],[-46.737744705562854,-23.616688105919863],[-46.738021424985995,-23.61655778463659],[-46.73815978469757,-23.616492623994958],[-46.738390384216856,-23.61642746335332],[-46.73871322354386,-23.616231981428413],[-46.739036062870866,-23.61610166014514],[-46.739958460948024,-23.61564553565369],[-46.74005070075574,-23.61564553565369],[-46.74037354008274,-23.615450053728782],[-46.74069637940975,-23.615254571803874],[-46.74078861921746,-23.615189411162238],[-46.74083473912132,-23.615189411162238],[-46.74083473912132,-23.615124250520605],[-46.740880859025175,-23.615124250520605],[-46.74092697892903,-23.61505908987897],[-46.74092697892903,-23.614993929237333],[-46.74115757844832,-23.614993929237333],[-46.74120369835218,-23.614993929237333],[-46.741388177967615,-23.614993929237333],[-46.7416187774869,-23.614993929237333],[-46.741664897390756,-23.614993929237333],[-46.74184937700619,-23.61505908987897],[-46.74189549691005,-23.61505908987897],[-46.741941616813904,-23.61505908987897],[-46.74198773671776,-23.615124250520605],[-46.74203385662162,-23.615124250520605],[-46.742079976525474,-23.615189411162238],[-46.74212609642934,-23.615189411162238],[-46.74240281585248,-23.615384893087146],[-46.742448935756336,-23.615450053728782],[-46.7424950556602,-23.615450053728782],[-46.742725655179484,-23.615450053728782],[-46.74267953527563,-23.615384893087146],[-46.74267953527563,-23.61531973244551],[-46.742725655179484,-23.615254571803874],[-46.743094614410346,-23.615254571803874],[-46.74332521392964,-23.615254571803874],[-46.74406313239136,-23.615189411162238],[-46.74461657123765,-23.615124250520605],[-46.744801050853084,-23.615124250520605],[-46.74498553046851,-23.615124250520605],[-46.74535448969937,-23.615124250520605],[-46.74553896931481,-23.61505908987897],[-46.745585089218665,-23.61505908987897],[-46.74586180864181,-23.61505908987897],[-46.74600016835338,-23.61505908987897],[-46.7460924081611,-23.614993929237333],[-46.74618464796882,-23.614993929237333],[-46.746230767872675,-23.614993929237333],[-46.74627688777653,-23.614993929237333],[-46.74632300768039,-23.614993929237333],[-46.746369127584245,-23.61505908987897],[-46.7464152474881,-23.61505908987897],[-46.74646136739196,-23.615124250520605],[-46.74650748729582,-23.615189411162238],[-46.74650748729582,-23.61531973244551],[-46.74650748729582,-23.615384893087146],[-46.74650748729582,-23.615450053728782],[-46.74655360719968,-23.61551521437042],[-46.74655360719968,-23.615580375012055],[-46.746599727103536,-23.61564553565369],[-46.74664584700739,-23.615710696295327],[-46.74683032662282,-23.6158410175786],[-46.747245405757546,-23.61610166014514],[-46.747660484892265,-23.61629714207005],[-46.747937204315406,-23.61655778463659],[-46.748444523257845,-23.616818427203135],[-46.748582882969416,-23.61688358784477],[-46.74881348248871,-23.61707906976968],[-46.74895184220028,-23.61707906976968],[-46.749228561623426,-23.617144230411316],[-46.74955140095043,-23.617144230411316],[-46.74992036018129,-23.61720939105295],[-46.750012599989006,-23.617013909128044],[-46.75047379902758,-23.61610166014514],[-46.750519918931445,-23.615906178220232],[-46.750658278643016,-23.615124250520605],[-46.75125783739317,-23.6123875035719],[-46.751719036431744,-23.609911399189734],[-46.75194963595103,-23.608673346998653],[-46.75194963595103,-23.608608186357017],[-46.75199575585489,-23.60854302571538],[-46.75204187575875,-23.608477865073745],[-46.75204187575875,-23.608347543790476],[-46.75204187575875,-23.60828238314884],[-46.75204187575875,-23.608152061865567],[-46.75204187575875,-23.60808690122393],[-46.752087995662606,-23.608021740582295],[-46.75213411556646,-23.60795657994066],[-46.75218023547032,-23.607891419299023],[-46.75218023547032,-23.607826258657386],[-46.75222635537418,-23.607761098015754],[-46.75222635537418,-23.607695937374118],[-46.75222635537418,-23.607565616090845],[-46.75227247527803,-23.607435294807573],[-46.75227247527803,-23.607370134165937],[-46.75222635537418,-23.6073049735243],[-46.75218023547032,-23.607239812882664],[-46.75204187575875,-23.607174652241028],[-46.75194963595103,-23.607109491599395],[-46.75190351604717,-23.607109491599395],[-46.75190351604717,-23.60704433095776],[-46.75190351604717,-23.606914009674487],[-46.751857396143315,-23.60684884903285],[-46.7517651563356,-23.606718527749578],[-46.75167291652789,-23.606653367107942],[-46.75158067672017,-23.60652304582467],[-46.75139619710474,-23.60652304582467],[-46.75125783739317,-23.606457885183033],[-46.75111947768159,-23.606457885183033],[-46.75098111797002,-23.606457885183033],[-46.75084275825844,-23.6063927245414],[-46.75070439854687,-23.6063927245414],[-46.75047379902758,-23.60626240325813],[-46.75038155921987,-23.606197242616492],[-46.750289319412154,-23.606132081974856],[-46.7502431995083,-23.60606692133322],[-46.75019707960444,-23.605936600049947],[-46.75015095970058,-23.605806278766675],[-46.75005871989286,-23.605480475558497],[-46.750012599989006,-23.60528499363359],[-46.74996648008515,-23.605154672350317],[-46.74992036018129,-23.605024351067048],[-46.74982812037358,-23.60495919042541],[-46.74973588056586,-23.604894029783775],[-46.74959752085429,-23.60482886914214],[-46.74945916114272,-23.604763708500503],[-46.749366921334996,-23.604763708500503],[-46.74927468152728,-23.604698547858867],[-46.749228561623426,-23.60463338721723],[-46.749228561623426,-23.604503065933958],[-46.74918244171957,-23.604437905292322],[-46.74918244171957,-23.60437274465069],[-46.749228561623426,-23.60437274465069],[-46.74927468152728,-23.60437274465069],[-46.74932080143114,-23.60437274465069],[-46.74955140095043,-23.604437905292322],[-46.749643640758144,-23.604437905292322],[-46.74982812037358,-23.604437905292322],[-46.75038155921987,-23.60437274465069],[-46.750427679123725,-23.604307584009053],[-46.75047379902758,-23.604307584009053],[-46.750519918931445,-23.604242423367417],[-46.7505660388353,-23.604242423367417],[-46.75061215873916,-23.60404694144251],[-46.75061215873916,-23.603981780800872],[-46.75070439854687,-23.603786298875963],[-46.75075051845073,-23.60372113823433],[-46.75084275825844,-23.603330174384514],[-46.75098111797002,-23.6029392105347],[-46.75102723787388,-23.60274372860979],[-46.75111947768159,-23.60261340732652],[-46.751211717489305,-23.60241792540161],[-46.751442317008596,-23.60215728283507],[-46.75148843691245,-23.602092122193433],[-46.75153455681631,-23.602026961551797],[-46.75158067672017,-23.602026961551797],[-46.75162679662403,-23.60196180091016],[-46.751719036431744,-23.60196180091016],[-46.75181127623946,-23.60196180091016],[-46.751857396143315,-23.60196180091016],[-46.75194963595103,-23.60196180091016],[-46.75204187575875,-23.60196180091016],[-46.75213411556646,-23.60196180091016],[-46.75218023547032,-23.60196180091016],[-46.752364715085754,-23.60196180091016],[-46.75245695489347,-23.60196180091016],[-46.75254919470118,-23.60196180091016],[-46.75268755441275,-23.601896640268524],[-46.75310263354748,-23.601766318985252],[-46.75319487335519,-23.60170115834362],[-46.75324099325905,-23.60170115834362],[-46.75337935297062,-23.601635997701983],[-46.75365607239377,-23.60150567641871],[-46.75374831220148,-23.601440515777075],[-46.754163391336206,-23.60117987321053],[-46.75430175104778,-23.60104955192726],[-46.754347870951634,-23.60104955192726],[-46.75439399085549,-23.60104955192726],[-46.75444011075935,-23.600984391285625],[-46.75517802922107,-23.600788909360716],[-46.75527026902879,-23.600788909360716],[-46.75531638893265,-23.600788909360716],[-46.755362508836505,-23.60072374871908],[-46.75540862874036,-23.60072374871908],[-46.75545474864422,-23.600658588077444],[-46.75554698845193,-23.600593427435808],[-46.756008187490515,-23.60026762422763],[-46.75660774624066,-23.599876660377813],[-46.75665386614452,-23.599811499736177],[-46.75674610595224,-23.599811499736177],[-46.756792225856096,-23.59974633909454],[-46.75683834575995,-23.59974633909454],[-46.756930585567666,-23.59974633909454],[-46.75702282537538,-23.59974633909454],[-46.75716118508696,-23.59974633909454],[-46.75739178460624,-23.599811499736177],[-46.75748402441396,-23.599811499736177],[-46.75753014431782,-23.599811499736177],[-46.75762238412553,-23.599811499736177],[-46.75766850402939,-23.599811499736177],[-46.7577607438371,-23.59974633909454],[-46.75826806277954,-23.599550857169636],[-46.758360302587256,-23.599485696528],[-46.75840642249111,-23.599420535886363],[-46.75849866229883,-23.599355375244727],[-46.75859090210655,-23.599225053961455],[-46.75872926181812,-23.59902957203655],[-46.75882150162583,-23.59883409011164],[-46.758913741433545,-23.59870376882837],[-46.759005981241266,-23.598638608186732],[-46.75905210114512,-23.598573447545096],[-46.75923658076055,-23.598443126261824],[-46.75932882056827,-23.598312804978555],[-46.75937494047213,-23.59824764433692],[-46.759421060375985,-23.598182483695282],[-46.75946718027984,-23.59805216241201],[-46.759421060375985,-23.597921841128738],[-46.75923658076055,-23.597661198562196],[-46.75923658076055,-23.59759603792056],[-46.75919046085669,-23.597465716637288],[-46.75919046085669,-23.59740055599565],[-46.75919046085669,-23.597335395354015],[-46.75923658076055,-23.597205074070743],[-46.75937494047213,-23.597009592145838],[-46.759421060375985,-23.596879270862566],[-46.759421060375985,-23.59681411022093],[-46.75969777979913,-23.596553467654385],[-46.76025121864542,-23.595901861238026],[-46.760435698260856,-23.595641218671485],[-46.76052793806857,-23.595445736746576],[-46.76057405797243,-23.595250254821668],[-46.76057405797243,-23.59518509418003],[-46.760620177876284,-23.595119933538395],[-46.76066629778014,-23.59505477289676],[-46.760712417684,-23.594989612255127],[-46.76080465749172,-23.594989612255127],[-46.76089689729943,-23.594989612255127],[-46.760989137107146,-23.594989612255127],[-46.761035257011,-23.594989612255127],[-46.761265856530294,-23.594989612255127],[-46.761404216241864,-23.594989612255127],[-46.761404216241864,-23.59505477289676],[-46.76145033614572,-23.595119933538395],[-46.76145033614572,-23.595250254821668],[-46.761496456049585,-23.595250254821668],[-46.761496456049585,-23.595315415463304],[-46.761265856530294,-23.59538057610494],[-46.761265856530294,-23.595445736746576],[-46.76131197643415,-23.595510897388213],[-46.76131197643415,-23.59557605802985],[-46.76131197643415,-23.595641218671485],[-46.76135809633801,-23.595706379313118],[-46.7615886958573,-23.595641218671485],[-46.761634815761155,-23.595706379313118],[-46.761634815761155,-23.595771539954754],[-46.76168093566501,-23.59583670059639],[-46.76168093566501,-23.595901861238026],[-46.76168093566501,-23.595967021879662],[-46.76172705556887,-23.595967021879662],[-46.76168093566501,-23.5960321825213],[-46.76168093566501,-23.596097343162935],[-46.76172705556887,-23.59616250380457],[-46.76172705556887,-23.596227664446207],[-46.761773175472726,-23.596292825087843],[-46.76181929537658,-23.596292825087843],[-46.76181929537658,-23.596357985729476],[-46.76186541528045,-23.596357985729476],[-46.7619115351843,-23.596423146371112],[-46.76195765508816,-23.596423146371112],[-46.76200377499202,-23.596423146371112],[-46.76200377499202,-23.59648830701275],[-46.762049894895874,-23.59648830701275],[-46.76209601479973,-23.596553467654385],[-46.76214213470359,-23.59661862829602],[-46.762188254607445,-23.596683788937657],[-46.762188254607445,-23.596748949579293],[-46.76223437451131,-23.596748949579293],[-46.76223437451131,-23.59681411022093],[-46.76232661431902,-23.596879270862566],[-46.762418854126736,-23.596879270862566],[-46.762418854126736,-23.596944431504202],[-46.76246497403059,-23.596944431504202],[-46.76251109393445,-23.596944431504202],[-46.762557213838306,-23.596944431504202],[-46.762557213838306,-23.597009592145838],[-46.76260333374217,-23.597009592145838],[-46.76264945364603,-23.597009592145838],[-46.762695573549884,-23.597009592145838],[-46.76274169345374,-23.597009592145838],[-46.7627878133576,-23.59707475278747],[-46.762833933261454,-23.59707475278747],[-46.76288005316531,-23.59707475278747],[-46.76297229297303,-23.597139913429107],[-46.76301841287689,-23.597139913429107],[-46.763064532780746,-23.597205074070743],[-46.7631106526846,-23.597205074070743],[-46.76315677258846,-23.597205074070743],[-46.763202892492316,-23.597205074070743],[-46.76324901239617,-23.59727023471238],[-46.76329513230003,-23.59727023471238],[-46.763341252203894,-23.59727023471238],[-46.76343349201161,-23.597335395354015],[-46.763479611915464,-23.597335395354015],[-46.76352573181932,-23.597335395354015],[-46.76357185172318,-23.59740055599565],[-46.763617971627035,-23.59740055599565],[-46.76366409153089,-23.59740055599565],[-46.763710211434756,-23.597465716637288],[-46.76380245124247,-23.597465716637288],[-46.763848571146326,-23.597465716637288],[-46.76389469105018,-23.597530877278924],[-46.7639869308579,-23.59759603792056],[-46.76403305076175,-23.597661198562196],[-46.764125290569474,-23.59772635920383],[-46.76440200999262,-23.5978566804871],[-46.76467872941576,-23.59805216241201],[-46.764909328935055,-23.598117323053646],[-46.76495544883891,-23.598182483695282],[-46.765139928454346,-23.598312804978555],[-46.76541664787749,-23.59850828690346],[-46.76560112749292,-23.598573447545096],[-46.765693367300635,-23.59870376882837],[-46.7660623265315,-23.599094732678182],[-46.766108446435354,-23.59915989331982],[-46.76615456633921,-23.599225053961455],[-46.76620068624307,-23.599225053961455],[-46.766477405666215,-23.599355375244727],[-46.76661576537779,-23.599420535886363],[-46.76670800518551,-23.599420535886363],[-46.76684636489708,-23.599550857169636],[-46.766892484800934,-23.599550857169636],[-46.76693860470479,-23.599550857169636],[-46.766984724608655,-23.599550857169636],[-46.76707696441637,-23.599485696528],[-46.767123084320225,-23.599550857169636],[-46.76716920422408,-23.599550857169636],[-46.76721532412794,-23.599811499736177],[-46.76721532412794,-23.599876660377813],[-46.767261444031796,-23.59994182101945],[-46.76735368383952,-23.60007214230272],[-46.76739980374337,-23.600137302944358],[-46.76772264307038,-23.6003979455109],[-46.76786100278195,-23.60052826679417],[-46.767907122685806,-23.600463106152535],[-46.76809160230124,-23.600332784869266],[-46.76822996201281,-23.60026762422763],[-46.76827608191667,-23.600202463585994],[-46.768322201820524,-23.600202463585994],[-46.76892176057068,-23.60026762422763],[-46.768967880474534,-23.60026762422763],[-46.76915236008996,-23.600332784869266],[-46.76929071980154,-23.600202463585994],[-46.769613559128544,-23.600006981661085],[-46.769982518359406,-23.60026762422763],[-46.770120878070976,-23.6003979455109],[-46.77021311787869,-23.600332784869266],[-46.770535957205695,-23.60007214230272],[-46.77058207710955,-23.60007214230272],[-46.77113551595585,-23.60052826679417],[-46.771181635859705,-23.60052826679417],[-46.77122775576356,-23.600463106152535],[-46.77168895480214,-23.600463106152535],[-46.771735074706,-23.600463106152535],[-46.77191955432143,-23.600463106152535],[-46.77201179412914,-23.600463106152535],[-46.77210403393686,-23.600463106152535],[-46.77215015384072,-23.600463106152535],[-46.77224239364843,-23.600463106152535],[-46.77251911307158,-23.600463106152535],[-46.77279583249472,-23.600463106152535],[-46.773164791725584,-23.600463106152535],[-46.773533750956446,-23.60052826679417],[-46.77371823057188,-23.60052826679417],[-46.77376435047574,-23.60052826679417],[-46.77371823057188,-23.600593427435808],[-46.77367211066802,-23.600658588077444],[-46.77362599076417,-23.60072374871908],[-46.77367211066802,-23.60072374871908],[-46.77399494999503,-23.60091923064399],[-46.774179429610456,-23.60104955192726],[-46.7741333097066,-23.601114712568894],[-46.77408718980274,-23.60170115834362],[-46.774041069898885,-23.602222443476705],[-46.77408718980274,-23.60228760411834],[-46.7741333097066,-23.602352764759978],[-46.77422554951431,-23.602352764759978],[-46.7750095878799,-23.602808889251428],[-46.775240187399184,-23.6029392105347],[-46.77491734807218,-23.603069531817972],[-46.77491734807218,-23.603134692459605],[-46.775101827687614,-23.603460495667786],[-46.77519406749533,-23.60372113823433],[-46.775240187399184,-23.603786298875963],[-46.77528630730304,-23.603786298875963],[-46.77537854711076,-23.6038514595176],[-46.77551690682233,-23.6038514595176],[-46.77556302672619,-23.603916620159236],[-46.775747506341624,-23.603981780800872],[-46.77583974614934,-23.603981780800872],[-46.776116465572485,-23.60404694144251],[-46.776116465572485,-23.604112102084144],[-46.77630094518791,-23.604112102084144],[-46.77634706509177,-23.60417726272578],[-46.77643930489948,-23.60417726272578],[-46.77643930489948,-23.60404694144251],[-46.77648542480335,-23.603981780800872],[-46.77648542480335,-23.603916620159236],[-46.77643930489948,-23.60372113823433],[-46.77639318499563,-23.603655977592695],[-46.77634706509177,-23.603460495667786],[-46.776254825284056,-23.603134692459605],[-46.77639318499563,-23.603069531817972],[-46.77694662384192,-23.602874049893064],[-46.777315583072784,-23.603460495667786],[-46.77736170297664,-23.60339533502615],[-46.7774078228805,-23.60339533502615],[-46.77754618259207,-23.603330174384514],[-46.7789297797078,-23.60274372860979],[-46.77897589961166,-23.60274372860979],[-46.77906813941938,-23.602808889251428],[-46.77920649913095,-23.602874049893064],[-46.77934485884252,-23.603004371176336],[-46.779529338457955,-23.603134692459605],[-46.779667698169526,-23.603265013742877],[-46.779759937977246,-23.603330174384514],[-46.7798060578811,-23.60339533502615],[-46.78003665740039,-23.60372113823433],[-46.780082777304244,-23.603786298875963],[-46.78012889720811,-23.6038514595176],[-46.780175017111965,-23.603981780800872],[-46.78022113701582,-23.603981780800872],[-46.78105129528526,-23.604437905292322],[-46.78114353509297,-23.604503065933958],[-46.78123577490069,-23.604503065933958],[-46.78128189480455,-23.604503065933958],[-46.781374134612264,-23.604503065933958],[-46.78142025451612,-23.604437905292322],[-46.78146637441998,-23.604437905292322],[-46.78183533365084,-23.604242423367417],[-46.782019813266274,-23.60417726272578],[-46.782019813266274,-23.604112102084144],[-46.782019813266274,-23.60404694144251],[-46.782388772497136,-23.603981780800872],[-46.78257325211256,-23.603981780800872],[-46.78271161182414,-23.603916620159236],[-46.782757731728,-23.603916620159236],[-46.782803851631854,-23.6038514595176],[-46.78298833124728,-23.60372113823433],[-46.783080571055,-23.603655977592695],[-46.78312669095886,-23.60359081695106],[-46.78326505067043,-23.603525656309422],[-46.783403410382,-23.60339533502615],[-46.783449530285864,-23.60339533502615],[-46.78349565018972,-23.603330174384514],[-46.783587889997435,-23.603330174384514],[-46.78368012980515,-23.603330174384514],[-46.78589388519032,-23.604568226575594],[-46.7863550842289,-23.604763708500503],[-46.78653956384433,-23.604763708500503],[-46.78663180365204,-23.60482886914214],[-46.78672404345976,-23.60482886914214],[-46.78681628326748,-23.604894029783775],[-46.78690852307519,-23.604894029783775],[-46.78695464297905,-23.604894029783775],[-46.78695464297905,-23.60495919042541],[-46.78704688278676,-23.60495919042541],[-46.787093002690625,-23.60495919042541],[-46.78713912259448,-23.60495919042541],[-46.78718524249834,-23.60495919042541],[-46.787231362402196,-23.60495919042541],[-46.78727748230605,-23.60495919042541],[-46.78732360220991,-23.60495919042541],[-46.787369722113766,-23.60495919042541],[-46.78746196192149,-23.60495919042541],[-46.787508081825344,-23.60495919042541],[-46.7875542017292,-23.60495919042541],[-46.78760032163306,-23.60495919042541],[-46.78949123769122,-23.6063927245414],[-46.78953735759508,-23.606327563899764],[-46.78958347749894,-23.606197242616492],[-46.78958347749894,-23.606132081974856],[-46.789629597402794,-23.60606692133322],[-46.789860196922085,-23.605936600049947],[-46.790090796441376,-23.60587143940831],[-46.79018303624909,-23.60587143940831],[-46.79022915615295,-23.605806278766675],[-46.7902752760568,-23.605806278766675],[-46.7902752760568,-23.605741118125042],[-46.79032139596066,-23.60541531491686],[-46.790505875576095,-23.605480475558497],[-46.79055199547995,-23.605480475558497],[-46.79059811538381,-23.605480475558497],[-46.790644235287665,-23.60541531491686],[-46.790736475095386,-23.60541531491686],[-46.7908287149031,-23.60541531491686],[-46.79092095471081,-23.60541531491686],[-46.791059314422384,-23.60541531491686],[-46.791151554230105,-23.60541531491686],[-46.79147439355711,-23.605350154275225],[-46.791935592595685,-23.60528499363359],[-46.79216619211497,-23.605219832991953],[-46.79225843192269,-23.605219832991953],[-46.793273069807555,-23.605024351067048],[-46.79331918971142,-23.605154672350317],[-46.79318082999984,-23.605219832991953],[-46.793134710095984,-23.605350154275225],[-46.7932269499037,-23.60541531491686],[-46.79345754942299,-23.605545636200134],[-46.79373426884614,-23.605806278766675],[-46.794103228077,-23.606327563899764],[-46.794564427115574,-23.60652304582467],[-46.79507174605801,-23.606588206466306],[-46.79544070528887,-23.60626240325813],[-46.795579065000446,-23.60606692133322],[-46.79553294509659,-23.606001760691584],[-46.7956251849043,-23.60587143940831],[-46.7956251849043,-23.605741118125042],[-46.795579065000446,-23.605675957483406],[-46.79553294509659,-23.60561079684177],[-46.79548682519273,-23.60561079684177],[-46.79548682519273,-23.605545636200134],[-46.79548682519273,-23.605480475558497],[-46.7956251849043,-23.60541531491686],[-46.79571742471202,-23.605350154275225],[-46.79604026403902,-23.605089511708684],[-46.796132503846735,-23.605024351067048],[-46.79627086355831,-23.604894029783775],[-46.796547582981454,-23.604763708500503],[-46.7968243024046,-23.604763708500503],[-46.79733162134704,-23.604763708500503],[-46.79746998105861,-23.604763708500503],[-46.79779282038562,-23.604763708500503],[-46.79811565971262,-23.604763708500503],[-46.79848461894348,-23.604763708500503],[-46.798622978655054,-23.604763708500503],[-46.79871521846277,-23.60482886914214],[-46.79880745827049,-23.604894029783775],[-46.7988996980782,-23.60495919042541],[-46.79894581798206,-23.605024351067048],[-46.798991937885916,-23.605154672350317],[-46.79903805778977,-23.605350154275225],[-46.79908417769363,-23.605545636200134],[-46.799130297597486,-23.605741118125042],[-46.79917641750135,-23.605936600049947],[-46.79922253740521,-23.60606692133322],[-46.79936089711678,-23.606197242616492],[-46.79945313692449,-23.60626240325813],[-46.799775976251496,-23.606327563899764],[-46.79972985634764,-23.6063927245414],[-46.79986821605921,-23.60652304582467],[-46.79968373644378,-23.606588206466306],[-46.79972985634764,-23.606783688391214],[-46.79982209615535,-23.606979170316123],[-46.79986821605921,-23.607370134165937],[-46.79982209615535,-23.607565616090845],[-46.79982209615535,-23.607826258657386],[-46.799914335963074,-23.607891419299023],[-46.8000988155785,-23.60795657994066],[-46.800421654905506,-23.607891419299023],[-46.80060613452094,-23.607891419299023],[-46.80088285394408,-23.60795657994066],[-46.80102121365566,-23.60795657994066],[-46.801344052982664,-23.60795657994066],[-46.801713012213526,-23.607891419299023],[-46.80180525202124,-23.607891419299023],[-46.80194361173281,-23.607891419299023],[-46.80194361173281,-23.60795657994066],[-46.80198973163667,-23.60795657994066],[-46.80222033115596,-23.608217222507204],[-46.80235869086753,-23.608347543790476],[-46.80254317048296,-23.608477865073745],[-46.80263541029068,-23.608477865073745],[-46.80268153019453,-23.608477865073745],[-46.80268153019453,-23.608412704432112],[-46.80272765009839,-23.608412704432112],[-46.803050489425395,-23.60854302571538],[-46.80323496904083,-23.608608186357017],[-46.803281088944686,-23.608608186357017],[-46.8033733287524,-23.608608186357017],[-46.80341944865626,-23.608608186357017],[-46.803465568560114,-23.608608186357017],[-46.80351168846397,-23.608477865073745],[-46.80360392827169,-23.608347543790476],[-46.803696168079405,-23.608412704432112],[-46.803926767598696,-23.608608186357017],[-46.80401900740641,-23.608673346998653],[-46.80420348702184,-23.608673346998653],[-46.80438796663727,-23.60873850764029],[-46.8045724462527,-23.608868828923562],[-46.80471080596428,-23.608868828923562],[-46.80475692586813,-23.608933989565198],[-46.80484916567585,-23.608999150206834],[-46.80494140548356,-23.608999150206834],[-46.80521812490671,-23.608999150206834],[-46.80549484432986,-23.60906431084847],[-46.80558708413757,-23.60906431084847],[-46.805771563753005,-23.609129471490103],[-46.80600216327229,-23.60919463213174],[-46.806325002599294,-23.609259792773376],[-46.80646336231087,-23.609324953415012],[-46.80650948221473,-23.609324953415012],[-46.80660172202244,-23.609259792773376],[-46.80687844144559,-23.609259792773376],[-46.80692456134945,-23.60919463213174],[-46.80715516086873,-23.609129471490103],[-46.80729352058031,-23.60906431084847],[-46.80747800019574,-23.608999150206834],[-46.807616359907314,-23.608933989565198],[-46.80770859971503,-23.608933989565198],[-46.80780083952274,-23.608933989565198],[-46.807893079330455,-23.608999150206834],[-46.807985319138176,-23.608999150206834],[-46.80826203856132,-23.609129471490103],[-46.808400398272894,-23.609129471490103],[-46.808538757984465,-23.60919463213174],[-46.80881547740761,-23.60919463213174],[-46.80890771721533,-23.60919463213174],[-46.80890771721533,-23.609129471490103],[-46.80863099779218,-23.607565616090845],[-46.808400398272894,-23.606197242616492],[-46.80826203856132,-23.605350154275225],[-46.80821591865746,-23.60495919042541],[-46.80826203856132,-23.60495919042541],[-46.808123678849746,-23.60482886914214],[-46.80987623519634,-23.600137302944358],[-46.809737875484764,-23.599550857169636],[-46.809184436638475,-23.598573447545096],[-46.80899995702304,-23.598312804978555],[-46.80890771721533,-23.598117323053646],[-46.80886159731147,-23.597987001770374],[-46.80881547740761,-23.597791519845465],[-46.8087232375999,-23.59759603792056],[-46.80867711769604,-23.597465716637288],[-46.80858487788832,-23.59727023471238],[-46.808538757984465,-23.59707475278747],[-46.80849263808061,-23.596879270862566],[-46.808400398272894,-23.596683788937657],[-46.80830815846518,-23.596423146371112],[-46.80821591865746,-23.596292825087843],[-46.80807755894589,-23.595967021879662],[-46.807985319138176,-23.595706379313118],[-46.807893079330455,-23.595445736746576],[-46.80743188029188,-23.5944031664804],[-46.80743188029188,-23.594272845197132],[-46.80724740067645,-23.5934909174975],[-46.80724740067645,-23.593295435572593],[-46.80724740067645,-23.59316511428932],[-46.80724740067645,-23.592839311081143],[-46.807201280772595,-23.592774150439507],[-46.807201280772595,-23.59251350787296],[-46.807109040964875,-23.59238318658969],[-46.80701680115716,-23.592318025948053],[-46.80687844144559,-23.59225286530642],[-46.806832321541734,-23.592187704664784],[-46.806693961830156,-23.592187704664784],[-46.80660172202244,-23.592187704664784],[-46.80637112250315,-23.592187704664784],[-46.806186642887724,-23.592057383381512],[-46.80609440308001,-23.591796740814967],[-46.80600216327229,-23.591536098248426],[-46.806048283176146,-23.59147093760679],[-46.80614052298387,-23.59147093760679],[-46.80674008173401,-23.59068900990716],[-46.807616359907314,-23.589776760924256],[-46.80770859971503,-23.589776760924256],[-46.80780083952274,-23.58971160028262],[-46.807893079330455,-23.589646439640983],[-46.80793919923432,-23.58958127899935],[-46.807985319138176,-23.58945095771608],[-46.80807755894589,-23.58925547579117],[-46.80807755894589,-23.589125154507897],[-46.80803143904203,-23.58905999386626],[-46.807985319138176,-23.58905999386626],[-46.80793919923432,-23.588994833224625],[-46.8078469594266,-23.588929672582992],[-46.80738576038802,-23.588669030016447],[-46.806970681253304,-23.588343226808266],[-46.806693961830156,-23.58814774488336],[-46.8066478419263,-23.588082584241725],[-46.806555602118586,-23.587952262958453],[-46.80650948221473,-23.587887102316817],[-46.80650948221473,-23.587756781033544],[-46.80650948221473,-23.587626459750272],[-46.806555602118586,-23.58756129910864],[-46.80674008173401,-23.587235495900458],[-46.80687844144559,-23.586974853333913],[-46.80701680115716,-23.586844532050645],[-46.80715516086873,-23.586714210767372],[-46.80724740067645,-23.586649050125736],[-46.80757024000346,-23.586453568200827],[-46.80766247981117,-23.58638840755919],[-46.80770859971503,-23.586323246917555],[-46.807754719618885,-23.586192925634286],[-46.807754719618885,-23.58612776499265],[-46.807754719618885,-23.585997443709378],[-46.80770859971503,-23.585867122426105],[-46.80766247981117,-23.58560647985956],[-46.80757024000346,-23.58534583729302],[-46.80752412009959,-23.585215516009747],[-46.80752412009959,-23.58515035536811],[-46.80743188029188,-23.585085194726474],[-46.807339640484166,-23.584954873443202],[-46.807201280772595,-23.584824552159933],[-46.807109040964875,-23.584759391518297],[-46.80687844144559,-23.584629070235025],[-46.806693961830156,-23.58456390959339],[-46.80660172202244,-23.58456390959339],[-46.806048283176146,-23.58436842766848],[-46.80572544384915,-23.58423810638521],[-46.80549484432986,-23.584172945743575],[-46.80540260452214,-23.58410778510194],[-46.805264244810566,-23.58410778510194],[-46.80517200500285,-23.584042624460302],[-46.80507976519514,-23.584042624460302],[-46.80480304577199,-23.584042624460302],[-46.804341846733415,-23.583977463818666],[-46.803696168079405,-23.58391230317703],[-46.803557808367835,-23.58391230317703],[-46.80341944865626,-23.583847142535394],[-46.80323496904083,-23.583781981893758],[-46.80300436952154,-23.583651660610485],[-46.802912129713825,-23.583651660610485],[-46.80277377000225,-23.58358649996885],[-46.80268153019453,-23.58345617868558],[-46.80254317048296,-23.583391018043944],[-46.802497050579106,-23.583391018043944],[-46.80245093067525,-23.583325857402308],[-46.802404810771385,-23.583325857402308],[-46.80235869086753,-23.58326069676067],[-46.80231257096367,-23.58326069676067],[-46.80222033115596,-23.58326069676067],[-46.8021742112521,-23.58326069676067],[-46.80175913211738,-23.583325857402308],[-46.80166689230966,-23.583325857402308],[-46.80157465250195,-23.583325857402308],[-46.801482412694234,-23.583325857402308],[-46.80125181317494,-23.583325857402308],[-46.801205693271086,-23.583325857402308],[-46.80111345346337,-23.58326069676067],[-46.80079061413637,-23.58326069676067],[-46.800698374328654,-23.58326069676067],[-46.80060613452094,-23.583195536119035],[-46.800191055386215,-23.5831303754774],[-46.800052695674644,-23.5831303754774],[-46.799637616539925,-23.583065214835763],[-46.79959149663607,-23.583065214835763],[-46.79903805778977,-23.583000054194127],[-46.798991937885916,-23.583000054194127],[-46.798853578174345,-23.58293489355249],[-46.798622978655054,-23.582869732910858],[-46.79825401942419,-23.58280457226922],[-46.79811565971262,-23.582739411627585],[-46.797977300001044,-23.582739411627585],[-46.79774670048176,-23.58267425098595],[-46.79751610096247,-23.58267425098595],[-46.7973777412509,-23.582609090344313],[-46.79733162134704,-23.582609090344313],[-46.797193261635464,-23.582609090344313],[-46.79673206259689,-23.582543929702677],[-46.79631698346217,-23.582543929702677],[-46.795994144135165,-23.58247876906104],[-46.79567130480816,-23.58247876906104],[-46.79544070528887,-23.58247876906104],[-46.79539458538501,-23.58247876906104],[-46.795348465481155,-23.582543929702677],[-46.79502562615415,-23.58267425098595],[-46.794748906731,-23.58280457226922],[-46.79465666692329,-23.582869732910858],[-46.794564427115574,-23.583000054194127],[-46.79447218730786,-23.58280457226922],[-46.79447218730786,-23.582609090344313],[-46.79437994750014,-23.582152965852863],[-46.794287707692426,-23.581762002003046],[-46.79424158778857,-23.58143619879487],[-46.794149347980856,-23.581110395586688],[-46.794149347980856,-23.58104523494505],[-46.79405710817314,-23.58091491366178],[-46.79396486836542,-23.58078459237851],[-46.79387262855771,-23.580719431736874],[-46.79368814894228,-23.580523949811965],[-46.79368814894228,-23.58045878917033],[-46.7935497892307,-23.580393628528693],[-46.793365309615275,-23.580067825320516],[-46.79331918971142,-23.58000266467888],[-46.79318082999984,-23.579872343395607],[-46.79304247028827,-23.579742022112335],[-46.792857990672836,-23.579546540187426],[-46.792581271249695,-23.57922073697925],[-46.79221231201883,-23.578829773129435],[-46.79212007221111,-23.5787646124878],[-46.7920278324034,-23.578634291204526],[-46.79175111298025,-23.57837364863798],[-46.791704993076394,-23.578308487996345],[-46.79161275326868,-23.578178166713077],[-46.79156663336482,-23.57811300607144],[-46.791520513460966,-23.57811300607144],[-46.79138215374939,-23.577982684788168],[-46.791289913941675,-23.577982684788168],[-46.791151554230105,-23.57791752414653],[-46.79092095471081,-23.57778720286326],[-46.790644235287665,-23.577722042221623],[-46.790367515864524,-23.57759172093835],[-46.789998556633655,-23.577461399655082],[-46.789860196922085,-23.577461399655082],[-46.789860196922085,-23.577396239013446],[-46.78981407701823,-23.57733107837181],[-46.78976795711437,-23.57733107837181],[-46.789721837210514,-23.57733107837181],[-46.787093002690625,-23.57557174104764],[-46.78704688278676,-23.57557174104764],[-46.78690852307519,-23.575376259122734],[-46.7866779235559,-23.57511561655619],[-46.786447324036615,-23.574854973989645],[-46.78612448470961,-23.574398849498195],[-46.7860322449019,-23.57433368885656],[-46.785940005094176,-23.574268528214922],[-46.78584776528646,-23.574203367573286],[-46.78570940557489,-23.574138206931654],[-46.78561716576718,-23.574138206931654],[-46.7854788060556,-23.574138206931654],[-46.78538656624789,-23.574138206931654],[-46.78455640797845,-23.574203367573286],[-46.7839568492283,-23.574268528214922],[-46.782942211343425,-23.574398849498195],[-46.782527132208706,-23.574398849498195],[-46.78243489240099,-23.574398849498195],[-46.78234265259328,-23.574398849498195],[-46.78225041278556,-23.574398849498195],[-46.782158172977844,-23.57433368885656],[-46.78206593317013,-23.574268528214922],[-46.78197369336242,-23.574138206931654],[-46.78183533365084,-23.573942725006745],[-46.78169697393927,-23.573747243081836],[-46.781604734131555,-23.573616921798564],[-46.78155861422769,-23.573486600515295],[-46.781512494323835,-23.573486600515295],[-46.78146637441998,-23.573486600515295],[-46.781374134612264,-23.57342143987366],[-46.78142025451612,-23.573356279232023],[-46.78142025451612,-23.573291118590387],[-46.78142025451612,-23.57322595794875],[-46.78142025451612,-23.573160797307114],[-46.78142025451612,-23.573095636665478],[-46.781374134612264,-23.572965315382206],[-46.78132801470841,-23.57290015474057],[-46.78128189480455,-23.572834994098933],[-46.78118965499683,-23.5727698334573],[-46.781097415189116,-23.572704672815664],[-46.78091293557369,-23.572639512174028],[-46.78082069576597,-23.572574351532392],[-46.78054397634283,-23.572313708965847],[-46.78040561663125,-23.57224854832421],[-46.780313376823536,-23.572118227040942],[-46.78026725691968,-23.572053066399306],[-46.78022113701582,-23.57198790575767],[-46.78022113701582,-23.571922745116034],[-46.78022113701582,-23.57179242383276],[-46.78026725691968,-23.571727263191125],[-46.78035949672739,-23.571531781266216],[-46.780451736535106,-23.571401459982948],[-46.780451736535106,-23.57133629934131],[-46.78049785643897,-23.57120597805804],[-46.78049785643897,-23.571140817416403],[-46.78049785643897,-23.57101049613313],[-46.78049785643897,-23.570945335491494],[-46.780451736535106,-23.570880174849858],[-46.78040561663125,-23.570815014208222],[-46.78035949672739,-23.570815014208222],[-46.77989829768882,-23.570684692924953],[-46.77989829768882,-23.57074985356659],[-46.779944417592674,-23.570815014208222],[-46.77999053749653,-23.57101049613313],[-46.77999053749653,-23.571075656774767],[-46.77999053749653,-23.571140817416403],[-46.77989829768882,-23.571140817416403],[-46.779759937977246,-23.571075656774767],[-46.779667698169526,-23.571075656774767],[-46.77962157826567,-23.571075656774767],[-46.77957545836181,-23.571075656774767],[-46.7794832185541,-23.571075656774767],[-46.77943709865024,-23.571140817416403],[-46.77939097874638,-23.571140817416403],[-46.77934485884252,-23.57120597805804],[-46.779298738938664,-23.571271138699675],[-46.77925261903481,-23.571271138699675],[-46.77925261903481,-23.57133629934131],[-46.77920649913095,-23.571531781266216],[-46.77916037922709,-23.571596941907853],[-46.77916037922709,-23.57166210254949],[-46.77911425932324,-23.57166210254949],[-46.77906813941938,-23.571727263191125],[-46.7789297797078,-23.571466620624584],[-46.77883753990009,-23.571466620624584],[-46.77879141999623,-23.571466620624584],[-46.77869918018852,-23.571466620624584],[-46.77856082047694,-23.571466620624584],[-46.77846858066923,-23.571466620624584],[-46.77837634086151,-23.571401459982948],[-46.77828410105379,-23.57133629934131],[-46.778099621438365,-23.57120597805804],[-46.777869021919074,-23.571075656774767],[-46.77777678211136,-23.57101049613313],[-46.7777306622075,-23.57101049613313],[-46.77754618259207,-23.570945335491494],[-46.77750006268821,-23.570880174849858],[-46.777453942784355,-23.570880174849858],[-46.7774078228805,-23.570880174849858],[-46.77736170297664,-23.570880174849858],[-46.777315583072784,-23.570880174849858],[-46.77699274374578,-23.570880174849858],[-46.77694662384192,-23.570880174849858],[-46.77685438403421,-23.570880174849858],[-46.77685438403421,-23.570815014208222],[-46.776531544707204,-23.570815014208222],[-46.77643930489948,-23.570815014208222],[-46.77616258547634,-23.57074985356659],[-46.776116465572485,-23.57074985356659],[-46.776024225764765,-23.57074985356659],[-46.77570138643776,-23.570684692924953],[-46.77556302672619,-23.570684692924953],[-46.775470786918476,-23.570684692924953],[-46.77542466701462,-23.570684692924953],[-46.7753324272069,-23.570619532283317],[-46.77528630730304,-23.570619532283317],[-46.77514794759147,-23.570619532283317],[-46.77505570778376,-23.570619532283317],[-46.77491734807218,-23.570619532283317],[-46.77487122816832,-23.570619532283317],[-46.77473286845675,-23.57055437164168],[-46.77450226893746,-23.57055437164168],[-46.77436390922589,-23.570489211000044],[-46.77431778932203,-23.570489211000044],[-46.77427166941817,-23.570489211000044],[-46.774179429610456,-23.570489211000044],[-46.77408718980274,-23.570489211000044],[-46.774041069898885,-23.570489211000044],[-46.77394883009117,-23.570489211000044],[-46.77385659028345,-23.570424050358408],[-46.773810470379594,-23.570424050358408],[-46.77371823057188,-23.570424050358408],[-46.77367211066802,-23.570424050358408],[-46.77357987086031,-23.570424050358408],[-46.773533750956446,-23.570424050358408],[-46.77348763105259,-23.570424050358408],[-46.77344151114873,-23.570424050358408],[-46.77334927134102,-23.570358889716772],[-46.773257031533305,-23.570358889716772],[-46.77321091162945,-23.570358889716772],[-46.77311867182173,-23.570358889716772],[-46.773026432014014,-23.570358889716772],[-46.772749712590866,-23.570293729075136],[-46.772611352879295,-23.570293729075136],[-46.77265747278315,-23.570163407791863],[-46.77270359268701,-23.570033086508595],[-46.772749712590866,-23.56996792586696],[-46.77265747278315,-23.56977244394205],[-46.77265747278315,-23.569642122658777],[-46.77265747278315,-23.56957696201714],[-46.77265747278315,-23.569511801375505],[-46.77256523297544,-23.569511801375505],[-46.77265747278315,-23.569446640733872],[-46.772611352879295,-23.569251158808964],[-46.772611352879295,-23.569185998167328],[-46.772611352879295,-23.56912083752569],[-46.77256523297544,-23.56912083752569],[-46.77256523297544,-23.569055676884055],[-46.77256523297544,-23.56899051624242],[-46.77256523297544,-23.568860194959147],[-46.77256523297544,-23.56879503431751],[-46.77251911307158,-23.56866471303424],[-46.77251911307158,-23.568599552392605],[-46.77251911307158,-23.56853439175097],[-46.77251911307158,-23.568404070467697],[-46.77251911307158,-23.56833890982606],[-46.77251911307158,-23.568273749184424],[-46.772472993167725,-23.568208588542788],[-46.772472993167725,-23.567947945976247],[-46.772472993167725,-23.567817624692974],[-46.77242687326386,-23.567687303409702],[-46.77242687326386,-23.567622142768066],[-46.772380753360004,-23.56710085763498],[-46.77233463345615,-23.56664473314353],[-46.77224239364843,-23.566253769293713],[-46.77224239364843,-23.566188608652077],[-46.77215015384072,-23.566058287368808],[-46.771827314513715,-23.56553700223572],[-46.77127387566742,-23.56462475325282],[-46.771181635859705,-23.564559592611182],[-46.77113551595585,-23.564494431969546],[-46.77108939605199,-23.56442927132791],[-46.77099715624428,-23.564364110686274],[-46.77090491643656,-23.564364110686274],[-46.770766556724986,-23.564298950044638],[-46.770628197013416,-23.564298950044638],[-46.770259237782554,-23.564168628761365],[-46.77007475816712,-23.564168628761365],[-46.769982518359406,-23.564168628761365],[-46.76993639845555,-23.56410346811973],[-46.76989027855169,-23.56410346811973],[-46.76984415864783,-23.56410346811973],[-46.769751918840115,-23.564038307478096],[-46.7696596790324,-23.564038307478096],[-46.769613559128544,-23.564038307478096],[-46.769475199416966,-23.564038307478096],[-46.769336839705396,-23.564038307478096],[-46.76924459989768,-23.564038307478096],[-46.769106240186105,-23.56397314683646],[-46.768967880474534,-23.56397314683646],[-46.76892176057068,-23.56397314683646],[-46.768829520762964,-23.56397314683646],[-46.76873728095524,-23.56397314683646],[-46.76850668143596,-23.563907986194824],[-46.76827608191667,-23.563842825553188],[-46.76822996201281,-23.563842825553188],[-46.7681377222051,-23.563842825553188],[-46.768045482397376,-23.563842825553188],[-46.76781488287809,-23.563842825553188],[-46.7675842833588,-23.563712504269915],[-46.767676523166514,-23.56364734362828],[-46.767676523166514,-23.563582182986643],[-46.767676523166514,-23.563517022345007],[-46.76763040326266,-23.56345186170337],[-46.7675842833588,-23.56345186170337],[-46.76749204355109,-23.563386701061738],[-46.76739980374337,-23.563386701061738],[-46.76735368383952,-23.56345186170337],[-46.767123084320225,-23.563582182986643],[-46.76666188528165,-23.56377766491155],[-46.76666188528165,-23.563582182986643],[-46.76666188528165,-23.563517022345007],[-46.76661576537779,-23.56345186170337],[-46.76656964547393,-23.56345186170337],[-46.76652352557007,-23.563386701061738],[-46.766477405666215,-23.56345186170337],[-46.766108446435354,-23.56377766491155],[-46.7660623265315,-23.563842825553188],[-46.76564724739678,-23.56364734362828],[-46.76537052797363,-23.563517022345007],[-46.76523216826206,-23.5633215404201],[-46.76509380855048,-23.563126058495193],[-46.765047688646625,-23.562930576570285],[-46.764909328935055,-23.5624092914372],[-46.76467872941576,-23.561171239246118],[-46.76467872941576,-23.56110607860448],[-46.76458648960805,-23.56110607860448],[-46.76454036970419,-23.56110607860448],[-46.7639869308579,-23.561236399887754],[-46.76389469105018,-23.56130156052939],[-46.763848571146326,-23.561366721171026],[-46.76380245124247,-23.561366721171026],[-46.763617971627035,-23.561171239246118],[-46.76324901239617,-23.560845436037937],[-46.763848571146326,-23.56019382962158],[-46.764125290569474,-23.559933187055037],[-46.76454036970419,-23.55954222320522],[-46.76458648960805,-23.559411901921948],[-46.76463260951191,-23.55928158063868],[-46.76458648960805,-23.559151259355406],[-46.76454036970419,-23.559020938072134],[-46.764494249800336,-23.55889061678886],[-46.76440200999262,-23.558825456147225],[-46.7631106526846,-23.558043528447595],[-46.76292617306917,-23.557913207164326],[-46.762833933261454,-23.557913207164326],[-46.7627878133576,-23.55784804652269],[-46.76274169345374,-23.557782885881053],[-46.76264945364603,-23.55765256459778],[-46.762557213838306,-23.55752224331451],[-46.76251109393445,-23.557457082672872],[-46.76246497403059,-23.55719644010633],[-46.762418854126736,-23.557000958181423],[-46.76237273422288,-23.55687063689815],[-46.762280494415165,-23.556740315614878],[-46.762188254607445,-23.55667515497324],[-46.76200377499202,-23.556544833689973],[-46.761773175472726,-23.5564145124067],[-46.76112749681872,-23.556153869840156],[-46.76108137691486,-23.55608870919852],[-46.760712417684,-23.55595838791525],[-46.76029733854928,-23.555762905990342],[-46.760066739029995,-23.55563258470707],[-46.7598361395107,-23.55543710278216],[-46.75974389970299,-23.555306781498892],[-46.75969777979913,-23.555241620857256],[-46.759005981241266,-23.55341712289145],[-46.75895986133741,-23.553351962249813],[-46.75882150162583,-23.5529609984],[-46.75840642249111,-23.551788106850555],[-46.75826806277954,-23.551331982359102],[-46.75817582297182,-23.551201661075833],[-46.75808358316411,-23.55094101850929]]]}}]}