{"type":"FeatureCollection","features":[{"type":"Feature","properties":{"DATA_ULT_A":"2009/10/09","DATA_CRIAC":"2009/10/09","id":19,"name":"Capela do Socorro","area":134.2,"pop_2010":594930,"pop_density_2010":4433,"budget_2015":54733163},"geometry":{"type":"Polygon","coordinates":[[[-46.685767573915186,-23.70002856657212],[-46.68438397679946,-23.700680172988477],[-46.68318485929915,-23.70113629747993],[-46.68138618304871,-23.701722743254653],[-46.67884958833653,-23.70237434967101],[-46.67695867227836,-23.70270015287919],[-46.675298355739486,-23.70302595608737],[-46.67432983775847,-23.703221438012278],[-46.67170100323858,-23.704329168920086],[-46.66967172746884,-23.707456879718606],[-46.669302768237976,-23.713777461957285],[-46.66856484977625,-23.715667120564724],[-46.667089012852806,-23.717491618530527],[-46.6655670560255,-23.718729670721608],[-46.662523142370894,-23.72029352612087],[-46.65892578986999,-23.72153157831195],[-46.657034873811824,-23.723160594352848],[-46.65500559804208,-23.728112803117174],[-46.65403708006107,-23.729025052100074],[-46.652330643618335,-23.731175353274057],[-46.651915564483616,-23.73319533316477],[-46.650762566887174,-23.736062401396747],[-46.6494250896753,-23.74023268246144],[-46.64794925275185,-23.74876872651574],[-46.6476725333287,-23.75059322448154],[-46.646980734770835,-23.75248288308898],[-46.64582773717439,-23.75534995132096],[-46.64568937746282,-23.755740915170772],[-46.64444414005866,-23.7590641078942],[-46.6443980201548,-23.759194429177473],[-46.643337262366074,-23.760627963293462],[-46.633790442267525,-23.771379469163378],[-46.625811698900144,-23.78030647706749],[-46.62558109938085,-23.780697440917304],[-46.62373630322654,-23.783694830432555],[-46.623228984284104,-23.787213505080892],[-46.62295226486096,-23.789819930746326],[-46.62313674447639,-23.796401155551546],[-46.62350570370725,-23.80513268153075],[-46.62382854303426,-23.808064910404365],[-46.6237824231304,-23.814646135209586],[-46.6249815406307,-23.819077058840822],[-46.62558109938085,-23.820184789748634],[-46.63355984274824,-23.82839503059475],[-46.63448224082539,-23.83041501048546],[-46.63439000101768,-23.83386852449216],[-46.634297761209965,-23.836800753365775],[-46.63646539669128,-23.836931074649048],[-46.638725271980306,-23.83771300234868],[-46.64126186669248,-23.83875557261485],[-46.64425966044323,-23.840710391863926],[-46.64753417361713,-23.843512299454268],[-46.65085480669489,-23.84631420704461],[-46.65514395775366,-23.849181275276585],[-46.65685039419639,-23.849507078484766],[-46.657957271888975,-23.849702560409675],[-46.659894307851005,-23.84989804233458],[-46.6622925428516,-23.849507078484766],[-46.66450629823677,-23.849181275276585],[-46.66658169391037,-23.84820386565205],[-46.667596331795245,-23.84722645602751],[-46.66888768910326,-23.846640010252788],[-46.670870844969144,-23.846249046402974],[-46.67336131977746,-23.8461187251197],[-46.675851794585775,-23.846509688969515],[-46.67718927179765,-23.846705170894424],[-46.67834226939409,-23.846053564478066],[-46.678711228624955,-23.845858082553157],[-46.67903406795196,-23.845727761269888],[-46.67954138689439,-23.845792921911524],[-46.68004870583683,-23.845792921911524],[-46.680556024779264,-23.84598840383643],[-46.68060214468312,-23.84598840383643],[-46.680556024779264,-23.846053564478066],[-46.680556024779264,-23.8461187251197],[-46.680556024779264,-23.846183885761338],[-46.68060214468312,-23.846249046402974],[-46.68064826458698,-23.846249046402974],[-46.6807405043947,-23.84631420704461],[-46.68083274420241,-23.84631420704461],[-46.680924984010126,-23.846379367686247],[-46.68097110391398,-23.846379367686247],[-46.68101722381784,-23.846444528327883],[-46.6810633437217,-23.846509688969515],[-46.68115558352942,-23.84657484961115],[-46.681201703433274,-23.846640010252788],[-46.68124782333713,-23.846640010252788],[-46.68129394324099,-23.846705170894424],[-46.681340063144845,-23.84677033153606],[-46.68129394324099,-23.846835492177696],[-46.68124782333713,-23.846835492177696],[-46.681201703433274,-23.846835492177696],[-46.68115558352942,-23.846900652819333],[-46.68115558352942,-23.84696581346097],[-46.68124782333713,-23.847030974102605],[-46.681340063144845,-23.847030974102605],[-46.681432302952565,-23.84709613474424],[-46.68147842285642,-23.84709613474424],[-46.681570662664136,-23.847161295385874],[-46.68166290247185,-23.847161295385874],[-46.681709022375706,-23.84722645602751],[-46.68175514227957,-23.84722645602751],[-46.68180126218343,-23.84722645602751],[-46.68180126218343,-23.847291616669146],[-46.68175514227957,-23.847356777310782],[-46.681709022375706,-23.84742193795242],[-46.681709022375706,-23.847487098594055],[-46.681709022375706,-23.84755225923569],[-46.68166290247185,-23.847617419877327],[-46.68166290247185,-23.847682580518963],[-46.68166290247185,-23.8477477411606],[-46.68161678256799,-23.8477477411606],[-46.68161678256799,-23.847812901802236],[-46.681570662664136,-23.847812901802236],[-46.681570662664136,-23.84787806244387],[-46.681570662664136,-23.847943223085505],[-46.681570662664136,-23.84800838372714],[-46.68152454276028,-23.84800838372714],[-46.68152454276028,-23.848073544368777],[-46.68147842285642,-23.848138705010413],[-46.68152454276028,-23.848138705010413],[-46.68152454276028,-23.84820386565205],[-46.681570662664136,-23.84820386565205],[-46.681570662664136,-23.848269026293686],[-46.68161678256799,-23.848269026293686],[-46.68161678256799,-23.848334186935322],[-46.68161678256799,-23.848399347576958],[-46.68161678256799,-23.848464508218594],[-46.68166290247185,-23.848464508218594],[-46.68166290247185,-23.848529668860227],[-46.68166290247185,-23.848594829501863],[-46.681709022375706,-23.848594829501863],[-46.681709022375706,-23.8486599901435],[-46.68175514227957,-23.848725150785135],[-46.68175514227957,-23.84879031142677],[-46.68175514227957,-23.848855472068408],[-46.68180126218343,-23.848920632710044],[-46.68180126218343,-23.84898579335168],[-46.681847382087284,-23.84898579335168],[-46.681847382087284,-23.849050953993316],[-46.681847382087284,-23.849116114634953],[-46.681847382087284,-23.849181275276585],[-46.681847382087284,-23.84924643591822],[-46.68189350199114,-23.849311596559858],[-46.68189350199114,-23.849376757201494],[-46.681939621895,-23.84944191784313],[-46.681939621895,-23.849507078484766],[-46.681939621895,-23.849572239126402],[-46.681985741798854,-23.84963739976804],[-46.68203186170271,-23.849702560409675],[-46.68207798160657,-23.849702560409675],[-46.68212410151043,-23.84976772105131],[-46.68217022141429,-23.84976772105131],[-46.68217022141429,-23.849832881692947],[-46.682216341318146,-23.84976772105131],[-46.682262461222,-23.84976772105131],[-46.68230858112586,-23.84976772105131],[-46.682354701029716,-23.84976772105131],[-46.68240082093357,-23.84976772105131],[-46.68244694083743,-23.84976772105131],[-46.682493060741294,-23.84976772105131],[-46.68253918064515,-23.84976772105131],[-46.68253918064515,-23.849832881692947],[-46.68258530054901,-23.849832881692947],[-46.682631420452864,-23.849832881692947],[-46.68267754035672,-23.849832881692947],[-46.68272366026058,-23.84989804233458],[-46.682769780164435,-23.84989804233458],[-46.68281590006829,-23.84989804233458],[-46.682862019972156,-23.84989804233458],[-46.682862019972156,-23.849963202976216],[-46.682862019972156,-23.84989804233458],[-46.682862019972156,-23.849832881692947],[-46.682862019972156,-23.84976772105131],[-46.68281590006829,-23.849702560409675],[-46.682769780164435,-23.849702560409675],[-46.682769780164435,-23.84963739976804],[-46.68272366026058,-23.84963739976804],[-46.68267754035672,-23.849572239126402],[-46.68272366026058,-23.849572239126402],[-46.682769780164435,-23.849572239126402],[-46.68281590006829,-23.849572239126402],[-46.682862019972156,-23.849572239126402],[-46.68290813987601,-23.849507078484766],[-46.68295425977987,-23.849507078484766],[-46.683000379683726,-23.849507078484766],[-46.68304649958758,-23.849507078484766],[-46.68309261949144,-23.849507078484766],[-46.6831387393953,-23.849507078484766],[-46.68318485929915,-23.849507078484766],[-46.68323097920302,-23.849507078484766],[-46.683277099106874,-23.849507078484766],[-46.68332321901073,-23.849507078484766],[-46.68336933891459,-23.849507078484766],[-46.683415458818445,-23.849507078484766],[-46.6834615787223,-23.849507078484766],[-46.68350769862616,-23.849572239126402],[-46.68350769862616,-23.84963739976804],[-46.68350769862616,-23.849702560409675],[-46.683553818530015,-23.849702560409675],[-46.683646058337736,-23.849702560409675],[-46.683646058337736,-23.84963739976804],[-46.68373829814545,-23.849507078484766],[-46.68387665785702,-23.84944191784313],[-46.68392277776088,-23.84944191784313],[-46.68392277776088,-23.849376757201494],[-46.68396889766474,-23.849376757201494],[-46.68396889766474,-23.849311596559858],[-46.68392277776088,-23.849311596559858],[-46.68396889766474,-23.84924643591822],[-46.6840150175686,-23.84924643591822],[-46.684061137472455,-23.849311596559858],[-46.68410725737631,-23.849311596559858],[-46.68415337728017,-23.84924643591822],[-46.68415337728017,-23.849181275276585],[-46.684199497184025,-23.849181275276585],[-46.68429173699174,-23.849181275276585],[-46.68438397679946,-23.849181275276585],[-46.684430096703316,-23.849181275276585],[-46.68452233651103,-23.849181275276585],[-46.68456845641489,-23.849181275276585],[-46.684614576318744,-23.849181275276585],[-46.684706816126464,-23.849181275276585],[-46.68475293603032,-23.849181275276585],[-46.68479905593418,-23.849181275276585],[-46.684845175838035,-23.849181275276585],[-46.68489129574189,-23.849181275276585],[-46.68493741564575,-23.849181275276585],[-46.68493741564575,-23.84924643591822],[-46.68493741564575,-23.849311596559858],[-46.68489129574189,-23.849311596559858],[-46.68489129574189,-23.849376757201494],[-46.68489129574189,-23.84944191784313],[-46.68493741564575,-23.84944191784313],[-46.684983535549605,-23.84944191784313],[-46.68502965545346,-23.84944191784313],[-46.68502965545346,-23.849376757201494],[-46.685075775357326,-23.849376757201494],[-46.68512189526118,-23.849376757201494],[-46.68512189526118,-23.84944191784313],[-46.68516801516504,-23.84944191784313],[-46.6852141350689,-23.849507078484766],[-46.685260254972754,-23.849507078484766],[-46.685260254972754,-23.849572239126402],[-46.685260254972754,-23.84963739976804],[-46.685260254972754,-23.849702560409675],[-46.68530637487661,-23.849702560409675],[-46.685398614684324,-23.849702560409675],[-46.68544473458819,-23.849702560409675],[-46.685490854492045,-23.849702560409675],[-46.68558309429976,-23.849702560409675],[-46.685629214203615,-23.849702560409675],[-46.68567533410747,-23.84963739976804],[-46.68567533410747,-23.849702560409675],[-46.68572145401133,-23.849702560409675],[-46.685767573915186,-23.849702560409675],[-46.685767573915186,-23.84963739976804],[-46.68581369381905,-23.84963739976804],[-46.68581369381905,-23.849572239126402],[-46.68585981372291,-23.849507078484766],[-46.68590593362676,-23.849507078484766],[-46.68595205353062,-23.849507078484766],[-46.68595205353062,-23.84944191784313],[-46.68599817343448,-23.84944191784313],[-46.686044293338334,-23.849376757201494],[-46.68609041324219,-23.84924643591822],[-46.68613653314605,-23.84924643591822],[-46.68618265304991,-23.84924643591822],[-46.68622877295377,-23.84924643591822],[-46.686274892857625,-23.849311596559858],[-46.68622877295377,-23.849376757201494],[-46.68622877295377,-23.84944191784313],[-46.68622877295377,-23.849507078484766],[-46.68618265304991,-23.849572239126402],[-46.68618265304991,-23.84963739976804],[-46.68622877295377,-23.84963739976804],[-46.686274892857625,-23.84963739976804],[-46.68632101276148,-23.84963739976804],[-46.68636713266534,-23.84963739976804],[-46.68636713266534,-23.849702560409675],[-46.686413252569196,-23.849702560409675],[-46.686413252569196,-23.84976772105131],[-46.68636713266534,-23.84976772105131],[-46.68632101276148,-23.84976772105131],[-46.686274892857625,-23.84976772105131],[-46.68622877295377,-23.84976772105131],[-46.68618265304991,-23.84976772105131],[-46.68613653314605,-23.84976772105131],[-46.68609041324219,-23.84976772105131],[-46.686044293338334,-23.84976772105131],[-46.68599817343448,-23.84976772105131],[-46.68595205353062,-23.84976772105131],[-46.68595205353062,-23.849832881692947],[-46.68599817343448,-23.84989804233458],[-46.686044293338334,-23.84989804233458],[-46.68609041324219,-23.84989804233458],[-46.68618265304991,-23.84989804233458],[-46.68622877295377,-23.849963202976216],[-46.686274892857625,-23.849963202976216],[-46.68632101276148,-23.849963202976216],[-46.68636713266534,-23.850028363617852],[-46.68636713266534,-23.85009352425949],[-46.686413252569196,-23.850158684901125],[-46.68645937247305,-23.850158684901125],[-46.68650549237692,-23.85022384554276],[-46.68650549237692,-23.850289006184397],[-46.68655161228077,-23.850289006184397],[-46.68655161228077,-23.850354166826033],[-46.68659773218463,-23.850354166826033],[-46.68659773218463,-23.85041932746767],[-46.68664385208849,-23.85041932746767],[-46.686689971992344,-23.85041932746767],[-46.6867360918962,-23.850484488109306],[-46.68678221180006,-23.850484488109306],[-46.686828331703914,-23.850484488109306],[-46.68687445160778,-23.850484488109306],[-46.686920571511635,-23.850484488109306],[-46.68696669141549,-23.850484488109306],[-46.68701281131935,-23.850484488109306],[-46.687058931223206,-23.85054964875094],[-46.68710505112706,-23.85054964875094],[-46.68710505112706,-23.850614809392575],[-46.687058931223206,-23.850614809392575],[-46.68701281131935,-23.85067997003421],[-46.68701281131935,-23.850745130675847],[-46.687058931223206,-23.850745130675847],[-46.68710505112706,-23.850745130675847],[-46.68715117103092,-23.850745130675847],[-46.687197290934776,-23.850745130675847],[-46.687197290934776,-23.850810291317483],[-46.68715117103092,-23.850810291317483],[-46.68715117103092,-23.85087545195912],[-46.68710505112706,-23.85087545195912],[-46.68710505112706,-23.850940612600755],[-46.68710505112706,-23.85100577324239],[-46.687058931223206,-23.85100577324239],[-46.687058931223206,-23.851070933884028],[-46.68701281131935,-23.851136094525664],[-46.68696669141549,-23.851136094525664],[-46.68696669141549,-23.851201255167297],[-46.686920571511635,-23.851201255167297],[-46.68687445160778,-23.851266415808933],[-46.68687445160778,-23.85133157645057],[-46.686920571511635,-23.851396737092205],[-46.68696669141549,-23.85146189773384],[-46.68701281131935,-23.85146189773384],[-46.68701281131935,-23.851527058375478],[-46.687058931223206,-23.851527058375478],[-46.68710505112706,-23.851527058375478],[-46.68715117103092,-23.851527058375478],[-46.687197290934776,-23.85146189773384],[-46.6872895307425,-23.85146189773384],[-46.687335650646354,-23.851396737092205],[-46.68738177055021,-23.851396737092205],[-46.68742789045407,-23.851396737092205],[-46.68752013026178,-23.851396737092205],[-46.68752013026178,-23.85133157645057],[-46.68756625016564,-23.85133157645057],[-46.6876123700695,-23.85133157645057],[-46.68765848997336,-23.85133157645057],[-46.687704609877215,-23.851396737092205],[-46.68775072978107,-23.851396737092205],[-46.68775072978107,-23.85146189773384],[-46.68779684968493,-23.85146189773384],[-46.687842969588786,-23.851527058375478],[-46.68788908949264,-23.851592219017114],[-46.6879352093965,-23.85165737965875],[-46.687981329300364,-23.85165737965875],[-46.68802744920422,-23.85165737965875],[-46.68807356910808,-23.85165737965875],[-46.688119689011934,-23.85165737965875],[-46.68816580891579,-23.85165737965875],[-46.68816580891579,-23.851722540300386],[-46.688258048723505,-23.851787700942022],[-46.68830416862736,-23.851852861583655],[-46.688350288531225,-23.851852861583655],[-46.68839640843508,-23.85191802222529],[-46.68844252833894,-23.85191802222529],[-46.688488648242796,-23.85191802222529],[-46.68858088805051,-23.85191802222529],[-46.68858088805051,-23.851983182866928],[-46.688627007954366,-23.851983182866928],[-46.68867312785822,-23.851983182866928],[-46.68867312785822,-23.85191802222529],[-46.68867312785822,-23.851852861583655],[-46.68871924776209,-23.851852861583655],[-46.688765367665944,-23.851852861583655],[-46.688765367665944,-23.85191802222529],[-46.6888114875698,-23.85191802222529],[-46.68885760747366,-23.85191802222529],[-46.688903727377514,-23.85191802222529],[-46.68894984728137,-23.85191802222529],[-46.68899596718523,-23.85191802222529],[-46.689042087089085,-23.851983182866928],[-46.68908820699295,-23.851983182866928],[-46.68908820699295,-23.852048343508564],[-46.689134326896806,-23.852048343508564],[-46.689134326896806,-23.8521135041502],[-46.68918044680066,-23.852178664791836],[-46.68922656670452,-23.852178664791836],[-46.68922656670452,-23.852243825433472],[-46.689272686608376,-23.852243825433472],[-46.68931880651223,-23.852243825433472],[-46.68931880651223,-23.852178664791836],[-46.68936492641609,-23.852178664791836],[-46.68941104631995,-23.852178664791836],[-46.68945716622381,-23.852178664791836],[-46.68945716622381,-23.852243825433472],[-46.68945716622381,-23.85230898607511],[-46.68950328612767,-23.852374146716745],[-46.689549406031524,-23.85230898607511],[-46.68959552593538,-23.85230898607511],[-46.68964164583924,-23.852374146716745],[-46.689687765743095,-23.852374146716745],[-46.68973388564695,-23.852374146716745],[-46.68978000555081,-23.85230898607511],[-46.68982612545467,-23.85230898607511],[-46.68982612545467,-23.852243825433472],[-46.68987224535853,-23.852243825433472],[-46.689918365262386,-23.852243825433472],[-46.689918365262386,-23.852178664791836],[-46.68996448516624,-23.852178664791836],[-46.68996448516624,-23.8521135041502],[-46.6900106050701,-23.8521135041502],[-46.69005672497396,-23.8521135041502],[-46.69010284487781,-23.8521135041502],[-46.69024120458939,-23.8521135041502],[-46.690333444397105,-23.8521135041502],[-46.69042568420482,-23.8521135041502],[-46.690471804108675,-23.8521135041502],[-46.69051792401253,-23.8521135041502],[-46.690564043916396,-23.852048343508564],[-46.69061016382025,-23.852048343508564],[-46.69065628372411,-23.852048343508564],[-46.69065628372411,-23.851983182866928],[-46.69065628372411,-23.85191802222529],[-46.69070240362797,-23.851852861583655],[-46.69074852353182,-23.851787700942022],[-46.69079464343568,-23.851787700942022],[-46.69084076333954,-23.851722540300386],[-46.690886883243394,-23.851722540300386],[-46.690979123051115,-23.851722540300386],[-46.69102524295497,-23.851722540300386],[-46.69107136285883,-23.851722540300386],[-46.691117482762685,-23.851722540300386],[-46.69116360266654,-23.851722540300386],[-46.6912097225704,-23.851722540300386],[-46.691255842474256,-23.851722540300386],[-46.69130196237812,-23.851722540300386],[-46.69139420218583,-23.85165737965875],[-46.69144032208969,-23.85165737965875],[-46.69148644199355,-23.85165737965875],[-46.691532561897404,-23.851722540300386],[-46.69157868180126,-23.851722540300386],[-46.69162480170512,-23.85165737965875],[-46.69171704151284,-23.85165737965875],[-46.69171704151284,-23.851592219017114],[-46.691763161416695,-23.851592219017114],[-46.691763161416695,-23.851527058375478],[-46.69180928132055,-23.851527058375478],[-46.69180928132055,-23.85146189773384],[-46.69185540122441,-23.851396737092205],[-46.691901521128266,-23.85133157645057],[-46.69194764103212,-23.851266415808933],[-46.691993760935986,-23.851266415808933],[-46.691993760935986,-23.851201255167297],[-46.69203988083984,-23.851201255167297],[-46.69213212064756,-23.851136094525664],[-46.692178240551414,-23.851070933884028],[-46.69222436045527,-23.85100577324239],[-46.69227048035913,-23.850940612600755],[-46.692316600262984,-23.85087545195912],[-46.69236272016685,-23.850810291317483],[-46.692408840070705,-23.850745130675847],[-46.69245495997456,-23.850614809392575],[-46.69250107987842,-23.850614809392575],[-46.69259331968613,-23.850484488109306],[-46.69263943958999,-23.85041932746767],[-46.69273167939771,-23.850354166826033],[-46.69282391920542,-23.850289006184397],[-46.69287003910928,-23.850289006184397],[-46.692962278916994,-23.85022384554276],[-46.69310063862857,-23.85009352425949],[-46.69314675853243,-23.850028363617852],[-46.693192878436285,-23.850028363617852],[-46.693192878436285,-23.849963202976216],[-46.693285118244,-23.849832881692947],[-46.693331238147856,-23.849832881692947],[-46.693331238147856,-23.84976772105131],[-46.69337735805171,-23.849702560409675],[-46.69342347795557,-23.849572239126402],[-46.69346959785943,-23.849572239126402],[-46.69346959785943,-23.849507078484766],[-46.69351571776329,-23.849507078484766],[-46.69356183766715,-23.84944191784313],[-46.69365407747486,-23.84944191784313],[-46.69379243718643,-23.849507078484766],[-46.693976916801866,-23.849507078484766],[-46.69406915660958,-23.84944191784313],[-46.69416139641729,-23.848920632710044],[-46.69429975612887,-23.848073544368777],[-46.69429975612887,-23.8477477411606],[-46.69434587603273,-23.847487098594055],[-46.694391995936584,-23.847291616669146],[-46.694391995936584,-23.847161295385874],[-46.6944842357443,-23.84657484961115],[-46.6944842357443,-23.846444528327883],[-46.694530355648155,-23.846249046402974],[-46.694530355648155,-23.8461187251197],[-46.69457647555202,-23.845923243194793],[-46.69457647555202,-23.845858082553157],[-46.694622595455876,-23.845792921911524],[-46.69466871535973,-23.845662600628252],[-46.69471483526359,-23.845467118703343],[-46.694760955167446,-23.84533679742007],[-46.694760955167446,-23.8452064761368],[-46.69485319497516,-23.84507615485353],[-46.69489931487902,-23.844945833570257],[-46.69494543478288,-23.844815512286985],[-46.69499155468674,-23.844685191003713],[-46.695037674590594,-23.84455486972044],[-46.69512991439831,-23.844359387795535],[-46.695176034302165,-23.8442942271539],[-46.69531439401374,-23.843968423945718],[-46.69549887362917,-23.84364262073754],[-46.69559111343688,-23.843447138812632],[-46.695683353244604,-23.843251656887723],[-46.69572947314846,-23.843251656887723],[-46.69577559305232,-23.84312133560445],[-46.695821712956175,-23.842925853679546],[-46.69591395276389,-23.842795532396273],[-46.695960072667745,-23.842665211113],[-46.6960061925716,-23.84253488982973],[-46.696052312475466,-23.84240456854646],[-46.69609843237932,-23.842339407904824],[-46.69614455228318,-23.842143925979915],[-46.696190672187036,-23.84188328341337],[-46.69623679209089,-23.841687801488465],[-46.69628291199475,-23.841492319563557],[-46.69632903189861,-23.841361998280284],[-46.69632903189861,-23.841166516355376],[-46.696375151802464,-23.841036195072107],[-46.696375151802464,-23.840840713147198],[-46.69642127170633,-23.840058785447567],[-46.696467391610184,-23.839342018389573],[-46.6965596314179,-23.83816912684013],[-46.6965596314179,-23.83797364491522],[-46.696605751321755,-23.837452359782134],[-46.69669799112947,-23.836474950157594],[-46.69669799112947,-23.836018825666144],[-46.696744111033325,-23.83562786181633],[-46.69679023093719,-23.83510657668324],[-46.69679023093719,-23.834976255399972],[-46.696836350841046,-23.8348459341167],[-46.696836350841046,-23.834715612833428],[-46.696836350841046,-23.834585291550155],[-46.6968824707449,-23.83452013090852],[-46.6968824707449,-23.834324648983614],[-46.69692859064876,-23.83419432770034],[-46.69692859064876,-23.83406400641707],[-46.69697471055262,-23.833933685133797],[-46.697020830456474,-23.833803363850524],[-46.69706695036033,-23.833673042567256],[-46.69706695036033,-23.833542721283983],[-46.69720531007191,-23.833216918075802],[-46.69734366978348,-23.832760793584352],[-46.69743590959119,-23.832500151017808],[-46.697482029495056,-23.832304669092903],[-46.69762038920663,-23.831913705243085],[-46.697804868822054,-23.831457580751636],[-46.69785098872592,-23.831327259468363],[-46.697897108629775,-23.83119693818509],[-46.697897108629775,-23.831131777543455],[-46.698035468341345,-23.83074081369364],[-46.69812770814906,-23.830480171127096],[-46.69812770814906,-23.83041501048546],[-46.698173828052916,-23.83028468920219],[-46.698681146995355,-23.828785994444566],[-46.69877338680307,-23.828590512519657],[-46.69886562661078,-23.82826470931148],[-46.6989578664185,-23.82806922738657],[-46.69900398632236,-23.828004066744935],[-46.699096226130074,-23.82774342417839],[-46.69918846593779,-23.827547942253485],[-46.6992807057455,-23.827352460328576],[-46.699326825649365,-23.827222139045304],[-46.69937294555322,-23.827156978403668],[-46.699465185360935,-23.826896335837127],[-46.69955742516865,-23.826766014553854],[-46.69964966497636,-23.826570532628946],[-46.69992638439951,-23.826114408137496],[-46.69997250430337,-23.82604924749586],[-46.70006474411109,-23.825918926212587],[-46.70020310382266,-23.825658283646042],[-46.70043370334195,-23.825202159154593],[-46.700664302861234,-23.82481119530478],[-46.701171621803674,-23.823898946321876],[-46.70140222132296,-23.823442821830426],[-46.701955660169254,-23.822269930280978],[-46.70200178007311,-23.82213960899771],[-46.70200178007311,-23.822074448356073],[-46.70204789997697,-23.821813805789528],[-46.702094019880825,-23.821683484506256],[-46.70218625968854,-23.82135768129808],[-46.70218625968854,-23.821292520656442],[-46.7022323795924,-23.821292520656442],[-46.7022323795924,-23.821227360014806],[-46.70246297911169,-23.820575753598447],[-46.70246297911169,-23.82051059295681],[-46.70250909901554,-23.82038027167354],[-46.70250909901554,-23.820315111031903],[-46.702601338823264,-23.819989307823725],[-46.70264745872712,-23.81992414718209],[-46.70264745872712,-23.819858986540453],[-46.70269357863098,-23.819793825898817],[-46.70269357863098,-23.81972866525718],[-46.702739698534835,-23.819663504615544],[-46.702739698534835,-23.819533183332275],[-46.70278581843869,-23.81946802269064],[-46.70278581843869,-23.819402862049003],[-46.70283193834255,-23.819337701407367],[-46.702878058246405,-23.819207380124094],[-46.70292417815026,-23.81894673755755],[-46.70301641795798,-23.81868609499101],[-46.70306253786184,-23.818555773707736],[-46.70306253786184,-23.8184906130661],[-46.703108657765696,-23.81822997049956],[-46.70315477766955,-23.818164809857922],[-46.70315477766955,-23.81803448857465],[-46.70320089757341,-23.81783900664974],[-46.70320089757341,-23.817773846008105],[-46.70320089757341,-23.817643524724833],[-46.70324701747727,-23.817578364083197],[-46.70324701747727,-23.817448042799928],[-46.70324701747727,-23.817317721516655],[-46.70324701747727,-23.817187400233383],[-46.70324701747727,-23.817122239591747],[-46.70324701747727,-23.816861597025206],[-46.70324701747727,-23.81679643638357],[-46.70324701747727,-23.816666115100297],[-46.70324701747727,-23.816535793817025],[-46.70320089757341,-23.816340311892116],[-46.70320089757341,-23.816209990608847],[-46.70315477766955,-23.81601450868394],[-46.70315477766955,-23.815949348042302],[-46.703108657765696,-23.81581902675903],[-46.703108657765696,-23.815688705475758],[-46.70306253786184,-23.81562354483412],[-46.70306253786184,-23.815493223550853],[-46.70301641795798,-23.81536290226758],[-46.70301641795798,-23.815297741625944],[-46.70283193834255,-23.814776456492858],[-46.70283193834255,-23.814646135209586],[-46.702739698534835,-23.81438549264304],[-46.70269357863098,-23.81425517135977],[-46.70264745872712,-23.8141248500765],[-46.702601338823264,-23.81392936815159],[-46.7025552189194,-23.81379904686832],[-46.70250909901554,-23.81360356494341],[-46.70246297911169,-23.81347324366014],[-46.70237073930397,-23.81314744045196],[-46.70227849949626,-23.812821637243783],[-46.702094019880825,-23.812104870185788],[-46.701955660169254,-23.81171390633597],[-46.70186342036153,-23.81145326376943],[-46.701678940746106,-23.8106713360698],[-46.701540581034536,-23.81028037221998],[-46.7013561014191,-23.809563605161987],[-46.70126386161139,-23.809172641312173],[-46.70121774170753,-23.808977159387265],[-46.70112550189981,-23.80858619553745],[-46.70107938199595,-23.80845587425418],[-46.70107938199595,-23.808195231687634],[-46.701033262092096,-23.808064910404365],[-46.701033262092096,-23.80780426783782],[-46.70107938199595,-23.807543625271276],[-46.70107938199595,-23.807217822063098],[-46.70107938199595,-23.806957179496553],[-46.70112550189981,-23.806696536930012],[-46.701171621803674,-23.806501055005103],[-46.70121774170753,-23.80624041243856],[-46.701309981515244,-23.805979769872017],[-46.70140222132296,-23.805653966663836],[-46.70149446113067,-23.805393324097295],[-46.70163282084225,-23.805002360247478],[-46.70177118055382,-23.8046765570393],[-46.7019095402654,-23.804285593189483],[-46.702094019880825,-23.803764308056397],[-46.70227849949626,-23.803177862281675],[-46.70246297911169,-23.802721737790225],[-46.70264745872712,-23.8021352920155],[-46.70283193834255,-23.80167916752405],[-46.70315477766955,-23.800832079182783],[-46.70347761699656,-23.799919830199883],[-46.70370821651585,-23.799268223783525],[-46.70389269613128,-23.79881209929207],[-46.703938816035134,-23.798616617367166],[-46.70403105584285,-23.798421135442258],[-46.70407717574671,-23.79835597480062],[-46.704169415554425,-23.798095332234077],[-46.70421553545828,-23.79789985030917],[-46.70426165536214,-23.7977695290259],[-46.70435389516985,-23.79757404710099],[-46.70440001507371,-23.797378565176086],[-46.70458449468914,-23.796857280042996],[-46.70467673449686,-23.79666179811809],[-46.70499957382386,-23.795749549135188],[-46.7051840534393,-23.795293424643738],[-46.70527629324701,-23.795032782077193],[-46.70541465295858,-23.79464181822738],[-46.705506892766294,-23.794381175660835],[-46.70564525247787,-23.79399021181102],[-46.70596809180488,-23.793077962828118],[-46.70629093113188,-23.79223087448685],[-46.70633705103574,-23.792035392561942],[-46.706383170939596,-23.792035392561942],[-46.706521530651166,-23.791579268070493],[-46.706659890362744,-23.79118830422068],[-46.7067060102666,-23.791057982937406],[-46.706798250074314,-23.790862501012498],[-46.706798250074314,-23.790732179729225],[-46.70684436997817,-23.79066701908759],[-46.70698272968974,-23.790276055237776],[-46.70707496949746,-23.79001541267123],[-46.707167209305176,-23.789819930746326],[-46.707167209305176,-23.78975477010469],[-46.70721332920903,-23.789689609463053],[-46.70721332920903,-23.789624448821417],[-46.70730556901675,-23.78942896689651],[-46.70739780882447,-23.789233484971604],[-46.70749004863218,-23.78897284240506],[-46.707582288439895,-23.788712199838514],[-46.70767452824761,-23.788451557271973],[-46.70767452824761,-23.788386396630337],[-46.70772064815147,-23.7883212359887],[-46.70776676805533,-23.788125754063792],[-46.707812887959186,-23.788060593422156],[-46.7079051277669,-23.787799950855614],[-46.707951247670756,-23.787669629572342],[-46.70799736757461,-23.787474147647433],[-46.708089607382334,-23.787213505080892],[-46.70813572728619,-23.787213505080892],[-46.70818184719005,-23.78708318379762],[-46.70818184719005,-23.787018023155984],[-46.708227967093904,-23.78688770187271],[-46.70827408699776,-23.78675738058944],[-46.70832020690162,-23.78662705930617],[-46.708366326805475,-23.786496738022898],[-46.70841244670933,-23.786366416739625],[-46.708458566613196,-23.786236095456353],[-46.70850468651705,-23.78610577417308],[-46.70855080642091,-23.785975452889808],[-46.70864304622862,-23.785779970964903],[-46.70868916613248,-23.78564964968163],[-46.70873528603634,-23.785519328398358],[-46.708781405940194,-23.785389007115086],[-46.70882752584406,-23.785258685831817],[-46.708873645747914,-23.78519352519018],[-46.708873645747914,-23.78506320390691],[-46.70891976565177,-23.784998043265272],[-46.70891976565177,-23.784932882623636],[-46.709012005459485,-23.784802561340364],[-46.709012005459485,-23.78467224005709],[-46.70905812536334,-23.784541918773822],[-46.7091042452672,-23.784476758132186],[-46.709150365171055,-23.784346436848914],[-46.709242604978776,-23.784150954924005],[-46.70928872488263,-23.784020633640733],[-46.70933484478649,-23.783890312357464],[-46.70938096469035,-23.78375999107419],[-46.7094270845942,-23.78362966979092],[-46.70947320449806,-23.783499348507647],[-46.70951932440192,-23.783369027224374],[-46.70956544430578,-23.783238705941105],[-46.70961156420964,-23.783108384657833],[-46.709657684113495,-23.783043224016197],[-46.70970380401735,-23.782912902732924],[-46.70970380401735,-23.782782581449652],[-46.70974992392121,-23.78265226016638],[-46.709796043825065,-23.782587099524747],[-46.70984216372892,-23.782456778241475],[-46.70993440353664,-23.782261296316566],[-46.70993440353664,-23.78219613567493],[-46.71002664334436,-23.78200065375002],[-46.71007276324821,-23.781805171825116],[-46.71011888315207,-23.781674850541844],[-46.71016500305593,-23.78154452925857],[-46.710211122959784,-23.7814142079753],[-46.71025724286364,-23.781283886692027],[-46.71034948267136,-23.781153565408758],[-46.71034948267136,-23.781023244125485],[-46.710441722479075,-23.780827762200577],[-46.71048784238293,-23.780697440917304],[-46.71053396228679,-23.780567119634036],[-46.710580082190646,-23.7805019589924],[-46.7106262020945,-23.780371637709127],[-46.7106262020945,-23.780241316425855],[-46.710672321998366,-23.78017615578422],[-46.71071844190222,-23.780045834500946],[-46.71076456180608,-23.77998067385931],[-46.71081068170994,-23.77985035257604],[-46.710856801613794,-23.77972003129277],[-46.71090292151765,-23.779589710009496],[-46.71094904142151,-23.779459388726224],[-46.710995161325364,-23.77932906744295],[-46.71104128122923,-23.779198746159683],[-46.711087401133085,-23.77906842487641],[-46.71113352103694,-23.778938103593138],[-46.7111796409408,-23.7788729429515],[-46.711225760844655,-23.77874262166823],[-46.711225760844655,-23.778612300384957],[-46.71127188074851,-23.778547139743324],[-46.71131800065237,-23.77841681846005],[-46.711364120556226,-23.778351657818416],[-46.711364120556226,-23.778221336535143],[-46.71141024046009,-23.77809101525187],[-46.71145636036395,-23.778025854610235],[-46.711502480267804,-23.777895533326962],[-46.71154860017166,-23.777765212043693],[-46.71159472007552,-23.77763489076042],[-46.711640839979374,-23.77750456947715],[-46.71168695988323,-23.777439408835512],[-46.71173307978709,-23.77730908755224],[-46.71173307978709,-23.77717876626897],[-46.71177919969095,-23.777113605627335],[-46.71182531959481,-23.776983284344062],[-46.71182531959481,-23.776918123702426],[-46.711871439498665,-23.776787802419154],[-46.711871439498665,-23.776722641777518],[-46.71191755940252,-23.77665748113588],[-46.71191755940252,-23.776592320494245],[-46.71191755940252,-23.776527159852613],[-46.71196367930638,-23.776331677927704],[-46.712009799210236,-23.77620135664443],[-46.71205591911409,-23.77607103536116],[-46.71205591911409,-23.775810392794618],[-46.71210203901795,-23.775680071511346],[-46.71210203901795,-23.775484589586437],[-46.71210203901795,-23.775354268303165],[-46.71214815892181,-23.77515878637826],[-46.71214815892181,-23.77496330445335],[-46.71214815892181,-23.774767822528442],[-46.71214815892181,-23.77463750124517],[-46.71214815892181,-23.774572340603534],[-46.71214815892181,-23.774311698036993],[-46.71214815892181,-23.774051055470448],[-46.71214815892181,-23.773790412903907],[-46.71214815892181,-23.773529770337362],[-46.71214815892181,-23.773269127770817],[-46.71214815892181,-23.773008485204276],[-46.71214815892181,-23.77274784263773],[-46.71214815892181,-23.772552360712822],[-46.71210203901795,-23.772226557504645],[-46.71210203901795,-23.772031075579736],[-46.71210203901795,-23.771835593654828],[-46.71210203901795,-23.771640111729923],[-46.71210203901795,-23.771444629805014],[-46.71210203901795,-23.771379469163378],[-46.71210203901795,-23.771249147880106],[-46.71210203901795,-23.7710536659552],[-46.71210203901795,-23.770793023388656],[-46.71210203901795,-23.77046722018048],[-46.71210203901795,-23.77027173825557],[-46.71210203901795,-23.77007625633066],[-46.71210203901795,-23.769880774405753],[-46.71210203901795,-23.769685292480847],[-46.71210203901795,-23.769424649914303],[-46.71210203901795,-23.769098846706125],[-46.71210203901795,-23.76883820413958],[-46.71210203901795,-23.768707882856308],[-46.71210203901795,-23.768642722214672],[-46.71214815892181,-23.768642722214672],[-46.71224039872953,-23.768642722214672],[-46.7123787584411,-23.768642722214672],[-46.712424878344954,-23.768577561573036],[-46.71247099824882,-23.768577561573036],[-46.712517118152675,-23.768577561573036],[-46.71256323805653,-23.768577561573036],[-46.71260935796039,-23.7685124009314],[-46.712655477864246,-23.768447240289767],[-46.712655477864246,-23.76838207964813],[-46.7127015977681,-23.76838207964813],[-46.7127015977681,-23.768316919006494],[-46.7127015977681,-23.76825175836486],[-46.71274771767196,-23.768186597723222],[-46.71274771767196,-23.768121437081586],[-46.71274771767196,-23.76805627643995],[-46.71274771767196,-23.767991115798313],[-46.71274771767196,-23.767925955156677],[-46.71274771767196,-23.76786079451504],[-46.71274771767196,-23.76779563387341],[-46.712793837575816,-23.767730473231772],[-46.712793837575816,-23.767665312590136],[-46.712793837575816,-23.7676001519485],[-46.71283995747968,-23.7676001519485],[-46.71283995747968,-23.767534991306864],[-46.71283995747968,-23.767469830665227],[-46.71288607738354,-23.76740467002359],[-46.712932197287394,-23.76740467002359],[-46.71297831719125,-23.767339509381955],[-46.71302443709511,-23.76727434874032],[-46.713070556998964,-23.767209188098683],[-46.71311667690282,-23.767144027457046],[-46.71316279680668,-23.767078866815414],[-46.71320891671054,-23.767078866815414],[-46.7132550366144,-23.767013706173778],[-46.713301156518256,-23.767013706173778],[-46.71334727642211,-23.76694854553214],[-46.71339339632597,-23.76694854553214],[-46.713439516229826,-23.766883384890505],[-46.71348563613368,-23.766883384890505],[-46.71353175603754,-23.766883384890505],[-46.713577875941404,-23.76681822424887],[-46.71362399584526,-23.76681822424887],[-46.71362399584526,-23.766753063607233],[-46.71362399584526,-23.766687902965597],[-46.71367011574912,-23.766687902965597],[-46.713716235652974,-23.766687902965597],[-46.713716235652974,-23.76662274232396],[-46.71376235555683,-23.76662274232396],[-46.71380847546069,-23.766557581682324],[-46.713854595364545,-23.766557581682324],[-46.7139007152684,-23.766492421040688],[-46.713946835172266,-23.766492421040688],[-46.71403907497998,-23.766427260399055],[-46.714085194883836,-23.766427260399055],[-46.71413131478769,-23.766427260399055],[-46.71417743469155,-23.76636209975742],[-46.71422355459541,-23.76636209975742],[-46.71426967449926,-23.76636209975742],[-46.71426967449926,-23.766296939115783],[-46.71431579440313,-23.766296939115783],[-46.714361914306984,-23.766296939115783],[-46.71440803421084,-23.766296939115783],[-46.7144541541147,-23.766296939115783],[-46.714500274018555,-23.766296939115783],[-46.71454639392241,-23.766296939115783],[-46.71459251382627,-23.766296939115783],[-46.71459251382627,-23.766231778474147],[-46.714638633730125,-23.766231778474147],[-46.71468475363399,-23.766296939115783],[-46.714730873537846,-23.766296939115783],[-46.7147769934417,-23.766296939115783],[-46.71482311334556,-23.766296939115783],[-46.71491535315327,-23.766296939115783],[-46.71496147305713,-23.766296939115783],[-46.71505371286485,-23.766231778474147],[-46.71509983276871,-23.766231778474147],[-46.715145952672565,-23.766231778474147],[-46.71523819248028,-23.76616661783251],[-46.71533043228799,-23.76616661783251],[-46.71537655219185,-23.76616661783251],[-46.71542267209571,-23.766101457190874],[-46.71546879199957,-23.766101457190874],[-46.715514911903426,-23.766101457190874],[-46.71556103180728,-23.766101457190874],[-46.71560715171114,-23.766101457190874],[-46.715699391518854,-23.766101457190874],[-46.71574551142271,-23.766101457190874],[-46.715791631326574,-23.766101457190874],[-46.71583775123043,-23.766101457190874],[-46.71588387113429,-23.766101457190874],[-46.715929991038145,-23.766101457190874],[-46.715976110942,-23.766036296549238],[-46.71602223084586,-23.766036296549238],[-46.71611447065357,-23.766036296549238],[-46.716160590557436,-23.766036296549238],[-46.71625283036515,-23.766036296549238],[-46.71634507017286,-23.765971135907602],[-46.71639119007672,-23.765971135907602],[-46.716483429884434,-23.765971135907602],[-46.716714029403725,-23.765971135907602],[-46.71676014930758,-23.765971135907602],[-46.71680626921144,-23.765971135907602],[-46.71694462892302,-23.765905975265966],[-46.717359708057735,-23.765905975265966],[-46.71745194786545,-23.765905975265966],[-46.71754418767316,-23.76584081462433],[-46.71768254738474,-23.765775653982697],[-46.717774787192454,-23.76571049334106],[-46.71786702700017,-23.76571049334106],[-46.717913146904024,-23.765645332699425],[-46.7180515066156,-23.765515011416152],[-46.71809762651946,-23.765515011416152],[-46.718143746423316,-23.765449850774516],[-46.71818986632717,-23.765449850774516],[-46.71823598623103,-23.76538469013288],[-46.718282106134886,-23.76538469013288],[-46.71832822603875,-23.76538469013288],[-46.71837434594261,-23.76538469013288],[-46.71846658575032,-23.76538469013288],[-46.71851270565418,-23.76538469013288],[-46.71851270565418,-23.765449850774516],[-46.718558825558034,-23.765449850774516],[-46.718558825558034,-23.765515011416152],[-46.71851270565418,-23.765515011416152],[-46.71846658575032,-23.76558017205779],[-46.71846658575032,-23.765645332699425],[-46.71851270565418,-23.765645332699425],[-46.71846658575032,-23.765645332699425],[-46.71846658575032,-23.76571049334106],[-46.71851270565418,-23.76571049334106],[-46.718558825558034,-23.765775653982697],[-46.71860494546189,-23.765775653982697],[-46.71869718526961,-23.76584081462433],[-46.71874330517347,-23.76584081462433],[-46.718789425077325,-23.76584081462433],[-46.718789425077325,-23.765905975265966],[-46.71883554498118,-23.765905975265966],[-46.71888166488504,-23.765905975265966],[-46.718927784788896,-23.765905975265966],[-46.71897390469275,-23.765905975265966],[-46.71902002459661,-23.765905975265966],[-46.719066144500474,-23.765905975265966],[-46.71911226440433,-23.765905975265966],[-46.719204504212044,-23.765905975265966],[-46.7192506241159,-23.765905975265966],[-46.71929674401976,-23.765905975265966],[-46.719342863923615,-23.765905975265966],[-46.71938898382747,-23.765905975265966],[-46.719435103731335,-23.765905975265966],[-46.71948122363519,-23.765971135907602],[-46.71952734353905,-23.765971135907602],[-46.719573463442906,-23.765971135907602],[-46.71961958334676,-23.765971135907602],[-46.71966570325062,-23.765971135907602],[-46.719711823154476,-23.765971135907602],[-46.71975794305833,-23.765905975265966],[-46.7198040629622,-23.765905975265966],[-46.719850182866054,-23.765905975265966],[-46.71989630276991,-23.765905975265966],[-46.71994242267377,-23.76584081462433],[-46.719988542577624,-23.76584081462433],[-46.72003466248148,-23.76584081462433],[-46.72008078238534,-23.76584081462433],[-46.720126902289195,-23.76584081462433],[-46.72017302219306,-23.76584081462433],[-46.720219142096916,-23.76584081462433],[-46.72026526200077,-23.76584081462433],[-46.72031138190463,-23.765905975265966],[-46.720357501808486,-23.765905975265966],[-46.72040362171234,-23.765905975265966],[-46.7204497416162,-23.765905975265966],[-46.72049586152006,-23.765971135907602],[-46.72054198142392,-23.765971135907602],[-46.72054198142392,-23.766036296549238],[-46.72058810132778,-23.766036296549238],[-46.720634221231634,-23.766036296549238],[-46.72068034113549,-23.766036296549238],[-46.72072646103935,-23.766036296549238],[-46.720772580943205,-23.766036296549238],[-46.72081870084706,-23.766036296549238],[-46.72086482075092,-23.765971135907602],[-46.72095706055864,-23.765971135907602],[-46.721003180462496,-23.765971135907602],[-46.72104930036635,-23.765971135907602],[-46.72114154017407,-23.765971135907602],[-46.72118766007792,-23.765971135907602],[-46.72123377998178,-23.765971135907602],[-46.721279899885644,-23.765971135907602],[-46.7213260197895,-23.765971135907602],[-46.72137213969336,-23.765971135907602],[-46.721418259597215,-23.765971135907602],[-46.72146437950107,-23.765971135907602],[-46.72151049940493,-23.765905975265966],[-46.721556619308785,-23.76584081462433],[-46.72160273921264,-23.76584081462433],[-46.721648859116506,-23.765775653982697],[-46.72169497902036,-23.765775653982697],[-46.72174109892422,-23.765775653982697],[-46.72183333873193,-23.76571049334106],[-46.72187945863579,-23.76571049334106],[-46.72192557853965,-23.76571049334106],[-46.721971698443504,-23.76571049334106],[-46.72201781834737,-23.765775653982697],[-46.722063938251225,-23.765775653982697],[-46.72215617805894,-23.765775653982697],[-46.722202297962795,-23.76584081462433],[-46.72229453777051,-23.76584081462433],[-46.722340657674366,-23.76584081462433],[-46.72238677757823,-23.76584081462433],[-46.72247901738594,-23.76584081462433],[-46.7225251372898,-23.76584081462433],[-46.72257125719366,-23.76584081462433],[-46.722617377097514,-23.76584081462433],[-46.72266349700137,-23.76584081462433],[-46.722709616905234,-23.76584081462433],[-46.72275573680909,-23.76584081462433],[-46.72280185671295,-23.765775653982697],[-46.722847976616805,-23.765775653982697],[-46.722847976616805,-23.76584081462433],[-46.72289409652066,-23.76584081462433],[-46.72294021642452,-23.76584081462433],[-46.722986336328376,-23.76584081462433],[-46.72303245623223,-23.76584081462433],[-46.72303245623223,-23.765905975265966],[-46.72303245623223,-23.765971135907602],[-46.723078576136096,-23.765971135907602],[-46.723078576136096,-23.766036296549238],[-46.72312469603995,-23.766036296549238],[-46.72312469603995,-23.766101457190874],[-46.72317081594381,-23.766101457190874],[-46.72321693584767,-23.766101457190874],[-46.723263055751524,-23.766101457190874],[-46.723263055751524,-23.76616661783251],[-46.72330917565538,-23.76616661783251],[-46.72330917565538,-23.766101457190874],[-46.72335529555924,-23.766101457190874],[-46.723401415463094,-23.766101457190874],[-46.72344753536696,-23.766101457190874],[-46.723493655270815,-23.766101457190874],[-46.723493655270815,-23.766036296549238],[-46.72353977517467,-23.766036296549238],[-46.72358589507853,-23.766036296549238],[-46.723632014982385,-23.766036296549238],[-46.72367813488624,-23.766036296549238],[-46.7237242547901,-23.766036296549238],[-46.723770374693956,-23.766036296549238],[-46.72381649459782,-23.766036296549238],[-46.72386261450168,-23.766036296549238],[-46.72390873440553,-23.766036296549238],[-46.72395485430939,-23.766036296549238],[-46.72400097421325,-23.766036296549238],[-46.724047094117104,-23.766036296549238],[-46.724047094117104,-23.765971135907602],[-46.72409321402096,-23.765971135907602],[-46.72413933392482,-23.765971135907602],[-46.72418545382868,-23.765971135907602],[-46.72423157373254,-23.765971135907602],[-46.724277693636395,-23.765971135907602],[-46.724277693636395,-23.766036296549238],[-46.72432381354025,-23.766036296549238],[-46.72436993344411,-23.766036296549238],[-46.724416053347966,-23.766036296549238],[-46.724416053347966,-23.766101457190874],[-46.72446217325182,-23.766101457190874],[-46.72450829315568,-23.766101457190874],[-46.72455441305954,-23.766101457190874],[-46.7246005329634,-23.766101457190874],[-46.7246005329634,-23.76616661783251],[-46.72464665286726,-23.76616661783251],[-46.724692772771114,-23.76616661783251],[-46.72473889267497,-23.76616661783251],[-46.72478501257883,-23.76616661783251],[-46.724831132482684,-23.76616661783251],[-46.72487725238654,-23.76616661783251],[-46.724923372290405,-23.76616661783251],[-46.72496949219426,-23.76616661783251],[-46.72501561209812,-23.76616661783251],[-46.725061732001976,-23.76616661783251],[-46.72510785190583,-23.76616661783251],[-46.72510785190583,-23.766231778474147],[-46.72515397180969,-23.766231778474147],[-46.725200091713546,-23.766231778474147],[-46.7252462116174,-23.766231778474147],[-46.72529233152127,-23.76616661783251],[-46.725338451425124,-23.76616661783251],[-46.72538457132898,-23.76616661783251],[-46.72543069123284,-23.766101457190874],[-46.725476811136694,-23.766101457190874],[-46.725476811136694,-23.766036296549238],[-46.72552293104055,-23.765971135907602],[-46.72566129075213,-23.76584081462433],[-46.725707410655986,-23.765775653982697],[-46.725707410655986,-23.76571049334106],[-46.72575353055984,-23.76558017205779],[-46.7257996504637,-23.76558017205779],[-46.7257996504637,-23.765515011416152],[-46.7257996504637,-23.765449850774516],[-46.725845770367556,-23.765449850774516],[-46.72589189027141,-23.76538469013288],[-46.72593801017527,-23.76538469013288],[-46.72598413007913,-23.76538469013288],[-46.72598413007913,-23.765319529491244],[-46.72603024998299,-23.765254368849607],[-46.726122489790704,-23.76518920820797],[-46.726122489790704,-23.765124047566335],[-46.72607636988685,-23.765058886924702],[-46.72603024998299,-23.765058886924702],[-46.72598413007913,-23.764993726283066],[-46.72598413007913,-23.764863404999794],[-46.72593801017527,-23.764798244358158],[-46.72589189027141,-23.76473308371652],[-46.725845770367556,-23.764667923074885],[-46.725845770367556,-23.76460276243325],[-46.72575353055984,-23.76460276243325],[-46.725707410655986,-23.764537601791613],[-46.72566129075213,-23.764537601791613],[-46.72556905094441,-23.764537601791613],[-46.72552293104055,-23.764472441149977],[-46.725476811136694,-23.764407280508344],[-46.725476811136694,-23.764342119866708],[-46.725338451425124,-23.76427695922507],[-46.7252462116174,-23.764211798583435],[-46.725200091713546,-23.764211798583435],[-46.72510785190583,-23.76427695922507],[-46.72501561209812,-23.76427695922507],[-46.72487725238654,-23.76427695922507],[-46.72478501257883,-23.76427695922507],[-46.72473889267497,-23.764211798583435],[-46.72473889267497,-23.7641466379418],[-46.72473889267497,-23.764081477300163],[-46.72478501257883,-23.764016316658527],[-46.724831132482684,-23.764016316658527],[-46.72487725238654,-23.76395115601689],[-46.72487725238654,-23.763885995375254],[-46.72487725238654,-23.763820834733618],[-46.724831132482684,-23.763820834733618],[-46.72478501257883,-23.763755674091986],[-46.72473889267497,-23.763755674091986],[-46.724692772771114,-23.76369051345035],[-46.72473889267497,-23.763625352808713],[-46.724831132482684,-23.763625352808713],[-46.72487725238654,-23.763560192167077],[-46.72496949219426,-23.763560192167077],[-46.72501561209812,-23.763560192167077],[-46.725061732001976,-23.763625352808713],[-46.72510785190583,-23.763625352808713],[-46.72515397180969,-23.763625352808713],[-46.72515397180969,-23.763560192167077],[-46.72510785190583,-23.76349503152544],[-46.725061732001976,-23.76349503152544],[-46.72501561209812,-23.76336471024217],[-46.72496949219426,-23.763299549600532],[-46.724923372290405,-23.763234388958896],[-46.724923372290405,-23.76316922831726],[-46.724923372290405,-23.763104067675624],[-46.724923372290405,-23.76303890703399],[-46.72496949219426,-23.76303890703399],[-46.72501561209812,-23.76303890703399],[-46.725061732001976,-23.763104067675624],[-46.72510785190583,-23.763104067675624],[-46.725200091713546,-23.763104067675624],[-46.7252462116174,-23.763104067675624],[-46.72529233152127,-23.763104067675624],[-46.72538457132898,-23.76303890703399],[-46.72543069123284,-23.76303890703399],[-46.72543069123284,-23.762973746392355],[-46.72543069123284,-23.76290858575072],[-46.72538457132898,-23.76290858575072],[-46.72538457132898,-23.762843425109082],[-46.72543069123284,-23.762778264467446],[-46.72543069123284,-23.76271310382581],[-46.72543069123284,-23.762582782542538],[-46.725476811136694,-23.7625176219009],[-46.72543069123284,-23.7625176219009],[-46.72543069123284,-23.762452461259265],[-46.72538457132898,-23.762387300617632],[-46.725338451425124,-23.762387300617632],[-46.72529233152127,-23.762322139975996],[-46.72529233152127,-23.76225697933436],[-46.7252462116174,-23.762191818692724],[-46.7252462116174,-23.762126658051088],[-46.7252462116174,-23.76206149740945],[-46.72529233152127,-23.761996336767815],[-46.72529233152127,-23.76193117612618],[-46.72529233152127,-23.761800854842907],[-46.72529233152127,-23.761735694201274],[-46.72529233152127,-23.761670533559638],[-46.72529233152127,-23.761605372918],[-46.7252462116174,-23.761540212276365],[-46.725200091713546,-23.761540212276365],[-46.7252462116174,-23.76147505163473],[-46.72529233152127,-23.76147505163473],[-46.725338451425124,-23.76147505163473],[-46.72538457132898,-23.76147505163473],[-46.72543069123284,-23.761409890993093],[-46.725476811136694,-23.761409890993093],[-46.72556905094441,-23.761409890993093],[-46.72556905094441,-23.761344730351457],[-46.72552293104055,-23.761344730351457],[-46.725476811136694,-23.76127956970982],[-46.72543069123284,-23.76127956970982],[-46.725338451425124,-23.76127956970982],[-46.7252462116174,-23.761214409068184],[-46.725200091713546,-23.761214409068184],[-46.72515397180969,-23.76114924842655],[-46.72510785190583,-23.761084087784912],[-46.72515397180969,-23.761084087784912],[-46.72515397180969,-23.76101892714328],[-46.725200091713546,-23.76101892714328],[-46.7252462116174,-23.76101892714328],[-46.725338451425124,-23.76101892714328],[-46.72538457132898,-23.76101892714328],[-46.72538457132898,-23.761084087784912],[-46.72543069123284,-23.761084087784912],[-46.725476811136694,-23.761084087784912],[-46.725476811136694,-23.76114924842655],[-46.72552293104055,-23.76114924842655],[-46.72556905094441,-23.76114924842655],[-46.725615170848265,-23.761084087784912],[-46.72566129075213,-23.761084087784912],[-46.725707410655986,-23.761084087784912],[-46.72575353055984,-23.76101892714328],[-46.72575353055984,-23.760953766501643],[-46.725707410655986,-23.760953766501643],[-46.725707410655986,-23.760888605860007],[-46.725707410655986,-23.76082344521837],[-46.725707410655986,-23.7606931239351],[-46.72575353055984,-23.760627963293462],[-46.72575353055984,-23.760562802651826],[-46.7257996504637,-23.76049764201019],[-46.72575353055984,-23.760432481368554],[-46.72575353055984,-23.76036732072692],[-46.7257996504637,-23.760302160085285],[-46.72589189027141,-23.760302160085285],[-46.72598413007913,-23.760302160085285],[-46.72598413007913,-23.76023699944365],[-46.72598413007913,-23.760171838802012],[-46.72598413007913,-23.760106678160376],[-46.72603024998299,-23.760106678160376],[-46.72603024998299,-23.76004151751874],[-46.72603024998299,-23.760106678160376],[-46.72607636988685,-23.760106678160376],[-46.726122489790704,-23.760106678160376],[-46.72616860969456,-23.760106678160376],[-46.72621472959842,-23.760106678160376],[-46.72621472959842,-23.76004151751874],[-46.72621472959842,-23.759976356877104],[-46.72616860969456,-23.759976356877104],[-46.726122489790704,-23.759976356877104],[-46.72607636988685,-23.759976356877104],[-46.72607636988685,-23.759911196235468],[-46.72607636988685,-23.75984603559383],[-46.72603024998299,-23.75984603559383],[-46.72607636988685,-23.759780874952195],[-46.72607636988685,-23.759715714310563],[-46.726122489790704,-23.759715714310563],[-46.726122489790704,-23.759650553668926],[-46.726122489790704,-23.75958539302729],[-46.726122489790704,-23.759520232385654],[-46.726122489790704,-23.759455071744018],[-46.726122489790704,-23.75938991110238],[-46.72607636988685,-23.759324750460745],[-46.726122489790704,-23.759324750460745],[-46.726122489790704,-23.75925958981911],[-46.72616860969456,-23.75925958981911],[-46.72621472959842,-23.75925958981911],[-46.726260849502275,-23.75925958981911],[-46.726260849502275,-23.759194429177473],[-46.72630696940613,-23.759194429177473],[-46.72630696940613,-23.759129268535837],[-46.72621472959842,-23.7590641078942],[-46.72616860969456,-23.758998947252568],[-46.726122489790704,-23.758933786610932],[-46.72607636988685,-23.758933786610932],[-46.72603024998299,-23.758998947252568],[-46.72603024998299,-23.758933786610932],[-46.72598413007913,-23.758933786610932],[-46.72593801017527,-23.758933786610932],[-46.72593801017527,-23.758868625969296],[-46.72589189027141,-23.75880346532766],[-46.72589189027141,-23.758738304686023],[-46.72589189027141,-23.758673144044387],[-46.72589189027141,-23.75860798340275],[-46.72589189027141,-23.758542822761115],[-46.725845770367556,-23.758542822761115],[-46.7257996504637,-23.758542822761115],[-46.72575353055984,-23.758542822761115],[-46.72566129075213,-23.758542822761115],[-46.725615170848265,-23.758542822761115],[-46.725615170848265,-23.75847766211948],[-46.72556905094441,-23.75847766211948],[-46.72552293104055,-23.75847766211948],[-46.725476811136694,-23.758412501477842],[-46.72552293104055,-23.758412501477842],[-46.72552293104055,-23.75834734083621],[-46.72556905094441,-23.75834734083621],[-46.72556905094441,-23.758282180194573],[-46.72552293104055,-23.758282180194573],[-46.725476811136694,-23.758282180194573],[-46.72543069123284,-23.758282180194573],[-46.72538457132898,-23.758217019552937],[-46.72538457132898,-23.758282180194573],[-46.725338451425124,-23.75834734083621],[-46.72529233152127,-23.75834734083621],[-46.7252462116174,-23.75834734083621],[-46.7252462116174,-23.758282180194573],[-46.725200091713546,-23.758282180194573],[-46.7252462116174,-23.758217019552937],[-46.72529233152127,-23.7581518589113],[-46.725338451425124,-23.758086698269665],[-46.725338451425124,-23.75802153762803],[-46.72538457132898,-23.757956376986392],[-46.72538457132898,-23.757891216344756],[-46.725338451425124,-23.757891216344756],[-46.725338451425124,-23.75782605570312],[-46.72529233152127,-23.75782605570312],[-46.72529233152127,-23.757760895061484],[-46.72529233152127,-23.75769573441985],[-46.725338451425124,-23.757630573778215],[-46.72538457132898,-23.757630573778215],[-46.72538457132898,-23.75756541313658],[-46.72543069123284,-23.757500252494943],[-46.72543069123284,-23.757435091853306],[-46.72538457132898,-23.75736993121167],[-46.72538457132898,-23.757304770570034],[-46.72543069123284,-23.757304770570034],[-46.72543069123284,-23.757239609928398],[-46.72538457132898,-23.757239609928398],[-46.725338451425124,-23.757239609928398],[-46.72529233152127,-23.757304770570034],[-46.7252462116174,-23.757304770570034],[-46.725200091713546,-23.75736993121167],[-46.72510785190583,-23.757435091853306],[-46.725061732001976,-23.757435091853306],[-46.72501561209812,-23.757435091853306],[-46.72496949219426,-23.757435091853306],[-46.724923372290405,-23.757435091853306],[-46.724923372290405,-23.75736993121167],[-46.724923372290405,-23.757304770570034],[-46.72487725238654,-23.757239609928398],[-46.72487725238654,-23.75717444928676],[-46.724831132482684,-23.757109288645125],[-46.72478501257883,-23.757109288645125],[-46.72473889267497,-23.757109288645125],[-46.724692772771114,-23.757109288645125],[-46.72464665286726,-23.757044128003493],[-46.72464665286726,-23.756978967361857],[-46.7246005329634,-23.75691380672022],[-46.72464665286726,-23.75691380672022],[-46.72464665286726,-23.756848646078584],[-46.724692772771114,-23.756848646078584],[-46.72473889267497,-23.756848646078584],[-46.72478501257883,-23.756848646078584],[-46.72487725238654,-23.756783485436948],[-46.724923372290405,-23.756783485436948],[-46.72496949219426,-23.756783485436948],[-46.72501561209812,-23.75671832479531],[-46.725061732001976,-23.75671832479531],[-46.72510785190583,-23.75671832479531],[-46.72515397180969,-23.756783485436948],[-46.725200091713546,-23.756783485436948],[-46.72529233152127,-23.756783485436948],[-46.725338451425124,-23.756783485436948],[-46.72538457132898,-23.756783485436948],[-46.72543069123284,-23.756783485436948],[-46.725476811136694,-23.75671832479531],[-46.72552293104055,-23.75671832479531],[-46.72556905094441,-23.756653164153676],[-46.725615170848265,-23.75658800351204],[-46.725707410655986,-23.75658800351204],[-46.7257996504637,-23.75658800351204],[-46.725845770367556,-23.75658800351204],[-46.72589189027141,-23.75658800351204],[-46.72593801017527,-23.75658800351204],[-46.72598413007913,-23.756653164153676],[-46.72603024998299,-23.756653164153676],[-46.72616860969456,-23.75671832479531],[-46.72621472959842,-23.75671832479531],[-46.72630696940613,-23.756783485436948],[-46.72644532911771,-23.756848646078584],[-46.72653756892542,-23.75691380672022],[-46.72667592863699,-23.75691380672022],[-46.72672204854085,-23.75691380672022],[-46.72681428834857,-23.75691380672022],[-46.726906528156285,-23.75691380672022],[-46.726998767964,-23.75691380672022],[-46.72709100777171,-23.756848646078584],[-46.72722936748329,-23.756653164153676],[-46.72736772719486,-23.756522842870403],[-46.72750608690644,-23.756327360945498],[-46.72759832671415,-23.756197039662226],[-46.727690566521865,-23.756001557737317],[-46.72773668642572,-23.75593639709568],[-46.72778280632958,-23.755740915170772],[-46.727828926233435,-23.755545433245867],[-46.7278750461373,-23.755415111962595],[-46.7278750461373,-23.755284790679323],[-46.7278750461373,-23.75515446939605],[-46.7278750461373,-23.754958987471145],[-46.7278750461373,-23.754828666187873],[-46.727828926233435,-23.754633184262964],[-46.72778280632958,-23.754568023621328],[-46.727690566521865,-23.754437702338056],[-46.72764444661801,-23.754177059771514],[-46.727552206810294,-23.754046738488242],[-46.72741384709872,-23.75391641720497],[-46.727321607291,-23.753851256563333],[-46.727137127675576,-23.753786095921697],[-46.727044887867855,-23.75365577463843],[-46.726906528156285,-23.753525453355156],[-46.72686040825243,-23.753395132071883],[-46.72667592863699,-23.75326481078861],[-46.72653756892542,-23.75313448950534],[-46.72644532911771,-23.752939007580434],[-46.72635308930999,-23.752613204372253],[-46.72621472959842,-23.752417722447344],[-46.72616860969456,-23.75222224052244],[-46.726122489790704,-23.75202675859753],[-46.72598413007913,-23.751831276672622],[-46.72598413007913,-23.751635794747717],[-46.72598413007913,-23.751375152181172],[-46.72603024998299,-23.751179670256263],[-46.726122489790704,-23.750919027689722],[-46.72616860969456,-23.750723545764814],[-46.726260849502275,-23.75046290319827],[-46.726260849502275,-23.75013709999009],[-46.72635308930999,-23.74955065421537],[-46.72653756892542,-23.74902936908228],[-46.72658368882928,-23.747660995607927],[-46.72681428834857,-23.747074549833204],[-46.727828926233435,-23.74590165828376],[-46.728474604887445,-23.744533284809407],[-46.73244091661921,-23.739515915403448],[-46.730688360272616,-23.7374307748711],[-46.729535362676174,-23.734694027922394],[-46.7290741636376,-23.730719228782608],[-46.72944312286846,-23.726027662584826],[-46.729535362676174,-23.723160594352848],[-46.72796728594501,-23.71905547392979],[-46.72238677757823,-23.711236196933488],[-46.7213260197895,-23.708434289343145],[-46.721279899885644,-23.707000755227156],[-46.72183333873193,-23.705436899827895],[-46.72409321402096,-23.700419530421936],[-46.725476811136694,-23.69546732165761],[-46.72644532911771,-23.679959088948277],[-46.72695264806014,-23.671814008743794],[-46.726998767964,-23.67161852681889],[-46.727044887867855,-23.67161852681889],[-46.727044887867855,-23.671553366177253],[-46.72709100777171,-23.671553366177253],[-46.727137127675576,-23.671553366177253],[-46.72718324757943,-23.671553366177253],[-46.72722936748329,-23.671553366177253],[-46.727275487387146,-23.671488205535617],[-46.727321607291,-23.671488205535617],[-46.72736772719486,-23.671488205535617],[-46.72736772719486,-23.671553366177253],[-46.72741384709872,-23.671553366177253],[-46.727459967002574,-23.671553366177253],[-46.72750608690644,-23.671357884252345],[-46.72750608690644,-23.67129272361071],[-46.72750608690644,-23.671227562969072],[-46.72750608690644,-23.671162402327436],[-46.72750608690644,-23.6710972416858],[-46.72750608690644,-23.671032081044164],[-46.72750608690644,-23.67096692040253],[-46.727552206810294,-23.67096692040253],[-46.727552206810294,-23.670901759760895],[-46.72759832671415,-23.670901759760895],[-46.72759832671415,-23.67083659911926],[-46.72764444661801,-23.67083659911926],[-46.72764444661801,-23.670771438477622],[-46.72722936748329,-23.67044563526944],[-46.726629808733136,-23.66998951077799],[-46.725615170848265,-23.66940306500327],[-46.72538457132898,-23.66920758307836],[-46.7252462116174,-23.66907726179509],[-46.72515397180969,-23.66894694051182],[-46.725061732001976,-23.668686297945275],[-46.7246005329634,-23.66718760318765],[-46.72455441305954,-23.66699212126274],[-46.72344753536696,-23.662952161481318],[-46.722617377097514,-23.659694129399526],[-46.722340657674366,-23.658586398491718],[-46.72174109892422,-23.65747866758391],[-46.72160273921264,-23.657348346300637],[-46.721418259597215,-23.657218025017364],[-46.72123377998178,-23.657087703734092],[-46.72104930036635,-23.657022543092456],[-46.720772580943205,-23.65695738245082],[-46.7204497416162,-23.656892221809183],[-46.719711823154476,-23.656892221809183],[-46.71897390469275,-23.657543828225542],[-46.71754418767316,-23.65839091656681],[-46.71625283036515,-23.659238004908076],[-46.714869233249416,-23.66015025389098],[-46.71422355459541,-23.660671539024065],[-46.71339339632597,-23.661453466723696],[-46.71191755940252,-23.66308248276459],[-46.710995161325364,-23.66451601688058],[-46.71053396228679,-23.66529794458021],[-46.71039560257522,-23.66549342650512],[-46.71016500305593,-23.66594955099657],[-46.70896588555563,-23.668034691528916],[-46.70753616853604,-23.67031531398617],[-46.7058297320933,-23.673377864143056],[-46.704307775265995,-23.675919129166854],[-46.70333925728499,-23.677482984566115],[-46.70264745872712,-23.678330072907382],[-46.70241685920783,-23.67865587611556],[-46.70126386161139,-23.679763607023368],[-46.700110864014945,-23.680936498572816],[-46.69914234603393,-23.68191390819735],[-46.69872726689921,-23.682370032688805],[-46.697804868822054,-23.684064209371336],[-46.697113070264194,-23.685106779637508],[-46.696375151802464,-23.686605474395133],[-46.69591395276389,-23.6874525627364],[-46.69586783286003,-23.687517723378036],[-46.695821712956175,-23.68764804466131],[-46.69549887362917,-23.688039008511122],[-46.69522215420602,-23.68842997236094],[-46.69494543478288,-23.688820936210753],[-46.69443811584044,-23.689537703268748],[-46.69388467699415,-23.690384791610015],[-46.69323899834014,-23.691427361876187],[-46.69263943958999,-23.69233961085909],[-46.6920860007437,-23.693317020483626],[-46.69148644199355,-23.694164108824893],[-46.69061016382025,-23.69546732165761],[-46.689918365262386,-23.696640213207054],[-46.689042087089085,-23.697747944114866],[-46.688488648242796,-23.698204068606316],[-46.68752013026178,-23.699051156947583],[-46.6867360918962,-23.69957244208067],[-46.685767573915186,-23.70002856657212]]]}}]}