{"type":"FeatureCollection","features":[{"type":"Feature","properties":{"DATA_ULT_A":"2009/10/09","DATA_CRIAC":"2009/10/09","id":16,"name":"Cidade Ademar","area":30.7,"pop_2010":410998,"pop_density_2010":13388,"budget_2015":39869730},"geometry":{"type":"Polygon","coordinates":[[[-46.67202384256559,-23.64483750310655],[-46.67202384256559,-23.644967824389823],[-46.67197772266173,-23.64503298503146],[-46.671885482854016,-23.645163306314732],[-46.67183936295015,-23.64535878823964],[-46.67174712314244,-23.645423948881277],[-46.67170100323858,-23.645554270164546],[-46.671654883334725,-23.645619430806182],[-46.67160876343087,-23.645749752089454],[-46.67142428381543,-23.646075555297635],[-46.67133204400772,-23.646205876580904],[-46.67128592410386,-23.646336197864176],[-46.671239804200006,-23.646401358505813],[-46.67114756439229,-23.64646651914745],[-46.67110144448843,-23.64659684043072],[-46.671009204680715,-23.646727161713994],[-46.671009204680715,-23.646792322355626],[-46.670916964873,-23.646987804280535],[-46.670870844969144,-23.64705296492217],[-46.67082472506529,-23.647118125563807],[-46.67077860516143,-23.647183286205443],[-46.67077860516143,-23.64724844684708],[-46.67073248525757,-23.647378768130352],[-46.67068636535371,-23.647574250055257],[-46.67064024544985,-23.64770457133853],[-46.670594125545996,-23.647834892621802],[-46.67054800564214,-23.64803037454671],[-46.67054800564214,-23.648095535188347],[-46.67050188573828,-23.648095535188347],[-46.67050188573828,-23.64816069582998],[-46.670455765834426,-23.648225856471615],[-46.67040964593056,-23.64829101711325],[-46.670363526026705,-23.648356177754888],[-46.670363526026705,-23.648421338396524],[-46.67031740612285,-23.648421338396524],[-46.67031740612285,-23.64848649903816],[-46.67027128621899,-23.648616820321433],[-46.670225166315134,-23.648812302246338],[-46.67017904641128,-23.648877462887974],[-46.67013292650742,-23.649072944812882],[-46.67013292650742,-23.64913810545452],[-46.67013292650742,-23.649203266096155],[-46.67013292650742,-23.649398748021063],[-46.67013292650742,-23.649463908662696],[-46.67013292650742,-23.649529069304332],[-46.670086806603564,-23.64959422994597],[-46.6700406866997,-23.649789711870877],[-46.66999456679584,-23.649854872512513],[-46.669948446891986,-23.649985193795786],[-46.66985620708427,-23.650310997003963],[-46.669810087180416,-23.650441318287236],[-46.669810087180416,-23.65050647892887],[-46.6697178473727,-23.650571639570508],[-46.66967172746884,-23.650571639570508],[-46.66962560756498,-23.650571639570508],[-46.66953336775727,-23.65070196085378],[-46.669441127949554,-23.65115808534523],[-46.6693950080457,-23.651418727911775],[-46.6693950080457,-23.651744531119952],[-46.6693950080457,-23.65180969176159],[-46.66934888814184,-23.651874852403225],[-46.66921052843026,-23.65239613753631],[-46.66911828862255,-23.652656780102856],[-46.66907216871869,-23.65272194074449],[-46.66897992891098,-23.652917422669397],[-46.66888768910326,-23.65304774395267],[-46.668795449295544,-23.653243225877578],[-46.668657089583974,-23.65337354716085],[-46.668518729872396,-23.653569029085755],[-46.668380370160826,-23.653699350369028],[-46.66833425025697,-23.653699350369028],[-46.668242010449255,-23.6538296716523],[-46.667734691506816,-23.65415547486048],[-46.66755021189139,-23.654350956785386],[-46.66750409198753,-23.654350956785386],[-46.6673196123721,-23.65448127806866],[-46.66727349246824,-23.654546438710295],[-46.66722737256438,-23.65461159935193],[-46.66690453323738,-23.655002563201744],[-46.66685841333352,-23.65506772384338],[-46.666812293429665,-23.655132884485017],[-46.66676617352581,-23.655198045126653],[-46.66653557400652,-23.655458687693198],[-46.66648945410266,-23.65552384833483],[-46.666397214294946,-23.655654169618103],[-46.66635109439108,-23.655654169618103],[-46.666166614775655,-23.65584965154301],[-46.66598213516022,-23.65604513346792],[-46.66588989535251,-23.656175454751192],[-46.66570541573708,-23.65630577603446],[-46.665520936121645,-23.656566418601006],[-46.665290336602354,-23.656761900525915],[-46.6652442166985,-23.65682706116755],[-46.66501361717921,-23.657087703734092],[-46.66492137737149,-23.65715286437573],[-46.664875257467635,-23.657218025017364],[-46.66482913756378,-23.657218025017364],[-46.66478301765992,-23.657348346300637],[-46.66441405842906,-23.657674149508814],[-46.66427569871749,-23.657804470792087],[-46.6640450991982,-23.65806511335863],[-46.663952859390484,-23.658195434641904],[-46.66386061958277,-23.658260595283537],[-46.66376837977505,-23.65839091656681],[-46.663676139967336,-23.658456077208445],[-46.66358390015962,-23.658586398491718],[-46.663537780255766,-23.658651559133354],[-46.663445540448045,-23.658781880416626],[-46.66339942054419,-23.658847041058262],[-46.66339942054419,-23.658912201699895],[-46.66335330064033,-23.659042522983167],[-46.663307180736474,-23.659107683624804],[-46.66326106083262,-23.659238004908076],[-46.66326106083262,-23.659303165549712],[-46.66326106083262,-23.65936832619135],[-46.66321494092876,-23.659563808116253],[-46.66321494092876,-23.65962896875789],[-46.66321494092876,-23.660019932607707],[-46.66321494092876,-23.660280575174248],[-46.66321494092876,-23.660345735815884],[-46.663168821024904,-23.660345735815884],[-46.663168821024904,-23.660541217740793],[-46.66307658121718,-23.660867020948974],[-46.66298434140947,-23.660997342232243],[-46.6628459816979,-23.66119282415715],[-46.662661502082464,-23.66138830608206],[-46.662661502082464,-23.661453466723696],[-46.662523142370894,-23.6616489486486],[-46.66238478265932,-23.66184443057351],[-46.662246422947746,-23.661974751856782],[-46.66206194333232,-23.662235394423327],[-46.6619697035246,-23.662365715706596],[-46.66183134381303,-23.662561197631504],[-46.6616468641976,-23.66282184019805],[-46.66141626467831,-23.66308248276459],[-46.66127790496674,-23.6632779646895],[-46.66113954525516,-23.66340828597277],[-46.66100118554359,-23.663603767897676],[-46.6607705860243,-23.663799249822585],[-46.66063222631273,-23.663929571105857],[-46.66049386660115,-23.66405989238913],[-46.66035550688958,-23.664125053030766],[-46.660171027274146,-23.66425537431404],[-46.65998654765872,-23.66432053495567],[-46.65994042775486,-23.664385695597307],[-46.65975594813943,-23.664450856238943],[-46.65975594813943,-23.664385695597307],[-46.659571468524,-23.664125053030766],[-46.65952534862014,-23.663994731747493],[-46.65952534862014,-23.663929571105857],[-46.65952534862014,-23.66386441046422],[-46.659479228716286,-23.66373408918095],[-46.659479228716286,-23.663668928539312],[-46.659479228716286,-23.663538607256044],[-46.659479228716286,-23.663343125331135],[-46.659479228716286,-23.663147643406226],[-46.65943310881242,-23.66308248276459],[-46.659248629196995,-23.663147643406226],[-46.65897190977385,-23.663147643406226],[-46.65874131025456,-23.663147643406226],[-46.658464590831414,-23.663212804047863],[-46.65841847092756,-23.663212804047863],[-46.658187871408266,-23.663343125331135],[-46.657957271888975,-23.663473446614407],[-46.657818912177405,-23.663538607256044],[-46.65735771313883,-23.663799249822585],[-46.65721935342725,-23.66386441046422],[-46.656896514100254,-23.663994731747493],[-46.656758154388676,-23.66405989238913],[-46.65652755486939,-23.664190213672402],[-46.656250835446244,-23.66432053495567],[-46.655743516503804,-23.664581177522216],[-46.65555903688838,-23.664646338163852],[-46.655328437369086,-23.664711498805488],[-46.655190077657515,-23.66484182008876],[-46.65500559804208,-23.664906980730397],[-46.65491335823437,-23.664906980730397],[-46.65486723833051,-23.66497214137203],[-46.65482111842665,-23.66497214137203],[-46.6547749985228,-23.665037302013666],[-46.65472887861894,-23.665037302013666],[-46.654682758715076,-23.6651024626553],[-46.65449827909965,-23.665232783938574],[-46.654406039291935,-23.665363105221846],[-46.65426767958036,-23.665428265863483],[-46.654175439772644,-23.66549342650512],[-46.65403708006107,-23.665623747788388],[-46.653898720349495,-23.66575406907166],[-46.653622000926354,-23.66607987227984],[-46.65357588102249,-23.66607987227984],[-46.65357588102249,-23.666145032921477],[-46.653529761118634,-23.666145032921477],[-46.65348364121478,-23.666145032921477],[-46.65348364121478,-23.666210193563114],[-46.65343752131092,-23.666210193563114],[-46.65339140140706,-23.666210193563114],[-46.65316080188777,-23.666340514846382],[-46.652976322272345,-23.666340514846382],[-46.65279184265691,-23.66640567548802],[-46.65274572275305,-23.666470836129655],[-46.65260736304148,-23.66653599677129],[-46.65242288342605,-23.666601157412927],[-46.65237676352219,-23.666666318054563],[-46.65228452371448,-23.666666318054563],[-46.65223840381062,-23.6667314786962],[-46.652192283906764,-23.6667314786962],[-46.65214616400291,-23.6667314786962],[-46.65210004409904,-23.666796639337836],[-46.65205392419519,-23.666861799979472],[-46.65200780429133,-23.666926960621108],[-46.651915564483616,-23.667057281904377],[-46.6518233246759,-23.667122442546013],[-46.651546605252754,-23.667383085112558],[-46.6515004853489,-23.667448245754194],[-46.65145436544504,-23.66751340639583],[-46.651408245541184,-23.66751340639583],[-46.65136212563732,-23.667578567037467],[-46.65131600573346,-23.667578567037467],[-46.65117764602189,-23.667578567037467],[-46.651131526118036,-23.667578567037467],[-46.650900926598744,-23.6676437276791],[-46.65067032707946,-23.667578567037467],[-46.650485847464026,-23.667578567037467],[-46.65043972756017,-23.667578567037467],[-46.65039360765631,-23.667578567037467],[-46.650347487752455,-23.667578567037467],[-46.6503013678486,-23.667578567037467],[-46.650255247944735,-23.667578567037467],[-46.650255247944735,-23.6676437276791],[-46.65002464842545,-23.667708888320735],[-46.64979404890616,-23.667839209604008],[-46.64965568919459,-23.667904370245644],[-46.64956344938687,-23.667904370245644],[-46.64951732948301,-23.667904370245644],[-46.649471209579154,-23.667839209604008],[-46.6494250896753,-23.66777404896237],[-46.64937896977144,-23.667708888320735],[-46.649332849867584,-23.6676437276791],[-46.64928672996373,-23.667578567037467],[-46.64924061005987,-23.667578567037467],[-46.649194490156006,-23.66751340639583],[-46.64914837025215,-23.66751340639583],[-46.649056130444436,-23.66751340639583],[-46.64901001054058,-23.66751340639583],[-46.648917770732865,-23.66751340639583],[-46.64887165082901,-23.66751340639583],[-46.648825530925144,-23.66751340639583],[-46.64873329111743,-23.667578567037467],[-46.648548811502,-23.6676437276791],[-46.64836433188657,-23.667708888320735],[-46.648225972175,-23.667839209604008],[-46.648041492559564,-23.667904370245644],[-46.64785701294414,-23.668034691528916],[-46.64771865323256,-23.66816501281219],[-46.647626413424845,-23.66816501281219],[-46.64725745419398,-23.66842565537873],[-46.64716521438627,-23.668490816020366],[-46.646842375059265,-23.668686297945275],[-46.64675013525155,-23.66875145858691],[-46.646427295924546,-23.66894694051182],[-46.64633505611683,-23.669012101153452],[-46.646058336693685,-23.66920758307836],[-46.64587385707825,-23.669272743719997],[-46.64582773717439,-23.669272743719997],[-46.64582773717439,-23.669337904361633],[-46.64573549736668,-23.669533386286542],[-46.64555101775125,-23.669794028853083],[-46.645274298328104,-23.6701849927029],[-46.64508981871267,-23.670510795911078],[-46.64481309928952,-23.670901759760895],[-46.64458249977024,-23.67129272361071],[-46.644490259962524,-23.67142304489398],[-46.64444414005866,-23.671553366177253],[-46.6443980201548,-23.67161852681889],[-46.64430578034709,-23.67161852681889],[-46.64416742063552,-23.671488205535617],[-46.643982941020084,-23.671357884252345],[-46.64379846140466,-23.671162402327436],[-46.643567861885366,-23.671032081044164],[-46.64352174198151,-23.67096692040253],[-46.64352174198151,-23.671032081044164],[-46.64338338226994,-23.671162402327436],[-46.64315278275065,-23.671357884252345],[-46.64310666284679,-23.671488205535617],[-46.64306054294293,-23.671553366177253],[-46.64301442303908,-23.671553366177253],[-46.64301442303908,-23.67161852681889],[-46.64296830313521,-23.671683687460522],[-46.6428760633275,-23.67174884810216],[-46.642783823519785,-23.671814008743794],[-46.64273770361593,-23.671814008743794],[-46.642645463808215,-23.671814008743794],[-46.64259934390435,-23.671814008743794],[-46.64250710409664,-23.671814008743794],[-46.64246098419278,-23.671814008743794],[-46.64223038467349,-23.67174884810216],[-46.641999785154205,-23.67161852681889],[-46.64186142544263,-23.671553366177253],[-46.641769185634914,-23.671553366177253],[-46.64172306573106,-23.671488205535617],[-46.6416769458272,-23.671488205535617],[-46.64163082592334,-23.671488205535617],[-46.641584706019486,-23.671488205535617],[-46.64153858611563,-23.671488205535617],[-46.641492466211766,-23.671488205535617],[-46.64140022640405,-23.671488205535617],[-46.64130798659634,-23.671488205535617],[-46.641215746788625,-23.671553366177253],[-46.641123506980904,-23.671553366177253],[-46.640800667653906,-23.67161852681889],[-46.64052394823076,-23.671683687460522],[-46.640154988999896,-23.671814008743794],[-46.64006274919218,-23.67187916938543],[-46.63983214967289,-23.67187916938543],[-46.63955543024974,-23.672009490668703],[-46.63923259092274,-23.67207465131034],[-46.63909423121117,-23.672139811951975],[-46.63890975159573,-23.672139811951975],[-46.638725271980306,-23.67220497259361],[-46.63858691226873,-23.672270133235248],[-46.63844855255716,-23.672270133235248],[-46.63831019284559,-23.67233529387688],[-46.638217953037866,-23.67233529387688],[-46.63812571323015,-23.672400454518517],[-46.63803347342244,-23.672400454518517],[-46.63789511371087,-23.672465615160153],[-46.63780287390315,-23.67253077580179],[-46.637710634095434,-23.67253077580179],[-46.63766451419158,-23.672595936443425],[-46.637572274383864,-23.67266109708506],[-46.637295554960716,-23.672726257726698],[-46.63701883553757,-23.67285657900997],[-46.63674211611442,-23.672921739651606],[-46.636649876306706,-23.672986900293242],[-46.63660375640285,-23.672986900293242],[-46.63655763649899,-23.672986900293242],[-46.63655763649899,-23.673052060934875],[-46.636511516595135,-23.673052060934875],[-46.63637315688356,-23.67311722157651],[-46.63618867726813,-23.673247542859784],[-46.63614255736427,-23.673247542859784],[-46.63614255736427,-23.67331270350142],[-46.63605031755656,-23.67331270350142],[-46.636004197652696,-23.673377864143056],[-46.63595807774884,-23.673377864143056],[-46.635865837941125,-23.673443024784692],[-46.63577359813341,-23.67350818542633],[-46.6356813583257,-23.67350818542633],[-46.635635238421834,-23.673573346067965],[-46.63558911851798,-23.673573346067965],[-46.63554299861412,-23.673573346067965],[-46.63549687871026,-23.6736385067096],[-46.63545075880641,-23.673703667351234],[-46.63540463890255,-23.673833988634506],[-46.63535851899869,-23.673899149276142],[-46.63526627919097,-23.674029470559415],[-46.635220159287115,-23.67409463120105],[-46.63517403938326,-23.674159791842687],[-46.6351279194794,-23.67429011312596],[-46.63503567967169,-23.674355273767592],[-46.634943439863974,-23.674485595050864],[-46.634851200056254,-23.6745507556925],[-46.6348050801524,-23.674615916334137],[-46.63475896024854,-23.674681076975773],[-46.634666720440826,-23.674681076975773],[-46.634574480633106,-23.674811398259045],[-46.63439000101768,-23.67487655890068],[-46.63425164130611,-23.675006880183954],[-46.634205521402244,-23.675006880183954],[-46.633882682075246,-23.67520236210886],[-46.63383656217138,-23.67520236210886],[-46.633790442267525,-23.675137201467223],[-46.63374432236367,-23.675137201467223],[-46.63369820245981,-23.675137201467223],[-46.6336059626521,-23.675072040825587],[-46.633513722844384,-23.675006880183954],[-46.63346760294052,-23.674941719542318],[-46.63337536313281,-23.67487655890068],[-46.63332924322895,-23.67487655890068],[-46.63328312332509,-23.674811398259045],[-46.633237003421236,-23.67474623761741],[-46.63319088351738,-23.67474623761741],[-46.63314476361352,-23.674681076975773],[-46.63309864370966,-23.674681076975773],[-46.633006403901945,-23.674615916334137],[-46.63291416409423,-23.674615916334137],[-46.632868044190374,-23.6745507556925],[-46.63282192428652,-23.674485595050864],[-46.63282192428652,-23.674420434409228],[-46.63277580438266,-23.674420434409228],[-46.6327296844788,-23.674355273767592],[-46.6327296844788,-23.67429011312596],[-46.6327296844788,-23.674224952484323],[-46.6327296844788,-23.674159791842687],[-46.63277580438266,-23.67409463120105],[-46.63282192428652,-23.674029470559415],[-46.63282192428652,-23.67396430991778],[-46.63282192428652,-23.673899149276142],[-46.63282192428652,-23.673833988634506],[-46.63277580438266,-23.673833988634506],[-46.63277580438266,-23.67376882799287],[-46.6327296844788,-23.67376882799287],[-46.63268356457494,-23.67376882799287],[-46.63263744467108,-23.673703667351234],[-46.632591324767226,-23.673703667351234],[-46.6324068451518,-23.6736385067096],[-46.632360725247935,-23.6736385067096],[-46.63231460534408,-23.6736385067096],[-46.63226848544022,-23.6736385067096],[-46.63217624563251,-23.6736385067096],[-46.632084005824794,-23.673703667351234],[-46.63199176601707,-23.673703667351234],[-46.63189952620936,-23.67376882799287],[-46.63171504659393,-23.67376882799287],[-46.631668926690075,-23.673703667351234],[-46.6315305669785,-23.673573346067965],[-46.63148444707464,-23.67350818542633],[-46.63139220726693,-23.673377864143056],[-46.63125384755535,-23.673247542859784],[-46.63111548784378,-23.673703667351234],[-46.630792648516774,-23.6745507556925],[-46.63074652861292,-23.674811398259045],[-46.63070040870906,-23.674941719542318],[-46.630654288805204,-23.675072040825587],[-46.630515929093626,-23.67520236210886],[-46.63042368928591,-23.67533268339213],[-46.630239209670485,-23.675463004675404],[-46.63010084995891,-23.67552816531704],[-46.62968577082419,-23.67578880788358],[-46.62950129120876,-23.675919129166854],[-46.62940905140104,-23.67598428980849],[-46.62931681159333,-23.676049450450126],[-46.62922457178561,-23.676114611091762],[-46.62885561255475,-23.67631009301667],[-46.62853277322775,-23.676505574941576],[-46.6282560538046,-23.676635896224848],[-46.62844053342003,-23.676701056866484],[-46.62862501303546,-23.676701056866484],[-46.62876337274704,-23.67676621750812],[-46.62885561255475,-23.67676621750812],[-46.62890173245861,-23.67676621750812],[-46.628947852362465,-23.676831378149757],[-46.62904009217018,-23.676831378149757],[-46.629086212074036,-23.676831378149757],[-46.62922457178561,-23.676896538791393],[-46.62931681159333,-23.676896538791393],[-46.62940905140104,-23.67696169943303],[-46.6294551713049,-23.67696169943303],[-46.6294551713049,-23.677026860074665],[-46.62950129120876,-23.677026860074665],[-46.62954741111262,-23.677026860074665],[-46.629593531016475,-23.677092020716298],[-46.62963965092033,-23.677092020716298],[-46.629731890728046,-23.677157181357934],[-46.6297780106319,-23.67722234199957],[-46.629824130535766,-23.67722234199957],[-46.62991637034348,-23.677287502641207],[-46.62996249024734,-23.677352663282843],[-46.630008610151194,-23.67741782392448],[-46.63010084995891,-23.677482984566115],[-46.630239209670485,-23.677613305849388],[-46.63028532957434,-23.677613305849388],[-46.63042368928591,-23.677743627132656],[-46.63056204899749,-23.677939109057565],[-46.63070040870906,-23.678069430340837],[-46.63074652861292,-23.678134590982474],[-46.630792648516774,-23.678134590982474],[-46.63083876842063,-23.67819975162411],[-46.63088488832449,-23.678264912265746],[-46.63097712813221,-23.678330072907382],[-46.631023248036065,-23.678395233549015],[-46.63097712813221,-23.67846039419065],[-46.63088488832449,-23.678525554832287],[-46.63083876842063,-23.678590715473923],[-46.63074652861292,-23.67865587611556],[-46.63070040870906,-23.678721036757196],[-46.63060816890135,-23.678721036757196],[-46.63056204899749,-23.678786197398832],[-46.63060816890135,-23.678916518682104],[-46.630792648516774,-23.679046839965373],[-46.631161607747636,-23.67943780381519],[-46.6318534063055,-23.68008941023155],[-46.631945646113216,-23.68021973151482],[-46.63213012572865,-23.680545534723],[-46.632222365536364,-23.680741016647907],[-46.63226848544022,-23.68087133793118],[-46.63231460534408,-23.68087133793118],[-46.632360725247935,-23.681001659214452],[-46.63249908495951,-23.681262301780993],[-46.63263744467108,-23.681522944347538],[-46.63268356457494,-23.68165326563081],[-46.6327296844788,-23.68178358691408],[-46.63277580438266,-23.68178358691408],[-46.63282192428652,-23.68191390819735],[-46.63291416409423,-23.68210939012226],[-46.63296028399809,-23.682174550763897],[-46.6330525238058,-23.682435193330438],[-46.63319088351738,-23.682630675255346],[-46.633237003421236,-23.682695835896983],[-46.63328312332509,-23.682826157180255],[-46.633513722844384,-23.683282281671705],[-46.633652082555955,-23.683608084879886],[-46.63374432236367,-23.683738406163158],[-46.63374432236367,-23.68380356680479],[-46.63383656217138,-23.6839990487297],[-46.63355984274824,-23.684194530654608],[-46.63328312332509,-23.684390012579517],[-46.63319088351738,-23.68445517322115],[-46.633237003421236,-23.684520333862785],[-46.63328312332509,-23.68478097642933],[-46.63337536313281,-23.685302261562416],[-46.63346760294052,-23.68575838605387],[-46.633513722844384,-23.685823546695502],[-46.633513722844384,-23.68588870733714],[-46.63355984274824,-23.686149349903683],[-46.6336059626521,-23.68621451054532],[-46.63369820245981,-23.686605474395133],[-46.63369820245981,-23.68667063503677],[-46.63369820245981,-23.686735795678405],[-46.633652082555955,-23.686931277603314],[-46.6336059626521,-23.68699643824495],[-46.6336059626521,-23.687061598886586],[-46.6336059626521,-23.68712675952822],[-46.6336059626521,-23.687191920169855],[-46.633652082555955,-23.687322241453128],[-46.633652082555955,-23.687387402094764],[-46.63369820245981,-23.687517723378036],[-46.63369820245981,-23.687713205302945],[-46.63374432236367,-23.68777836594458],[-46.633882682075246,-23.688039008511122],[-46.6339288019791,-23.68810416915276],[-46.63397492188296,-23.68810416915276],[-46.63411328159453,-23.68823449043603],[-46.63425164130611,-23.688299651077667],[-46.63448224082539,-23.688364811719303],[-46.634666720440826,-23.68842997236094],[-46.63475896024854,-23.68842997236094],[-46.6348050801524,-23.688495133002572],[-46.634851200056254,-23.688495133002572],[-46.63489731996011,-23.68856029364421],[-46.634943439863974,-23.68856029364421],[-46.634943439863974,-23.688625454285845],[-46.63498955976783,-23.688755775569117],[-46.635081799575545,-23.689081578777298],[-46.6351279194794,-23.68934222134384],[-46.63503567967169,-23.689407381985475],[-46.63489731996011,-23.68947254262711],[-46.6348050801524,-23.689602863910384],[-46.6348050801524,-23.689733185193656],[-46.63498955976783,-23.690058988401834],[-46.635220159287115,-23.69031963096838],[-46.635220159287115,-23.69044995225165],[-46.63526627919097,-23.69058027353492],[-46.635220159287115,-23.69077575545983],[-46.635220159287115,-23.690840916101465],[-46.63517403938326,-23.690971237384737],[-46.6351279194794,-23.691036398026373],[-46.635081799575545,-23.691036398026373],[-46.63503567967169,-23.69110155866801],[-46.634943439863974,-23.69110155866801],[-46.63475896024854,-23.69110155866801],[-46.63411328159453,-23.69110155866801],[-46.63374432236367,-23.691036398026373],[-46.63374432236367,-23.691166719309642],[-46.63369820245981,-23.691297040592914],[-46.63369820245981,-23.69136220123455],[-46.633652082555955,-23.691427361876187],[-46.633652082555955,-23.69155768315946],[-46.6336059626521,-23.69155768315946],[-46.63355984274824,-23.69168800444273],[-46.63319088351738,-23.69168800444273],[-46.63309864370966,-23.691753165084368],[-46.63296028399809,-23.69201380765091],[-46.63282192428652,-23.692274450217454],[-46.63277580438266,-23.69233961085909],[-46.63263744467108,-23.692209289575818],[-46.632591324767226,-23.69214412893418],[-46.63254520486337,-23.69214412893418],[-46.63231460534408,-23.692274450217454],[-46.632360725247935,-23.692274450217454],[-46.6324068451518,-23.69233961085909],[-46.632452965055656,-23.692404771500726],[-46.63226848544022,-23.692535092783995],[-46.632222365536364,-23.692535092783995],[-46.632591324767226,-23.693056377917085],[-46.63249908495951,-23.69312153855872],[-46.63217624563251,-23.693317020483626],[-46.63213012572865,-23.6934473417669],[-46.63203788592094,-23.693382181125262],[-46.6318534063055,-23.693317020483626],[-46.63176116649779,-23.693512502408534],[-46.631668926690075,-23.693707984333443],[-46.631438327170784,-23.69422926946653],[-46.63134608736307,-23.6943595907498],[-46.63125384755535,-23.694555072674707],[-46.63134608736307,-23.69468539395798],[-46.6315305669785,-23.694750554599615],[-46.63171504659393,-23.69481571524125],[-46.63176116649779,-23.694880875882887],[-46.631807286401646,-23.694880875882887],[-46.6318534063055,-23.694946036524524],[-46.63189952620936,-23.695076357807796],[-46.63199176601707,-23.695206679091065],[-46.63203788592094,-23.695337000374337],[-46.63213012572865,-23.69546732165761],[-46.63217624563251,-23.695597642940882],[-46.63231460534408,-23.69579312486579],[-46.6324068451518,-23.695988606790696],[-46.63249908495951,-23.69624924935724],[-46.63254520486337,-23.69624924935724],[-46.63254520486337,-23.696314409998877],[-46.63254520486337,-23.696379570640513],[-46.6324068451518,-23.696509891923785],[-46.63231460534408,-23.696640213207054],[-46.63231460534408,-23.69670537384869],[-46.63226848544022,-23.69670537384869],[-46.632222365536364,-23.69670537384869],[-46.63217624563251,-23.696770534490327],[-46.63199176601707,-23.696575052565418],[-46.631945646113216,-23.696509891923785],[-46.63189952620936,-23.696509891923785],[-46.6318534063055,-23.696509891923785],[-46.63176116649779,-23.696509891923785],[-46.631576686882354,-23.696575052565418],[-46.63148444707464,-23.696575052565418],[-46.63139220726693,-23.696640213207054],[-46.63134608736307,-23.696640213207054],[-46.63134608736307,-23.69670537384869],[-46.63129996745921,-23.69670537384869],[-46.63125384755535,-23.69670537384869],[-46.631161607747636,-23.696770534490327],[-46.63083876842063,-23.696770534490327],[-46.630515929093626,-23.69703117705687],[-46.63046980918977,-23.697096337698508],[-46.63042368928591,-23.697226658981776],[-46.630377569382055,-23.697291819623413],[-46.630377569382055,-23.69748730154832],[-46.63028532957434,-23.69748730154832],[-46.63010084995891,-23.69748730154832],[-46.629824130535766,-23.697552462189957],[-46.629731890728046,-23.697617622831594],[-46.62950129120876,-23.69768278347323],[-46.6294551713049,-23.697813104756502],[-46.62940905140104,-23.697747944114866],[-46.62931681159333,-23.697813104756502],[-46.62917845188176,-23.698073747323043],[-46.62917845188176,-23.69813890796468],[-46.62917845188176,-23.698204068606316],[-46.62917845188176,-23.698269229247952],[-46.62917845188176,-23.698334389889588],[-46.62917845188176,-23.698399550531224],[-46.62917845188176,-23.69846471117286],[-46.62917845188176,-23.698529871814497],[-46.62917845188176,-23.69859503245613],[-46.62917845188176,-23.698660193097766],[-46.62917845188176,-23.698790514381038],[-46.62917845188176,-23.698855675022674],[-46.62922457178561,-23.698855675022674],[-46.62922457178561,-23.69892083566431],[-46.62922457178561,-23.698985996305947],[-46.62922457178561,-23.69911631758922],[-46.62922457178561,-23.699181478230855],[-46.62922457178561,-23.699311799514124],[-46.62922457178561,-23.69937696015576],[-46.62927069168947,-23.699442120797396],[-46.62927069168947,-23.699507281439033],[-46.62927069168947,-23.69957244208067],[-46.62927069168947,-23.699637602722305],[-46.62927069168947,-23.69970276336394],[-46.62922457178561,-23.69970276336394],[-46.62922457178561,-23.699767924005577],[-46.62922457178561,-23.699833084647214],[-46.6291323319779,-23.69989824528885],[-46.62899397226632,-23.700093727213755],[-46.62890173245861,-23.70015888785539],[-46.62885561255475,-23.700224048497027],[-46.628809492650895,-23.700224048497027],[-46.62876337274704,-23.700289209138663],[-46.62876337274704,-23.7003543697803],[-46.62876337274704,-23.700419530421936],[-46.62876337274704,-23.700484691063572],[-46.62876337274704,-23.70054985170521],[-46.628809492650895,-23.70061501234684],[-46.628809492650895,-23.70081049427175],[-46.62867113293932,-23.70081049427175],[-46.628394413516176,-23.700745333630113],[-46.62834829361231,-23.700745333630113],[-46.628302173708455,-23.700745333630113],[-46.6282560538046,-23.70081049427175],[-46.628163813996885,-23.700940815555022],[-46.62807157418917,-23.701005976196658],[-46.62788709457374,-23.701005976196658],[-46.62724141591973,-23.701201458121567],[-46.62719529601587,-23.7012666187632],[-46.6270569363043,-23.70139694004647],[-46.62701081640044,-23.701527261329744],[-46.626964696496586,-23.701853064537925],[-46.626872456688865,-23.702113707104466],[-46.62682633678501,-23.70224402838774],[-46.62678021688115,-23.70224402838774],[-46.62664185716958,-23.702309189029375],[-46.62641125765029,-23.702309189029375],[-46.62627289793872,-23.70224402838774],[-46.62604229841943,-23.702113707104466],[-46.62590393870786,-23.702113707104466],[-46.62576557899628,-23.70204854646283],[-46.62558109938085,-23.70204854646283],[-46.62535049986156,-23.702113707104466],[-46.62521214014999,-23.702113707104466],[-46.62507378043842,-23.702178867746102],[-46.62484318091913,-23.70224402838774],[-46.624750941111415,-23.70224402838774],[-46.62470482120756,-23.702309189029375],[-46.62461258139984,-23.702309189029375],[-46.62442810178441,-23.702439510312647],[-46.6243358619767,-23.702504670954283],[-46.62428974207283,-23.702504670954283],[-46.62428974207283,-23.70256983159592],[-46.62428974207283,-23.702634992237552],[-46.6243358619767,-23.70283047416246],[-46.6243358619767,-23.703091116729006],[-46.6243358619767,-23.703156277370642],[-46.6243358619767,-23.703221438012278],[-46.62428974207283,-23.703221438012278],[-46.624243622168976,-23.703221438012278],[-46.62419750226512,-23.703221438012278],[-46.62415138236126,-23.703221438012278],[-46.62415138236126,-23.70328659865391],[-46.62405914255355,-23.70328659865391],[-46.62405914255355,-23.703416919937183],[-46.62405914255355,-23.70361240186209],[-46.62405914255355,-23.703742723145364],[-46.62415138236126,-23.70393820507027],[-46.6243358619767,-23.704329168920086],[-46.6243358619767,-23.70445949020336],[-46.6243358619767,-23.704524650844995],[-46.6243358619767,-23.70458981148663],[-46.62438198188055,-23.70458981148663],[-46.62438198188055,-23.704654972128264],[-46.62442810178441,-23.7047201327699],[-46.62447422168827,-23.704785293411536],[-46.624520341592124,-23.704785293411536],[-46.62456646149598,-23.704850454053172],[-46.62461258139984,-23.704850454053172],[-46.62447422168827,-23.704980775336445],[-46.624243622168976,-23.705176257261353],[-46.624105262457405,-23.705306578544622],[-46.62401302264969,-23.70537173918626],[-46.62405914255355,-23.705436899827895],[-46.62401302264969,-23.705632381752803],[-46.62396690274583,-23.70569754239444],[-46.62392078284197,-23.70569754239444],[-46.62369018332269,-23.70582786367771],[-46.623597943514966,-23.705893024319348],[-46.623597943514966,-23.705762703036076],[-46.623228984284104,-23.705762703036076],[-46.62318286438025,-23.705762703036076],[-46.62313674447639,-23.705762703036076],[-46.62313674447639,-23.70582786367771],[-46.623090624572534,-23.70582786367771],[-46.623090624572534,-23.705762703036076],[-46.62304450466868,-23.705762703036076],[-46.62299838476482,-23.705762703036076],[-46.622906144957106,-23.705762703036076],[-46.62286002505324,-23.705762703036076],[-46.62193762697609,-23.706218827527525],[-46.62193762697609,-23.706349148810798],[-46.62198374687995,-23.706349148810798],[-46.622029866783805,-23.706349148810798],[-46.62207598668766,-23.706349148810798],[-46.62221434639924,-23.706414309452434],[-46.62230658620695,-23.70647947009407],[-46.62230658620695,-23.706544630735706],[-46.62221434639924,-23.706609791377343],[-46.62212210659152,-23.706674952018975],[-46.62207598668766,-23.70674011266061],[-46.622029866783805,-23.70674011266061],[-46.622029866783805,-23.706805273302248],[-46.62175314736066,-23.707000755227156],[-46.6217070274568,-23.707000755227156],[-46.62156866774523,-23.70713107651043],[-46.62152254784137,-23.70713107651043],[-46.62119970851437,-23.70713107651043],[-46.6210613488028,-23.70713107651043],[-46.62078462937965,-23.707196237152065],[-46.62073850947579,-23.707196237152065],[-46.620692389571936,-23.707196237152065],[-46.620461790052644,-23.707196237152065],[-46.62036955024493,-23.7072613977937],[-46.62023119053335,-23.7072613977937],[-46.62009283082178,-23.7072613977937],[-46.61990835120635,-23.707326558435334],[-46.619816111398634,-23.707326558435334],[-46.61976999149478,-23.707326558435334],[-46.61958551187935,-23.707326558435334],[-46.61949327207163,-23.70739171907697],[-46.619401032263916,-23.70739171907697],[-46.6193087924562,-23.70739171907697],[-46.619170432744625,-23.70739171907697],[-46.61912431284077,-23.70739171907697],[-46.61907819293691,-23.70739171907697],[-46.619032073033054,-23.70739171907697],[-46.61884759341762,-23.707456879718606],[-46.61847863418676,-23.707652361643515],[-46.6184325142829,-23.70771752228515],[-46.61852475409062,-23.707782682926787],[-46.61820191476362,-23.70804332549333],[-46.61815579485976,-23.70804332549333],[-46.618109674955896,-23.70804332549333],[-46.617971315244326,-23.708108486134964],[-46.61792519534047,-23.708108486134964],[-46.61787907543661,-23.7081736467766],[-46.617832955532755,-23.7081736467766],[-46.617740715725034,-23.708238807418237],[-46.617602356013464,-23.70836912870151],[-46.61741787639804,-23.708434289343145],[-46.617325636590316,-23.70836912870151],[-46.61727951668646,-23.708303968059873],[-46.61714115697489,-23.7081736467766],[-46.617048917167175,-23.70804332549333],[-46.61700279726331,-23.70804332549333],[-46.61663383803245,-23.708238807418237],[-46.61658771812859,-23.708303968059873],[-46.616541598224735,-23.708434289343145],[-46.616541598224735,-23.70849944998478],[-46.61649547832088,-23.708694931909687],[-46.61644935841702,-23.70882525319296],[-46.616541598224735,-23.708890413834595],[-46.61677219774403,-23.708890413834595],[-46.616956677359454,-23.70895557447623],[-46.617048917167175,-23.70895557447623],[-46.617048917167175,-23.709020735117868],[-46.61700279726331,-23.709085895759504],[-46.61700279726331,-23.70915105640114],[-46.616956677359454,-23.70915105640114],[-46.616956677359454,-23.709216217042776],[-46.616956677359454,-23.709281377684412],[-46.6169105574556,-23.709281377684412],[-46.6169105574556,-23.709346538326045],[-46.61686443755174,-23.709346538326045],[-46.61686443755174,-23.70941169896768],[-46.61681831764788,-23.70941169896768],[-46.61681831764788,-23.709476859609318],[-46.61677219774403,-23.709476859609318],[-46.61677219774403,-23.709542020250954],[-46.61677219774403,-23.70960718089259],[-46.61672607784017,-23.70960718089259],[-46.61672607784017,-23.709672341534226],[-46.61672607784017,-23.709737502175862],[-46.61672607784017,-23.7098026628175],[-46.61677219774403,-23.7098026628175],[-46.61677219774403,-23.709867823459135],[-46.61677219774403,-23.70993298410077],[-46.61681831764788,-23.70993298410077],[-46.61681831764788,-23.709998144742404],[-46.61686443755174,-23.71006330538404],[-46.6169105574556,-23.71006330538404],[-46.6169105574556,-23.710128466025676],[-46.616956677359454,-23.710128466025676],[-46.616956677359454,-23.710193626667312],[-46.616956677359454,-23.71025878730895],[-46.616956677359454,-23.710323947950585],[-46.6169105574556,-23.710323947950585],[-46.6169105574556,-23.71038910859222],[-46.61686443755174,-23.71038910859222],[-46.61686443755174,-23.710454269233857],[-46.61681831764788,-23.710454269233857],[-46.61681831764788,-23.710519429875493],[-46.61681831764788,-23.71058459051713],[-46.61681831764788,-23.710649751158762],[-46.61681831764788,-23.710714911800398],[-46.61686443755174,-23.710714911800398],[-46.61686443755174,-23.710780072442034],[-46.6169105574556,-23.71084523308367],[-46.616956677359454,-23.71084523308367],[-46.616956677359454,-23.710910393725307],[-46.61700279726331,-23.710910393725307],[-46.61700279726331,-23.710975554366943],[-46.617048917167175,-23.710975554366943],[-46.61709503707103,-23.710975554366943],[-46.61709503707103,-23.71104071500858],[-46.61714115697489,-23.711105875650215],[-46.617187276878745,-23.71117103629185],[-46.61727951668646,-23.711236196933488],[-46.617325636590316,-23.711236196933488],[-46.61737175649417,-23.711301357575124],[-46.61746399630189,-23.711431678858393],[-46.61751011620575,-23.71149683950003],[-46.61755623610961,-23.711562000141665],[-46.61764847591732,-23.711692321424938],[-46.61769459582118,-23.711757482066574],[-46.617740715725034,-23.71182264270821],[-46.617740715725034,-23.711952963991482],[-46.617740715725034,-23.71208328527475],[-46.6177868356289,-23.712148445916387],[-46.6177868356289,-23.71227876719966],[-46.61787907543661,-23.712343927841296],[-46.61792519534047,-23.712343927841296],[-46.61801743514818,-23.71247424912457],[-46.61815579485976,-23.712539409766205],[-46.61820191476362,-23.71260457040784],[-46.61829415457133,-23.712669731049473],[-46.61829415457133,-23.71273489169111],[-46.61834027447519,-23.712800052332746],[-46.6184325142829,-23.712800052332746],[-46.61857087399448,-23.712930373616018],[-46.618616993898335,-23.712930373616018],[-46.61880147351376,-23.71306069489929],[-46.618893713321484,-23.713125855540927],[-46.6189859531292,-23.7132561768242],[-46.61907819293691,-23.713321337465835],[-46.61912431284077,-23.713386498107468],[-46.619262672552345,-23.71351681939074],[-46.61944715216777,-23.713581980032377],[-46.619539391975486,-23.71371230131565],[-46.61972387159092,-23.713777461957285],[-46.619816111398634,-23.71384262259892],[-46.61990835120635,-23.713907783240558],[-46.62000059101407,-23.71384262259892],[-46.620046710917926,-23.71384262259892],[-46.62009283082178,-23.713907783240558],[-46.620185070629496,-23.713907783240558],[-46.62023119053335,-23.713972943882194],[-46.620323430341074,-23.714038104523826],[-46.62041567014879,-23.714103265165463],[-46.620461790052644,-23.7141684258071],[-46.62055402986036,-23.714233586448735],[-46.620600149764215,-23.714233586448735],[-46.620692389571936,-23.71429874709037],[-46.62073850947579,-23.71429874709037],[-46.62078462937965,-23.714363907732007],[-46.62087686918736,-23.714429068373644],[-46.62092298909122,-23.71449422901528],[-46.6210613488028,-23.714689710940185],[-46.621107468706654,-23.71475487158182],[-46.62115358861051,-23.714820032223457],[-46.62119970851437,-23.714885192865093],[-46.621245828418225,-23.71495035350673],[-46.621245828418225,-23.715015514148366],[-46.62129194832208,-23.715080674790002],[-46.62133806822594,-23.71514583543164],[-46.621384188129795,-23.71514583543164],[-46.621476427937516,-23.715210996073274],[-46.62156866774523,-23.715210996073274],[-46.62166090755294,-23.71527615671491],[-46.62175314736066,-23.715341317356547],[-46.621891507072235,-23.71540647799818],[-46.62193762697609,-23.71540647799818],[-46.622029866783805,-23.715471638639816],[-46.62212210659152,-23.715471638639816],[-46.62216822649538,-23.715536799281452],[-46.62235270611081,-23.715667120564724],[-46.62249106582238,-23.71573228120636],[-46.622537185726245,-23.715797441847997],[-46.622675545437815,-23.715862602489633],[-46.62276778524553,-23.71592776313127],[-46.62286002505324,-23.71592776313127],[-46.62295226486096,-23.715992923772905],[-46.623090624572534,-23.716058084414538],[-46.62313674447639,-23.716123245056174],[-46.623321224091825,-23.716123245056174],[-46.62341346389954,-23.716123245056174],[-46.623459583803395,-23.716123245056174],[-46.62350570370725,-23.716123245056174],[-46.623597943514966,-23.716123245056174],[-46.62364406341883,-23.716123245056174],[-46.6237824231304,-23.71618840569781],[-46.623874662938114,-23.716253566339446],[-46.62392078284197,-23.716253566339446],[-46.62401302264969,-23.716253566339446],[-46.62415138236126,-23.716253566339446],[-46.62428974207283,-23.716318726981083],[-46.62442810178441,-23.716318726981083],[-46.62456646149598,-23.71638388762272],[-46.624750941111415,-23.71638388762272],[-46.62484318091913,-23.71638388762272],[-46.62493542072684,-23.71638388762272],[-46.62507378043842,-23.716449048264355],[-46.625166020246134,-23.716449048264355],[-46.62521214014999,-23.71638388762272],[-46.62525826005385,-23.71638388762272],[-46.62539661976542,-23.716449048264355],[-46.62548885957314,-23.71651420890599],[-46.62562721928471,-23.71651420890599],[-46.62571945909242,-23.71651420890599],[-46.625811698900144,-23.71651420890599],[-46.625857818804,-23.71651420890599],[-46.62599617851557,-23.71651420890599],[-46.626088418323285,-23.71651420890599],[-46.626319017842576,-23.71651420890599],[-46.626503497458,-23.71651420890599],[-46.62668797707344,-23.716449048264355],[-46.62682633678501,-23.716449048264355],[-46.62701081640044,-23.71638388762272],[-46.62724141591973,-23.71638388762272],[-46.627379775631304,-23.716318726981083],[-46.627518135342875,-23.716318726981083],[-46.62756425524673,-23.71638388762272],[-46.62765649505445,-23.71638388762272],[-46.62770261495831,-23.71638388762272],[-46.62784097466988,-23.71651420890599],[-46.62793321447759,-23.71651420890599],[-46.62797933438145,-23.716579369547627],[-46.628025454285314,-23.716579369547627],[-46.628025454285314,-23.716709690830896],[-46.628025454285314,-23.716774851472533],[-46.62797933438145,-23.716774851472533],[-46.62793321447759,-23.71684001211417],[-46.62793321447759,-23.71697033339744],[-46.62797933438145,-23.71716581532235],[-46.628025454285314,-23.71716581532235],[-46.62811769409303,-23.71716581532235],[-46.6282560538046,-23.71716581532235],[-46.628394413516176,-23.71716581532235],[-46.62844053342003,-23.717230975963986],[-46.62848665332389,-23.717296136605622],[-46.62848665332389,-23.71736129724726],[-46.62853277322775,-23.71742645788889],[-46.6285788931316,-23.717491618530527],[-46.628717252843174,-23.717556779172163],[-46.628809492650895,-23.7176219398138],[-46.62890173245861,-23.717687100455436],[-46.62904009217018,-23.717817421738708],[-46.6291323319779,-23.71794774302198],[-46.62927069168947,-23.718012903663617],[-46.6294551713049,-23.718143224946886],[-46.62950129120876,-23.718273546230158],[-46.6294551713049,-23.71840386751343],[-46.62940905140104,-23.718469028155067],[-46.62931681159333,-23.718534188796703],[-46.629362931497184,-23.718664510079975],[-46.62950129120876,-23.718729670721608],[-46.62963965092033,-23.71885999200488],[-46.62987025043962,-23.718925152646516],[-46.630008610151194,-23.71905547392979],[-46.630146969862764,-23.71918579521306],[-46.63028532957434,-23.71938127713797],[-46.630377569382055,-23.719576759062875],[-46.63056204899749,-23.71983740162942],[-46.63074652861292,-23.719967722912692],[-46.63134608736307,-23.720228365479233],[-46.633513722844384,-23.721792220878495],[-46.63558911851798,-23.72439864654393],[-46.63817183313401,-23.72622314450973],[-46.643429502173795,-23.728243124400443],[-46.65403708006107,-23.729025052100074],[-46.65500559804208,-23.728112803117174],[-46.657034873811824,-23.723160594352848],[-46.65892578986999,-23.72153157831195],[-46.662523142370894,-23.72029352612087],[-46.6655670560255,-23.718729670721608],[-46.667089012852806,-23.717491618530527],[-46.66856484977625,-23.715667120564724],[-46.669302768237976,-23.713777461957285],[-46.66967172746884,-23.707456879718606],[-46.67170100323858,-23.704329168920086],[-46.67432983775847,-23.703221438012278],[-46.675298355739486,-23.70302595608737],[-46.67695867227836,-23.70270015287919],[-46.67884958833653,-23.70237434967101],[-46.68138618304871,-23.701722743254653],[-46.68318485929915,-23.70113629747993],[-46.68438397679946,-23.700680172988477],[-46.685767573915186,-23.70002856657212],[-46.685490854492045,-23.699442120797396],[-46.68544473458819,-23.69937696015576],[-46.685490854492045,-23.69937696015576],[-46.685490854492045,-23.699311799514124],[-46.6855369743959,-23.699311799514124],[-46.6855369743959,-23.699246638872488],[-46.6855369743959,-23.699181478230855],[-46.685490854492045,-23.699181478230855],[-46.685490854492045,-23.69911631758922],[-46.68544473458819,-23.69911631758922],[-46.68544473458819,-23.699051156947583],[-46.685398614684324,-23.699051156947583],[-46.68535249478047,-23.699051156947583],[-46.68530637487661,-23.698985996305947],[-46.68530637487661,-23.69892083566431],[-46.685260254972754,-23.69892083566431],[-46.6852141350689,-23.69892083566431],[-46.68516801516504,-23.698855675022674],[-46.68512189526118,-23.698855675022674],[-46.68512189526118,-23.698790514381038],[-46.685075775357326,-23.698790514381038],[-46.68502965545346,-23.698790514381038],[-46.68502965545346,-23.698725353739402],[-46.684983535549605,-23.698725353739402],[-46.68493741564575,-23.698725353739402],[-46.68489129574189,-23.698725353739402],[-46.684845175838035,-23.698725353739402],[-46.68479905593418,-23.698725353739402],[-46.68475293603032,-23.698725353739402],[-46.684706816126464,-23.698725353739402],[-46.6846606962226,-23.698725353739402],[-46.684614576318744,-23.698790514381038],[-46.68456845641489,-23.698790514381038],[-46.68452233651103,-23.698790514381038],[-46.68447621660717,-23.698790514381038],[-46.684430096703316,-23.698790514381038],[-46.68438397679946,-23.698790514381038],[-46.68438397679946,-23.698725353739402],[-46.6843378568956,-23.698725353739402],[-46.68429173699174,-23.698725353739402],[-46.68429173699174,-23.698660193097766],[-46.68424561708788,-23.698660193097766],[-46.684199497184025,-23.698660193097766],[-46.68415337728017,-23.69859503245613],[-46.68415337728017,-23.698529871814497],[-46.68410725737631,-23.698529871814497],[-46.68410725737631,-23.69846471117286],[-46.68410725737631,-23.698399550531224],[-46.68410725737631,-23.698334389889588],[-46.684061137472455,-23.698334389889588],[-46.684061137472455,-23.698269229247952],[-46.6840150175686,-23.698269229247952],[-46.6840150175686,-23.698204068606316],[-46.68396889766474,-23.698204068606316],[-46.68396889766474,-23.69813890796468],[-46.68392277776088,-23.69813890796468],[-46.68392277776088,-23.698073747323043],[-46.68387665785702,-23.698073747323043],[-46.68387665785702,-23.698008586681407],[-46.68383053795316,-23.698008586681407],[-46.68383053795316,-23.69794342603977],[-46.68378441804931,-23.69794342603977],[-46.68378441804931,-23.69787826539814],[-46.68373829814545,-23.69787826539814],[-46.68373829814545,-23.697813104756502],[-46.68369217824159,-23.697813104756502],[-46.683646058337736,-23.697747944114866],[-46.683646058337736,-23.69768278347323],[-46.68359993843388,-23.69768278347323],[-46.68359993843388,-23.697617622831594],[-46.683553818530015,-23.697552462189957],[-46.683553818530015,-23.69748730154832],[-46.683553818530015,-23.697422140906685],[-46.68350769862616,-23.69735698026505],[-46.6834615787223,-23.69735698026505],[-46.6834615787223,-23.697291819623413],[-46.683415458818445,-23.697291819623413],[-46.683415458818445,-23.697226658981776],[-46.68336933891459,-23.697161498340144],[-46.68336933891459,-23.697096337698508],[-46.68332321901073,-23.69703117705687],[-46.68332321901073,-23.696966016415235],[-46.683277099106874,-23.6969008557736],[-46.683277099106874,-23.696835695131963],[-46.68323097920302,-23.696835695131963],[-46.68323097920302,-23.696770534490327],[-46.68318485929915,-23.69670537384869],[-46.68318485929915,-23.696640213207054],[-46.6831387393953,-23.696640213207054],[-46.68309261949144,-23.696575052565418],[-46.68304649958758,-23.696575052565418],[-46.683000379683726,-23.696575052565418],[-46.683000379683726,-23.696509891923785],[-46.68304649958758,-23.69644473128215],[-46.68309261949144,-23.696379570640513],[-46.6831387393953,-23.696379570640513],[-46.68318485929915,-23.696379570640513],[-46.68323097920302,-23.696379570640513],[-46.68323097920302,-23.696314409998877],[-46.683277099106874,-23.696314409998877],[-46.68332321901073,-23.696314409998877],[-46.68336933891459,-23.696314409998877],[-46.683415458818445,-23.696314409998877],[-46.6834615787223,-23.696314409998877],[-46.68350769862616,-23.696314409998877],[-46.68350769862616,-23.69624924935724],[-46.68350769862616,-23.696184088715604],[-46.6834615787223,-23.696118928073968],[-46.683415458818445,-23.696118928073968],[-46.683415458818445,-23.696053767432332],[-46.68336933891459,-23.696053767432332],[-46.68336933891459,-23.695988606790696],[-46.68332321901073,-23.69592344614906],[-46.683277099106874,-23.695858285507427],[-46.68323097920302,-23.695858285507427],[-46.68318485929915,-23.695858285507427],[-46.6831387393953,-23.695858285507427],[-46.68309261949144,-23.695858285507427],[-46.68304649958758,-23.69579312486579],[-46.68304649958758,-23.695727964224155],[-46.68304649958758,-23.69566280358252],[-46.68304649958758,-23.695597642940882],[-46.68309261949144,-23.695597642940882],[-46.68309261949144,-23.695532482299246],[-46.6831387393953,-23.695532482299246],[-46.6831387393953,-23.69546732165761],[-46.68309261949144,-23.69546732165761],[-46.68304649958758,-23.69546732165761],[-46.68304649958758,-23.695402161015974],[-46.683000379683726,-23.695402161015974],[-46.68295425977987,-23.695337000374337],[-46.68290813987601,-23.695337000374337],[-46.682862019972156,-23.695337000374337],[-46.682769780164435,-23.695337000374337],[-46.68267754035672,-23.6952718397327],[-46.68258530054901,-23.6952718397327],[-46.682493060741294,-23.6952718397327],[-46.68240082093357,-23.6952718397327],[-46.682354701029716,-23.695206679091065],[-46.68230858112586,-23.695206679091065],[-46.682262461222,-23.695206679091065],[-46.682216341318146,-23.695206679091065],[-46.68217022141429,-23.695206679091065],[-46.68212410151043,-23.695206679091065],[-46.68207798160657,-23.695206679091065],[-46.68203186170271,-23.6952718397327],[-46.681985741798854,-23.6952718397327],[-46.681939621895,-23.6952718397327],[-46.68180126218343,-23.6952718397327],[-46.68175514227957,-23.6952718397327],[-46.681709022375706,-23.6952718397327],[-46.68166290247185,-23.6952718397327],[-46.68161678256799,-23.6952718397327],[-46.681570662664136,-23.6952718397327],[-46.68152454276028,-23.6952718397327],[-46.68147842285642,-23.6952718397327],[-46.681432302952565,-23.6952718397327],[-46.681340063144845,-23.6952718397327],[-46.681340063144845,-23.695337000374337],[-46.68124782333713,-23.695337000374337],[-46.681201703433274,-23.695337000374337],[-46.68101722381784,-23.6952718397327],[-46.68097110391398,-23.6952718397327],[-46.68087886410627,-23.695337000374337],[-46.680786624298555,-23.695337000374337],[-46.6807405043947,-23.695337000374337],[-46.68064826458698,-23.695337000374337],[-46.680556024779264,-23.695402161015974],[-46.68046378497155,-23.695402161015974],[-46.680417665067694,-23.695402161015974],[-46.68037154516384,-23.695402161015974],[-46.68032542525998,-23.69546732165761],[-46.680279305356116,-23.69546732165761],[-46.68023318545226,-23.695532482299246],[-46.6801870655484,-23.695532482299246],[-46.680140945644546,-23.695532482299246],[-46.68009482574069,-23.695532482299246],[-46.68004870583683,-23.69546732165761],[-46.680002585932975,-23.69546732165761],[-46.679910346125254,-23.695402161015974],[-46.67981810631754,-23.695337000374337],[-46.67972586650983,-23.695337000374337],[-46.67963362670211,-23.695337000374337],[-46.679587506798256,-23.6952718397327],[-46.679495266990536,-23.6952718397327],[-46.67940302718282,-23.6952718397327],[-46.679356907278965,-23.6952718397327],[-46.67931078737511,-23.6952718397327],[-46.679218547567395,-23.695206679091065],[-46.679126307759674,-23.695141518449432],[-46.67908018785582,-23.695076357807796],[-46.6789879480481,-23.69501119716616],[-46.67889570824039,-23.694946036524524],[-46.67884958833653,-23.694946036524524],[-46.67880346843267,-23.694880875882887],[-46.67880346843267,-23.694750554599615],[-46.67875734852881,-23.694750554599615],[-46.67861898881724,-23.694620233316343],[-46.67852674900953,-23.694555072674707],[-46.67852674900953,-23.694489912033074],[-46.67843450920181,-23.694424751391438],[-46.67820390968252,-23.694164108824893],[-46.67811166987481,-23.694098948183257],[-46.67801943006709,-23.693968626899984],[-46.67797331016323,-23.693968626899984],[-46.67774271064395,-23.693707984333443],[-46.677696590740084,-23.693707984333443],[-46.677696590740084,-23.693642823691807],[-46.67765047083623,-23.69357766305017],[-46.67760435093237,-23.69357766305017],[-46.67760435093237,-23.693512502408534],[-46.67755823102851,-23.693512502408534],[-46.67755823102851,-23.6934473417669],[-46.67755823102851,-23.693382181125262],[-46.677512111124656,-23.693317020483626],[-46.677512111124656,-23.69325185984199],[-46.6774659912208,-23.69325185984199],[-46.677373751413086,-23.693186699200353],[-46.67732763150922,-23.693186699200353],[-46.67723539170151,-23.69312153855872],[-46.67718927179765,-23.69312153855872],[-46.67709703198994,-23.693056377917085],[-46.677004792182224,-23.69299121727545],[-46.67695867227836,-23.69299121727545],[-46.676866432470646,-23.69299121727545],[-46.676728072759076,-23.692926056633812],[-46.67663583295136,-23.692926056633812],[-46.6765897130475,-23.692926056633812],[-46.67654359314364,-23.692860895992176],[-46.676497473239785,-23.692860895992176],[-46.67645135333593,-23.692926056633812],[-46.676359113528214,-23.692926056633812],[-46.67617463391278,-23.69299121727545],[-46.67612851400892,-23.69299121727545],[-46.676082394105066,-23.693056377917085],[-46.67603627420121,-23.693056377917085],[-46.67599015429735,-23.693056377917085],[-46.67599015429735,-23.69312153855872],[-46.675944034393495,-23.69312153855872],[-46.67589791448963,-23.69312153855872],[-46.675851794585775,-23.69312153855872],[-46.67580567468192,-23.693056377917085],[-46.675713434874204,-23.693056377917085],[-46.675575075162634,-23.69299121727545],[-46.67548283535491,-23.692926056633812],[-46.675436715451056,-23.692926056633812],[-46.6753905955472,-23.692860895992176],[-46.67534447564334,-23.692860895992176],[-46.67525223583563,-23.69279573535054],[-46.67520611593177,-23.692730574708904],[-46.67515999602791,-23.692665414067267],[-46.675067756220194,-23.69260025342563],[-46.67502163631634,-23.69260025342563],[-46.67497551641248,-23.692535092783995],[-46.67488327660477,-23.692535092783995],[-46.67483715670091,-23.692535092783995],[-46.674791036797046,-23.692469932142362],[-46.67474491689319,-23.692469932142362],[-46.67469879698933,-23.692404771500726],[-46.674652677085476,-23.69233961085909],[-46.674652677085476,-23.692274450217454],[-46.67460655718162,-23.692209289575818],[-46.67456043727776,-23.692209289575818],[-46.674514317373905,-23.69214412893418],[-46.67446819747005,-23.69214412893418],[-46.67437595766233,-23.692078968292545],[-46.674283717854614,-23.69201380765091],[-46.67423759795076,-23.69201380765091],[-46.6741914780469,-23.69201380765091],[-46.67414535814304,-23.69201380765091],[-46.67409923823919,-23.69201380765091],[-46.67409923823919,-23.691948647009273],[-46.67405311833532,-23.691948647009273],[-46.674006998431466,-23.691883486367637],[-46.674006998431466,-23.691818325726004],[-46.674006998431466,-23.691753165084368],[-46.67396087852761,-23.69168800444273],[-46.67396087852761,-23.691622843801095],[-46.674006998431466,-23.691622843801095],[-46.67396087852761,-23.69155768315946],[-46.67396087852761,-23.691492522517823],[-46.67391475862375,-23.691492522517823],[-46.67391475862375,-23.691427361876187],[-46.673868638719895,-23.691427361876187],[-46.67382251881604,-23.69136220123455],[-46.673730279008325,-23.69136220123455],[-46.67368415910446,-23.691297040592914],[-46.67359191929675,-23.691297040592914],[-46.673499679489034,-23.691231879951278],[-46.67345355958518,-23.691231879951278],[-46.67340743968132,-23.691231879951278],[-46.67336131977746,-23.691166719309642],[-46.67326907996974,-23.691166719309642],[-46.673222960065885,-23.69110155866801],[-46.67317684016203,-23.69110155866801],[-46.67317684016203,-23.691036398026373],[-46.67313072025817,-23.691036398026373],[-46.673084600354315,-23.690971237384737],[-46.6729923605466,-23.690971237384737],[-46.67290012073888,-23.6909060767431],[-46.67280788093117,-23.6909060767431],[-46.67276176102731,-23.6909060767431],[-46.672669521219596,-23.6909060767431],[-46.67262340131574,-23.6909060767431],[-46.67253116150802,-23.690840916101465],[-46.67248504160416,-23.690840916101465],[-46.672438921700305,-23.690840916101465],[-46.67234668189259,-23.69077575545983],[-46.672300561988735,-23.69077575545983],[-46.67225444208488,-23.690710594818192],[-46.672208322181014,-23.690710594818192],[-46.67216220227716,-23.690645434176556],[-46.67206996246944,-23.69058027353492],[-46.67202384256559,-23.690515112893284],[-46.67197772266173,-23.690515112893284],[-46.671885482854016,-23.69044995225165],[-46.67183936295015,-23.690384791610015],[-46.671793243046295,-23.69031963096838],[-46.67174712314244,-23.69031963096838],[-46.67170100323858,-23.690254470326742],[-46.671654883334725,-23.690189309685106],[-46.67160876343087,-23.69012414904347],[-46.67156264352701,-23.69012414904347],[-46.671516523623154,-23.690058988401834],[-46.671516523623154,-23.689993827760198],[-46.67147040371929,-23.68992866711856],[-46.67142428381543,-23.68992866711856],[-46.67137816391158,-23.689863506476925],[-46.67133204400772,-23.689798345835293],[-46.67128592410386,-23.689733185193656],[-46.67119368429615,-23.68966802455202],[-46.67114756439229,-23.689602863910384],[-46.67114756439229,-23.689537703268748],[-46.67110144448843,-23.68947254262711],[-46.67105532458457,-23.689407381985475],[-46.67096308477686,-23.689277060702203],[-46.670916964873,-23.689211900060567],[-46.670870844969144,-23.68914673941893],[-46.67082472506529,-23.689081578777298],[-46.67077860516143,-23.68901641813566],[-46.67073248525757,-23.688951257494026],[-46.67068636535371,-23.68888609685239],[-46.67068636535371,-23.688820936210753],[-46.67064024544985,-23.688820936210753],[-46.67064024544985,-23.688755775569117],[-46.670594125545996,-23.68869061492748],[-46.67054800564214,-23.688625454285845],[-46.67050188573828,-23.688625454285845],[-46.67050188573828,-23.68856029364421],[-46.670455765834426,-23.68856029364421],[-46.670455765834426,-23.688495133002572],[-46.67040964593056,-23.688495133002572],[-46.67040964593056,-23.68842997236094],[-46.670363526026705,-23.688364811719303],[-46.670363526026705,-23.688299651077667],[-46.67031740612285,-23.68823449043603],[-46.67027128621899,-23.688169329794395],[-46.670225166315134,-23.688169329794395],[-46.670225166315134,-23.68810416915276],[-46.67017904641128,-23.687973847869486],[-46.67013292650742,-23.68790868722785],[-46.670086806603564,-23.687843526586214],[-46.670086806603564,-23.68777836594458],[-46.6700406866997,-23.687713205302945],[-46.6700406866997,-23.68764804466131],[-46.66999456679584,-23.687517723378036],[-46.669948446891986,-23.687517723378036],[-46.669948446891986,-23.6874525627364],[-46.66999456679584,-23.6874525627364],[-46.670225166315134,-23.6874525627364],[-46.67031740612285,-23.6874525627364],[-46.67040964593056,-23.6874525627364],[-46.67054800564214,-23.687387402094764],[-46.67068636535371,-23.687387402094764],[-46.67064024544985,-23.687322241453128],[-46.67064024544985,-23.68725708081149],[-46.67064024544985,-23.687191920169855],[-46.670594125545996,-23.686931277603314],[-46.670594125545996,-23.686735795678405],[-46.670594125545996,-23.686344831828592],[-46.670594125545996,-23.68601902862041],[-46.670594125545996,-23.685823546695502],[-46.670594125545996,-23.68575838605387],[-46.67054800564214,-23.68556290412896],[-46.67040964593056,-23.68523710092078],[-46.67027128621899,-23.684911297712603],[-46.670225166315134,-23.684846137070966],[-46.67017904641128,-23.684715815787694],[-46.67013292650742,-23.68458549450442],[-46.67013292650742,-23.684520333862785],[-46.670086806603564,-23.68445517322115],[-46.67013292650742,-23.684390012579517],[-46.67013292650742,-23.68432485193788],[-46.67013292650742,-23.684259691296244],[-46.67013292650742,-23.684194530654608],[-46.67013292650742,-23.684064209371336],[-46.67017904641128,-23.684064209371336],[-46.67017904641128,-23.683933888088063],[-46.670225166315134,-23.68380356680479],[-46.670225166315134,-23.683738406163158],[-46.67027128621899,-23.683608084879886],[-46.67031740612285,-23.683477763596613],[-46.67031740612285,-23.68334744231334],[-46.670363526026705,-23.68321712103007],[-46.670363526026705,-23.683151960388432],[-46.670363526026705,-23.683086799746796],[-46.670363526026705,-23.68289131782189],[-46.670363526026705,-23.682826157180255],[-46.670363526026705,-23.68276099653862],[-46.67031740612285,-23.68276099653862],[-46.67031740612285,-23.682695835896983],[-46.67027128621899,-23.68256551461371],[-46.670225166315134,-23.682435193330438],[-46.67013292650742,-23.68230487204717],[-46.67013292650742,-23.682239711405533],[-46.670086806603564,-23.682174550763897],[-46.670086806603564,-23.68210939012226],[-46.6700406866997,-23.681979068838988],[-46.66999456679584,-23.68191390819735],[-46.66999456679584,-23.681718426272447],[-46.669948446891986,-23.681588104989174],[-46.669948446891986,-23.681522944347538],[-46.66990232698813,-23.681392623064266],[-46.66990232698813,-23.68132746242263],[-46.66990232698813,-23.681262301780993],[-46.66990232698813,-23.68113198049772],[-46.66990232698813,-23.681066819856085],[-46.66990232698813,-23.680936498572816],[-46.66990232698813,-23.680806177289544],[-46.66990232698813,-23.680741016647907],[-46.669948446891986,-23.68067585600627],[-46.6700406866997,-23.68067585600627],[-46.67031740612285,-23.680545534723],[-46.67054800564214,-23.680480374081363],[-46.67050188573828,-23.680350052798094],[-46.67054800564214,-23.680350052798094],[-46.670594125545996,-23.680350052798094],[-46.67064024544985,-23.680350052798094],[-46.67068636535371,-23.680350052798094],[-46.67068636535371,-23.680284892156457],[-46.67073248525757,-23.68021973151482],[-46.67073248525757,-23.680154570873185],[-46.67077860516143,-23.68008941023155],[-46.67077860516143,-23.680024249589913],[-46.67077860516143,-23.67989392830664],[-46.67077860516143,-23.679828767665004],[-46.67082472506529,-23.679568125098463],[-46.67082472506529,-23.67943780381519],[-46.67082472506529,-23.679372643173554],[-46.67082472506529,-23.679242321890282],[-46.67082472506529,-23.679177161248646],[-46.67082472506529,-23.679046839965373],[-46.67077860516143,-23.67865587611556],[-46.67077860516143,-23.678590715473923],[-46.67073248525757,-23.678330072907382],[-46.67073248525757,-23.678134590982474],[-46.67073248525757,-23.67787394841593],[-46.67073248525757,-23.677613305849388],[-46.67073248525757,-23.67754814520775],[-46.67073248525757,-23.677482984566115],[-46.67068636535371,-23.677287502641207],[-46.670594125545996,-23.676896538791393],[-46.67054800564214,-23.676831378149757],[-46.67054800564214,-23.676701056866484],[-46.67050188573828,-23.676570735583212],[-46.670455765834426,-23.67644041429994],[-46.670455765834426,-23.676375253658303],[-46.670455765834426,-23.676244932375035],[-46.67040964593056,-23.676049450450126],[-46.670363526026705,-23.67598428980849],[-46.67027128621899,-23.675658486600312],[-46.67013292650742,-23.675137201467223],[-46.670086806603564,-23.67487655890068],[-46.6700406866997,-23.674615916334137],[-46.66999456679584,-23.674420434409228],[-46.66990232698813,-23.67409463120105],[-46.669810087180416,-23.673899149276142],[-46.669810087180416,-23.67376882799287],[-46.66985620708427,-23.673703667351234],[-46.66985620708427,-23.6736385067096],[-46.66985620708427,-23.673573346067965],[-46.66990232698813,-23.67350818542633],[-46.66999456679584,-23.673443024784692],[-46.6700406866997,-23.67331270350142],[-46.67017904641128,-23.673182382218148],[-46.67027128621899,-23.673052060934875],[-46.67031740612285,-23.672921739651606],[-46.670363526026705,-23.67285657900997],[-46.67040964593056,-23.67285657900997],[-46.670455765834426,-23.672791418368334],[-46.67050188573828,-23.672726257726698],[-46.67050188573828,-23.67266109708506],[-46.67054800564214,-23.67266109708506],[-46.67054800564214,-23.672595936443425],[-46.67054800564214,-23.67253077580179],[-46.67054800564214,-23.672465615160153],[-46.67050188573828,-23.672400454518517],[-46.670455765834426,-23.672400454518517],[-46.670455765834426,-23.67233529387688],[-46.67040964593056,-23.672270133235248],[-46.670363526026705,-23.672270133235248],[-46.67031740612285,-23.672270133235248],[-46.67027128621899,-23.67220497259361],[-46.670086806603564,-23.67220497259361],[-46.669810087180416,-23.672139811951975],[-46.66967172746884,-23.672139811951975],[-46.669441127949554,-23.67207465131034],[-46.669302768237976,-23.67207465131034],[-46.66911828862255,-23.672009490668703],[-46.66907216871869,-23.672009490668703],[-46.66897992891098,-23.672009490668703],[-46.668933809007115,-23.672009490668703],[-46.66888768910326,-23.671944330027067],[-46.6688415691994,-23.671944330027067],[-46.668795449295544,-23.67187916938543],[-46.66870320948783,-23.67187916938543],[-46.668657089583974,-23.671814008743794],[-46.66856484977625,-23.67174884810216],[-46.668518729872396,-23.671683687460522],[-46.668380370160826,-23.671553366177253],[-46.66842649006468,-23.671488205535617],[-46.668657089583974,-23.671357884252345],[-46.6688415691994,-23.671227562969072],[-46.669026048814835,-23.6710972416858],[-46.66925664833412,-23.67096692040253],[-46.669302768237976,-23.670901759760895],[-46.66934888814184,-23.67083659911926],[-46.669441127949554,-23.670771438477622],[-46.66953336775727,-23.670706277835986],[-46.66962560756498,-23.67064111719435],[-46.6697178473727,-23.670575956552714],[-46.66976396727656,-23.670510795911078],[-46.669810087180416,-23.67044563526944],[-46.66990232698813,-23.670380474627805],[-46.669948446891986,-23.67031531398617],[-46.66999456679584,-23.67031531398617],[-46.670086806603564,-23.670250153344536],[-46.67013292650742,-23.670119832061264],[-46.670225166315134,-23.670054671419628],[-46.67027128621899,-23.66998951077799],[-46.67031740612285,-23.66985918949472],[-46.670363526026705,-23.669794028853083],[-46.670455765834426,-23.669728868211447],[-46.67050188573828,-23.669728868211447],[-46.67050188573828,-23.66966370756981],[-46.67054800564214,-23.66966370756981],[-46.670594125545996,-23.66966370756981],[-46.67064024544985,-23.66966370756981],[-46.67096308477686,-23.669533386286542],[-46.671239804200006,-23.669468225644906],[-46.671516523623154,-23.66940306500327],[-46.671654883334725,-23.66940306500327],[-46.67183936295015,-23.669337904361633],[-46.67197772266173,-23.669337904361633],[-46.67202384256559,-23.669272743719997],[-46.6721160823733,-23.669272743719997],[-46.672208322181014,-23.66920758307836],[-46.67234668189259,-23.669142422436725],[-46.67248504160416,-23.66907726179509],[-46.67253116150802,-23.669012101153452],[-46.67280788093117,-23.668881779870183],[-46.6729923605466,-23.668816619228547],[-46.673222960065885,-23.668686297945275],[-46.6733151998736,-23.66862113730364],[-46.67336131977746,-23.66862113730364],[-46.67345355958518,-23.668555976662002],[-46.673499679489034,-23.668555976662002],[-46.67354579939289,-23.668490816020366],[-46.67359191929675,-23.66842565537873],[-46.673638039200604,-23.668360494737094],[-46.67368415910446,-23.66829533409546],[-46.67368415910446,-23.668230173453825],[-46.67368415910446,-23.66816501281219],[-46.67368415910446,-23.668034691528916],[-46.673730279008325,-23.66796953088728],[-46.673730279008325,-23.667904370245644],[-46.67377639891218,-23.667839209604008],[-46.67377639891218,-23.66777404896237],[-46.67382251881604,-23.66777404896237],[-46.67382251881604,-23.667708888320735],[-46.673868638719895,-23.667708888320735],[-46.67396087852761,-23.6676437276791],[-46.67405311833532,-23.667578567037467],[-46.6741914780469,-23.66751340639583],[-46.67423759795076,-23.667448245754194],[-46.674283717854614,-23.667448245754194],[-46.67432983775847,-23.667448245754194],[-46.67437595766233,-23.667383085112558],[-46.674422077566184,-23.667383085112558],[-46.67446819747005,-23.667383085112558],[-46.67446819747005,-23.66731792447092],[-46.674514317373905,-23.66731792447092],[-46.67460655718162,-23.66731792447092],[-46.674652677085476,-23.66731792447092],[-46.67469879698933,-23.66731792447092],[-46.67483715670091,-23.667252763829286],[-46.67488327660477,-23.667252763829286],[-46.674929396508624,-23.667252763829286],[-46.67497551641248,-23.667252763829286],[-46.67502163631634,-23.667252763829286],[-46.67515999602791,-23.66718760318765],[-46.67525223583563,-23.667122442546013],[-46.675436715451056,-23.66699212126274],[-46.67562119506649,-23.666861799979472],[-46.67580567468192,-23.666796639337836],[-46.675944034393495,-23.666666318054563],[-46.67603627420121,-23.666666318054563],[-46.67612851400892,-23.666601157412927],[-46.67617463391278,-23.66653599677129],[-46.67631299362436,-23.666470836129655],[-46.67640523343207,-23.66640567548802],[-46.67654359314364,-23.666340514846382],[-46.67663583295136,-23.66627535420475],[-46.676728072759076,-23.66627535420475],[-46.676866432470646,-23.666145032921477],[-46.677004792182224,-23.66607987227984],[-46.677143151893794,-23.666014711638205],[-46.677281511605365,-23.66594955099657],[-46.67755823102851,-23.665819229713296],[-46.67765047083623,-23.66575406907166],[-46.67774271064395,-23.665688908430024],[-46.67788107035552,-23.665623747788388],[-46.67801943006709,-23.665558587146755],[-46.67838838929795,-23.665363105221846],[-46.67843450920181,-23.665167623296938],[-46.67848062910567,-23.665167623296938],[-46.67848062910567,-23.6651024626553],[-46.67852674900953,-23.665037302013666],[-46.678572868913385,-23.66484182008876],[-46.67861898881724,-23.664711498805488],[-46.6786651087211,-23.664450856238943],[-46.67875734852881,-23.66425537431404],[-46.67880346843267,-23.66405989238913],[-46.67889570824039,-23.66373408918095],[-46.67908018785582,-23.663147643406226],[-46.679218547567395,-23.662691518914777],[-46.679356907278965,-23.66230055506496],[-46.67944914708668,-23.662039912498418],[-46.679495266990536,-23.66184443057351],[-46.67954138689439,-23.6616489486486],[-46.679587506798256,-23.661453466723696],[-46.67963362670211,-23.66106250287388],[-46.67967974660597,-23.660932181590606],[-46.67967974660597,-23.660671539024065],[-46.67972586650983,-23.660345735815884],[-46.67972586650983,-23.660085093249343],[-46.679771986413684,-23.65949864747462],[-46.679771986413684,-23.659107683624804],[-46.67981810631754,-23.658781880416626],[-46.67981810631754,-23.65871671977499],[-46.6798642262214,-23.658195434641904],[-46.6798642262214,-23.65793479207536],[-46.6798642262214,-23.657804470792087],[-46.6798642262214,-23.657674149508814],[-46.679910346125254,-23.657348346300637],[-46.679910346125254,-23.65715286437573],[-46.679910346125254,-23.657087703734092],[-46.679910346125254,-23.65695738245082],[-46.67995646602912,-23.656761900525915],[-46.67995646602912,-23.65669673988428],[-46.67995646602912,-23.65650125795937],[-46.67995646602912,-23.656436097317734],[-46.67995646602912,-23.656370936676097],[-46.67995646602912,-23.656175454751192],[-46.680002585932975,-23.655979972826284],[-46.680002585932975,-23.655784490901375],[-46.680002585932975,-23.65552384833483],[-46.68004870583683,-23.65526320576829],[-46.68004870583683,-23.655002563201744],[-46.68004870583683,-23.654872241918472],[-46.68004870583683,-23.65480708127684],[-46.68009482574069,-23.654546438710295],[-46.68009482574069,-23.65448127806866],[-46.68009482574069,-23.654350956785386],[-46.68009482574069,-23.65415547486048],[-46.680140945644546,-23.654090314218845],[-46.680140945644546,-23.65402515357721],[-46.680140945644546,-23.6538296716523],[-46.680140945644546,-23.653699350369028],[-46.680140945644546,-23.65363418972739],[-46.680140945644546,-23.65350386844412],[-46.680140945644546,-23.653438707802486],[-46.680140945644546,-23.65337354716085],[-46.680140945644546,-23.653308386519214],[-46.680140945644546,-23.653243225877578],[-46.68009482574069,-23.65317806523594],[-46.68009482574069,-23.653112904594305],[-46.68004870583683,-23.65304774395267],[-46.67944914708668,-23.652526458819583],[-46.67801943006709,-23.650767121495416],[-46.67732763150922,-23.64992003315415],[-46.67640523343207,-23.648877462887974],[-46.67622075381664,-23.648747141604705],[-46.67612851400892,-23.648616820321433],[-46.676082394105066,-23.648551659679796],[-46.672669521219596,-23.644185896690193],[-46.67239280179645,-23.644446539256737],[-46.672208322181014,-23.644707181823282],[-46.67206996246944,-23.64483750310655],[-46.67202384256559,-23.64483750310655]]]}}]}