{"type":"FeatureCollection","features":[{"type":"Feature","properties":{"DATA_ULT_A":"2009/10/09","DATA_CRIAC":"2009/10/09","id":31,"name":"Cidade Tiradentes","area":15,"pop_2010":211501,"pop_density_2010":14100,"budget_2015":28070317},"geometry":{"type":"Polygon","coordinates":[[[-46.4182260116365,-23.592774150439507],[-46.41817989173264,-23.59270898979787],[-46.418133771828785,-23.592643829156234],[-46.41808765192493,-23.592578668514598],[-46.418041532021064,-23.59251350787296],[-46.41799541211721,-23.592448347231326],[-46.417903172309494,-23.59238318658969],[-46.41785705240564,-23.592318025948053],[-46.41781093250178,-23.59225286530642],[-46.41776481259792,-23.592187704664784],[-46.417718692694066,-23.592122544023148],[-46.4176725727902,-23.592057383381512],[-46.417626452886346,-23.591992222739876],[-46.417626452886346,-23.59192706209824],[-46.41753421307863,-23.591861901456603],[-46.417488093174775,-23.591796740814967],[-46.41744197327092,-23.59173158017333],[-46.41739585336706,-23.591666419531695],[-46.417349733463205,-23.591601258890062],[-46.417349733463205,-23.591536098248426],[-46.41730361355934,-23.591536098248426],[-46.417257493655484,-23.59147093760679],[-46.417257493655484,-23.591405776965154],[-46.41721137375163,-23.591340616323517],[-46.41721137375163,-23.591210295040245],[-46.41716525384777,-23.591210295040245],[-46.41716525384777,-23.59114513439861],[-46.41711913394391,-23.591079973756973],[-46.41711913394391,-23.591014813115336],[-46.41707301404006,-23.590949652473704],[-46.4170268941362,-23.59081933119043],[-46.41698077423234,-23.59068900990716],[-46.41693465432848,-23.590558688623886],[-46.41688853442462,-23.590428367340614],[-46.416842414520765,-23.59029804605734],[-46.416842414520765,-23.59023288541571],[-46.416842414520765,-23.590167724774073],[-46.41679629461691,-23.590167724774073],[-46.41679629461691,-23.590102564132437],[-46.41675017471305,-23.5900374034908],[-46.416704054809195,-23.5900374034908],[-46.41665793490534,-23.589972242849164],[-46.416611815001474,-23.589907082207528],[-46.416611815001474,-23.589841921565892],[-46.41656569509762,-23.589841921565892],[-46.41651957519376,-23.589776760924256],[-46.4164734552899,-23.589776760924256],[-46.41642733538605,-23.58971160028262],[-46.41633509557833,-23.589646439640983],[-46.416288975674476,-23.58958127899935],[-46.416196735866755,-23.589516118357714],[-46.41610449605904,-23.589516118357714],[-46.41610449605904,-23.58945095771608],[-46.416058376155185,-23.58945095771608],[-46.41596613634747,-23.589385797074442],[-46.415920016443614,-23.589320636432806],[-46.41587389653975,-23.58925547579117],[-46.41582777663589,-23.58925547579117],[-46.41578165673204,-23.589190315149533],[-46.41573553682818,-23.589190315149533],[-46.41568941692432,-23.589125154507897],[-46.415643297020466,-23.58905999386626],[-46.41559717711661,-23.588994833224625],[-46.41555105721275,-23.588994833224625],[-46.41550493730889,-23.588864511941356],[-46.41545881740503,-23.58879935129972],[-46.415412697501175,-23.588734190658084],[-46.41536657759732,-23.588669030016447],[-46.41536657759732,-23.58860386937481],[-46.41532045769346,-23.588538708733175],[-46.41532045769346,-23.58847354809154],[-46.41532045769346,-23.588343226808266],[-46.415274337789604,-23.58814774488336],[-46.41522821788575,-23.58801742360009],[-46.41522821788575,-23.587887102316817],[-46.41518209798189,-23.58782194167518],[-46.41518209798189,-23.587756781033544],[-46.41518209798189,-23.587626459750272],[-46.41513597807803,-23.58756129910864],[-46.41513597807803,-23.587496138467003],[-46.41513597807803,-23.58736581718373],[-46.41508985817417,-23.58736581718373],[-46.41508985817417,-23.587300656542094],[-46.41508985817417,-23.587235495900458],[-46.41504373827031,-23.58704001397555],[-46.41504373827031,-23.586974853333913],[-46.41504373827031,-23.58690969269228],[-46.414997618366456,-23.58677937140901],[-46.414997618366456,-23.586649050125736],[-46.414997618366456,-23.5865838894841],[-46.414997618366456,-23.586453568200827],[-46.414997618366456,-23.58638840755919],[-46.414997618366456,-23.586323246917555],[-46.414997618366456,-23.58625808627592],[-46.414997618366456,-23.586192925634286],[-46.414997618366456,-23.586062604351014],[-46.414997618366456,-23.585997443709378],[-46.414997618366456,-23.58580196178447],[-46.41504373827031,-23.58560647985956],[-46.41504373827031,-23.58547615857629],[-46.41504373827031,-23.585410997934655],[-46.41504373827031,-23.585280676651383],[-46.41504373827031,-23.585215516009747],[-46.41508985817417,-23.58515035536811],[-46.41508985817417,-23.585020034084838],[-46.41508985817417,-23.584954873443202],[-46.41508985817417,-23.584824552159933],[-46.41508985817417,-23.58469423087666],[-46.41513597807803,-23.584629070235025],[-46.41513597807803,-23.584498748951752],[-46.41513597807803,-23.584433588310116],[-46.41513597807803,-23.584303267026844],[-46.41518209798189,-23.583977463818666],[-46.41518209798189,-23.58391230317703],[-46.41518209798189,-23.583847142535394],[-46.41518209798189,-23.583781981893758],[-46.41518209798189,-23.583651660610485],[-46.41522821788575,-23.58358649996885],[-46.41522821788575,-23.58345617868558],[-46.41522821788575,-23.583391018043944],[-46.41522821788575,-23.58326069676067],[-46.41522821788575,-23.583195536119035],[-46.41532045769346,-23.58280457226922],[-46.41532045769346,-23.582739411627585],[-46.41536657759732,-23.582739411627585],[-46.415412697501175,-23.58267425098595],[-46.415412697501175,-23.582609090344313],[-46.415412697501175,-23.582543929702677],[-46.415412697501175,-23.58247876906104],[-46.415412697501175,-23.582413608419404],[-46.415412697501175,-23.58234844777777],[-46.415412697501175,-23.582283287136132],[-46.41545881740503,-23.582152965852863],[-46.41545881740503,-23.582087805211227],[-46.41545881740503,-23.58202264456959],[-46.41550493730889,-23.58202264456959],[-46.41555105721275,-23.58202264456959],[-46.415643297020466,-23.582087805211227],[-46.41568941692432,-23.582152965852863],[-46.41578165673204,-23.58202264456959],[-46.41587389653975,-23.581957483927955],[-46.415920016443614,-23.58189232328632],[-46.415920016443614,-23.581827162644682],[-46.41596613634747,-23.581762002003046],[-46.41601225625133,-23.58169684136141],[-46.41601225625133,-23.581631680719774],[-46.41596613634747,-23.581631680719774],[-46.41596613634747,-23.581566520078137],[-46.41596613634747,-23.581501359436505],[-46.41596613634747,-23.58143619879487],[-46.41596613634747,-23.581371038153232],[-46.41596613634747,-23.581305877511596],[-46.41596613634747,-23.58124071686996],[-46.41596613634747,-23.581175556228324],[-46.41596613634747,-23.581110395586688],[-46.41601225625133,-23.58104523494505],[-46.41601225625133,-23.580980074303415],[-46.41601225625133,-23.58091491366178],[-46.41601225625133,-23.580849753020146],[-46.41601225625133,-23.58078459237851],[-46.41601225625133,-23.580719431736874],[-46.41601225625133,-23.580654271095238],[-46.41601225625133,-23.5805891104536],[-46.41601225625133,-23.580523949811965],[-46.41601225625133,-23.58045878917033],[-46.41596613634747,-23.580393628528693],[-46.415920016443614,-23.580328467887057],[-46.41596613634747,-23.58026330724542],[-46.41596613634747,-23.580198146603788],[-46.41596613634747,-23.580132985962152],[-46.41596613634747,-23.580067825320516],[-46.415920016443614,-23.580067825320516],[-46.41587389653975,-23.580067825320516],[-46.41582777663589,-23.58000266467888],[-46.41587389653975,-23.579937504037243],[-46.41587389653975,-23.579872343395607],[-46.41587389653975,-23.57980718275397],[-46.41582777663589,-23.579742022112335],[-46.41587389653975,-23.579742022112335],[-46.41587389653975,-23.5796768614707],[-46.41587389653975,-23.579611700829062],[-46.415920016443614,-23.579546540187426],[-46.415920016443614,-23.579481379545793],[-46.41596613634747,-23.57935105826252],[-46.41596613634747,-23.579285897620885],[-46.41596613634747,-23.57922073697925],[-46.41601225625133,-23.579155576337612],[-46.416058376155185,-23.579090415695976],[-46.416058376155185,-23.57902525505434],[-46.41610449605904,-23.57902525505434],[-46.41610449605904,-23.578960094412704],[-46.416058376155185,-23.578894933771068],[-46.41610449605904,-23.578829773129435],[-46.4161506159629,-23.5787646124878],[-46.4161506159629,-23.578699451846163],[-46.4161506159629,-23.578634291204526],[-46.416196735866755,-23.578634291204526],[-46.416196735866755,-23.57856913056289],[-46.416196735866755,-23.578503969921254],[-46.41624285577061,-23.578503969921254],[-46.41624285577061,-23.578438809279618],[-46.416288975674476,-23.57837364863798],[-46.41633509557833,-23.578308487996345],[-46.41638121548219,-23.578308487996345],[-46.41638121548219,-23.57824332735471],[-46.41638121548219,-23.578178166713077],[-46.41642733538605,-23.578178166713077],[-46.41642733538605,-23.57811300607144],[-46.41642733538605,-23.578047845429804],[-46.41642733538605,-23.577982684788168],[-46.41638121548219,-23.577982684788168],[-46.41642733538605,-23.57791752414653],[-46.4164734552899,-23.57791752414653],[-46.41651957519376,-23.57791752414653],[-46.41656569509762,-23.577982684788168],[-46.416611815001474,-23.577982684788168],[-46.41665793490534,-23.578047845429804],[-46.416704054809195,-23.578047845429804],[-46.41675017471305,-23.578047845429804],[-46.41679629461691,-23.578047845429804],[-46.41679629461691,-23.577982684788168],[-46.416842414520765,-23.577982684788168],[-46.41688853442462,-23.577982684788168],[-46.41688853442462,-23.57791752414653],[-46.41693465432848,-23.577852363504896],[-46.41693465432848,-23.57778720286326],[-46.41688853442462,-23.57778720286326],[-46.41688853442462,-23.577722042221623],[-46.41693465432848,-23.577722042221623],[-46.41698077423234,-23.577722042221623],[-46.41698077423234,-23.577656881579987],[-46.4170268941362,-23.577656881579987],[-46.41707301404006,-23.577656881579987],[-46.41707301404006,-23.57759172093835],[-46.41711913394391,-23.57759172093835],[-46.41716525384777,-23.577526560296718],[-46.41721137375163,-23.577461399655082],[-46.417257493655484,-23.577461399655082],[-46.417257493655484,-23.577396239013446],[-46.41730361355934,-23.577396239013446],[-46.417349733463205,-23.57733107837181],[-46.41739585336706,-23.57733107837181],[-46.41744197327092,-23.57733107837181],[-46.417488093174775,-23.57733107837181],[-46.41753421307863,-23.577265917730173],[-46.41758033298249,-23.577265917730173],[-46.41758033298249,-23.577200757088537],[-46.417626452886346,-23.577200757088537],[-46.4176725727902,-23.5771355964469],[-46.417718692694066,-23.5771355964469],[-46.417718692694066,-23.577070435805265],[-46.41776481259792,-23.57700527516363],[-46.41781093250178,-23.576940114521992],[-46.41781093250178,-23.576874953880356],[-46.41785705240564,-23.576809793238724],[-46.41785705240564,-23.576744632597087],[-46.417903172309494,-23.576744632597087],[-46.417903172309494,-23.57667947195545],[-46.417903172309494,-23.576614311313815],[-46.41794929221335,-23.57654915067218],[-46.41794929221335,-23.576483990030543],[-46.41799541211721,-23.576483990030543],[-46.418041532021064,-23.576483990030543],[-46.418041532021064,-23.576418829388906],[-46.41808765192493,-23.576418829388906],[-46.41808765192493,-23.57635366874727],[-46.418133771828785,-23.57635366874727],[-46.418133771828785,-23.576288508105634],[-46.41808765192493,-23.576288508105634],[-46.41808765192493,-23.576223347463998],[-46.418041532021064,-23.576223347463998],[-46.41799541211721,-23.576223347463998],[-46.41799541211721,-23.576158186822365],[-46.41794929221335,-23.576158186822365],[-46.417903172309494,-23.576158186822365],[-46.41785705240564,-23.57609302618073],[-46.41785705240564,-23.576027865539093],[-46.41785705240564,-23.575962704897456],[-46.41785705240564,-23.57589754425582],[-46.41785705240564,-23.575832383614184],[-46.41785705240564,-23.575767222972548],[-46.417903172309494,-23.575832383614184],[-46.41794929221335,-23.575832383614184],[-46.41799541211721,-23.57589754425582],[-46.418041532021064,-23.57589754425582],[-46.418041532021064,-23.575962704897456],[-46.41808765192493,-23.575962704897456],[-46.41808765192493,-23.576027865539093],[-46.418133771828785,-23.57609302618073],[-46.41817989173264,-23.57609302618073],[-46.41817989173264,-23.576158186822365],[-46.4182260116365,-23.576158186822365],[-46.418272131540355,-23.576158186822365],[-46.41831825144421,-23.576158186822365],[-46.41836437134807,-23.576158186822365],[-46.418410491251926,-23.576158186822365],[-46.41845661115579,-23.576223347463998],[-46.41850273105965,-23.576288508105634],[-46.41850273105965,-23.57635366874727],[-46.418548850963504,-23.57635366874727],[-46.418548850963504,-23.576418829388906],[-46.41859497086736,-23.576418829388906],[-46.41864109077122,-23.576418829388906],[-46.41864109077122,-23.57635366874727],[-46.41877945048279,-23.57635366874727],[-46.41882557038665,-23.57635366874727],[-46.41887169029051,-23.576288508105634],[-46.418917810194365,-23.576288508105634],[-46.41901005000208,-23.576223347463998],[-46.419056169905936,-23.576158186822365],[-46.41937900923294,-23.576158186822365],[-46.4194251291368,-23.57609302618073],[-46.419471249040654,-23.576027865539093],[-46.41951736894451,-23.576027865539093],[-46.41951736894451,-23.575962704897456],[-46.41960960875223,-23.575962704897456],[-46.41965572865609,-23.57589754425582],[-46.419701848559946,-23.57589754425582],[-46.4197479684638,-23.575832383614184],[-46.41979408836766,-23.575832383614184],[-46.41979408836766,-23.57589754425582],[-46.419840208271516,-23.57589754425582],[-46.42007080779081,-23.575767222972548],[-46.420116927694664,-23.575767222972548],[-46.42016304759852,-23.575767222972548],[-46.42020916750238,-23.575767222972548],[-46.420255287406235,-23.57570206233091],[-46.4203014073101,-23.57570206233091],[-46.42039364711781,-23.57570206233091],[-46.420485886925526,-23.57570206233091],[-46.42053200682938,-23.57570206233091],[-46.42057812673324,-23.575636901689276],[-46.4206242466371,-23.575636901689276],[-46.42067036654096,-23.575636901689276],[-46.42071648644482,-23.57557174104764],[-46.420762606348674,-23.57557174104764],[-46.420900966060245,-23.575376259122734],[-46.4209470859641,-23.575376259122734],[-46.42099320586796,-23.575311098481098],[-46.42108544567568,-23.575245937839462],[-46.42108544567568,-23.575180777197826],[-46.42117768548339,-23.57511561655619],[-46.42122380538725,-23.574985295272917],[-46.42136216509882,-23.57492013463128],[-46.42145440490654,-23.574854973989645],[-46.42159276461811,-23.574724652706376],[-46.42163888452197,-23.574724652706376],[-46.42173112432968,-23.57465949206474],[-46.421777244233546,-23.574594331423103],[-46.42186948404126,-23.574529170781467],[-46.421915603945116,-23.57446401013983],[-46.42200784375283,-23.574398849498195],[-46.42214620346441,-23.57433368885656],[-46.42223844327212,-23.574268528214922],[-46.422330683079835,-23.574268528214922],[-46.42242292288755,-23.574203367573286],[-46.42246904279141,-23.574203367573286],[-46.422561282599126,-23.574138206931654],[-46.42260740250298,-23.574073046290017],[-46.42265352240684,-23.57400788564838],[-46.422745762214554,-23.57387756436511],[-46.422838002022274,-23.57387756436511],[-46.42288412192613,-23.573812403723473],[-46.42288412192613,-23.5736820824402],[-46.42293024182999,-23.573616921798564],[-46.422976361733845,-23.573551761156928],[-46.4230224816377,-23.573486600515295],[-46.42306860154156,-23.573486600515295],[-46.42306860154156,-23.57342143987366],[-46.423114721445415,-23.573291118590387],[-46.42316084134927,-23.573291118590387],[-46.42316084134927,-23.57322595794875],[-46.42325308115699,-23.573095636665478],[-46.42334532096471,-23.572965315382206],[-46.423529800580134,-23.572639512174028],[-46.42371428019557,-23.572378869607483],[-46.423760400099425,-23.572313708965847],[-46.423760400099425,-23.572118227040942],[-46.42371428019557,-23.57198790575767],[-46.423575920484,-23.57179242383276],[-46.42329920106085,-23.57166210254949],[-46.423206961253136,-23.571596941907853],[-46.42316084134927,-23.571531781266216],[-46.423114721445415,-23.571466620624584],[-46.42306860154156,-23.571401459982948],[-46.4230224816377,-23.57133629934131],[-46.422976361733845,-23.57133629934131],[-46.42293024182999,-23.571271138699675],[-46.42288412192613,-23.57120597805804],[-46.42288412192613,-23.571140817416403],[-46.422838002022274,-23.571075656774767],[-46.42279188211841,-23.570945335491494],[-46.422745762214554,-23.570880174849858],[-46.42265352240684,-23.570815014208222],[-46.42265352240684,-23.57074985356659],[-46.42260740250298,-23.570619532283317],[-46.422561282599126,-23.57055437164168],[-46.422561282599126,-23.570489211000044],[-46.422561282599126,-23.570424050358408],[-46.42251516269527,-23.570358889716772],[-46.42246904279141,-23.570293729075136],[-46.42242292288755,-23.570163407791863],[-46.42237680298369,-23.570033086508595],[-46.422330683079835,-23.570033086508595],[-46.42237680298369,-23.56996792586696],[-46.42242292288755,-23.56996792586696],[-46.42237680298369,-23.56996792586696],[-46.42237680298369,-23.569902765225322],[-46.422330683079835,-23.569902765225322],[-46.422330683079835,-23.569837604583686],[-46.422330683079835,-23.56977244394205],[-46.42228456317598,-23.56977244394205],[-46.42228456317598,-23.569707283300414],[-46.42223844327212,-23.569642122658777],[-46.42223844327212,-23.56957696201714],[-46.422192323368265,-23.569511801375505],[-46.422192323368265,-23.569446640733872],[-46.42214620346441,-23.569381480092236],[-46.42210008356055,-23.569251158808964],[-46.42210008356055,-23.569185998167328],[-46.42210008356055,-23.56912083752569],[-46.42205396365669,-23.56912083752569],[-46.42205396365669,-23.569055676884055],[-46.42205396365669,-23.56899051624242],[-46.42205396365669,-23.568925355600783],[-46.42200784375283,-23.568860194959147],[-46.42200784375283,-23.56879503431751],[-46.42196172384897,-23.56879503431751],[-46.42196172384897,-23.568729873675878],[-46.421915603945116,-23.568729873675878],[-46.421915603945116,-23.56866471303424],[-46.42186948404126,-23.56866471303424],[-46.42186948404126,-23.568599552392605],[-46.421915603945116,-23.568599552392605],[-46.421915603945116,-23.56853439175097],[-46.421915603945116,-23.568469231109333],[-46.421915603945116,-23.568404070467697],[-46.42196172384897,-23.568404070467697],[-46.42196172384897,-23.56833890982606],[-46.421915603945116,-23.56833890982606],[-46.421915603945116,-23.568273749184424],[-46.421915603945116,-23.568208588542788],[-46.42196172384897,-23.568208588542788],[-46.42196172384897,-23.568143427901152],[-46.42196172384897,-23.56807826725952],[-46.421915603945116,-23.56807826725952],[-46.421915603945116,-23.568013106617883],[-46.421915603945116,-23.567947945976247],[-46.42186948404126,-23.56788278533461],[-46.42186948404126,-23.567817624692974],[-46.4218233641374,-23.56775246405134],[-46.421777244233546,-23.567687303409702],[-46.421777244233546,-23.567622142768066],[-46.42173112432968,-23.567622142768066],[-46.421777244233546,-23.56755698212643],[-46.421777244233546,-23.56742666084316],[-46.42173112432968,-23.567361500201525],[-46.421685004425825,-23.567361500201525],[-46.42163888452197,-23.567361500201525],[-46.42159276461811,-23.56729633955989],[-46.421546644714255,-23.56729633955989],[-46.421546644714255,-23.567231178918252],[-46.421546644714255,-23.567166018276616],[-46.421546644714255,-23.56710085763498],[-46.4215005248104,-23.56710085763498],[-46.4215005248104,-23.567035696993344],[-46.42145440490654,-23.566970536351707],[-46.42145440490654,-23.56690537571007],[-46.421408285002684,-23.56690537571007],[-46.421408285002684,-23.566840215068435],[-46.42136216509882,-23.566840215068435],[-46.42136216509882,-23.5667750544268],[-46.42131604519496,-23.5667750544268],[-46.42126992529111,-23.5667750544268],[-46.42122380538725,-23.5667750544268],[-46.42122380538725,-23.566709893785166],[-46.42122380538725,-23.56664473314353],[-46.42117768548339,-23.566579572501894],[-46.421131565579536,-23.566579572501894],[-46.421131565579536,-23.566514411860258],[-46.42108544567568,-23.566514411860258],[-46.42103932577182,-23.56644925121862],[-46.42099320586796,-23.56644925121862],[-46.42099320586796,-23.566384090576985],[-46.4209470859641,-23.56631892993535],[-46.420900966060245,-23.56631892993535],[-46.42085484615639,-23.566253769293713],[-46.42080872625253,-23.566188608652077],[-46.420762606348674,-23.56612344801044],[-46.42071648644482,-23.566058287368808],[-46.42067036654096,-23.566058287368808],[-46.42067036654096,-23.56599312672717],[-46.4206242466371,-23.565927966085535],[-46.4206242466371,-23.5658628054439],[-46.4206242466371,-23.565797644802263],[-46.42057812673324,-23.565797644802263],[-46.42057812673324,-23.565732484160627],[-46.42053200682938,-23.56566732351899],[-46.420485886925526,-23.565602162877354],[-46.420485886925526,-23.56553700223572],[-46.42043976702167,-23.56553700223572],[-46.42043976702167,-23.565471841594082],[-46.42043976702167,-23.56540668095245],[-46.42039364711781,-23.56540668095245],[-46.42039364711781,-23.565341520310813],[-46.420347527213956,-23.565276359669177],[-46.4203014073101,-23.56521119902754],[-46.4203014073101,-23.565146038385905],[-46.420255287406235,-23.565146038385905],[-46.420255287406235,-23.56508087774427],[-46.420255287406235,-23.565015717102632],[-46.42020916750238,-23.565015717102632],[-46.42020916750238,-23.564950556460996],[-46.42016304759852,-23.564950556460996],[-46.42016304759852,-23.56488539581936],[-46.420116927694664,-23.56488539581936],[-46.42007080779081,-23.564755074536087],[-46.42002468788695,-23.564689913894455],[-46.419978567983094,-23.56462475325282],[-46.41993244807924,-23.564559592611182],[-46.41993244807924,-23.564494431969546],[-46.41988632817537,-23.564494431969546],[-46.41988632817537,-23.56442927132791],[-46.419840208271516,-23.564364110686274],[-46.41877945048279,-23.563060897853557],[-46.41877945048279,-23.56299573721192],[-46.41873333057893,-23.562930576570285],[-46.41873333057893,-23.56286541592865],[-46.41873333057893,-23.562800255287012],[-46.41873333057893,-23.562735094645376],[-46.418687210675074,-23.562735094645376],[-46.418687210675074,-23.562669934003743],[-46.41864109077122,-23.562604773362107],[-46.41864109077122,-23.56253961272047],[-46.41859497086736,-23.56253961272047],[-46.41859497086736,-23.562474452078835],[-46.418548850963504,-23.562474452078835],[-46.41850273105965,-23.562474452078835],[-46.41845661115579,-23.5624092914372],[-46.418410491251926,-23.562474452078835],[-46.418410491251926,-23.56253961272047],[-46.41836437134807,-23.562604773362107],[-46.41831825144421,-23.562669934003743],[-46.418272131540355,-23.562735094645376],[-46.4182260116365,-23.562800255287012],[-46.4182260116365,-23.56286541592865],[-46.418133771828785,-23.562930576570285],[-46.418133771828785,-23.56299573721192],[-46.41808765192493,-23.56299573721192],[-46.417903172309494,-23.56299573721192],[-46.417718692694066,-23.562930576570285],[-46.41744197327092,-23.562930576570285],[-46.417257493655484,-23.562930576570285],[-46.41707301404006,-23.562930576570285],[-46.4170268941362,-23.562930576570285],[-46.41688853442462,-23.56286541592865],[-46.416842414520765,-23.56286541592865],[-46.416704054809195,-23.562800255287012],[-46.416611815001474,-23.562800255287012],[-46.41656569509762,-23.562800255287012],[-46.4164734552899,-23.562800255287012],[-46.41642733538605,-23.56286541592865],[-46.41633509557833,-23.56286541592865],[-46.416288975674476,-23.56286541592865],[-46.41624285577061,-23.56286541592865],[-46.4161506159629,-23.56286541592865],[-46.41610449605904,-23.56286541592865],[-46.416058376155185,-23.56286541592865],[-46.41601225625133,-23.56286541592865],[-46.41596613634747,-23.56286541592865],[-46.415920016443614,-23.562930576570285],[-46.41587389653975,-23.56299573721192],[-46.41582777663589,-23.56299573721192],[-46.41582777663589,-23.563060897853557],[-46.41578165673204,-23.563060897853557],[-46.41573553682818,-23.563060897853557],[-46.41568941692432,-23.563126058495193],[-46.41559717711661,-23.563126058495193],[-46.41555105721275,-23.56319121913683],[-46.41550493730889,-23.56319121913683],[-46.41545881740503,-23.5633215404201],[-46.415412697501175,-23.5633215404201],[-46.41536657759732,-23.563386701061738],[-46.41532045769346,-23.563386701061738],[-46.41522821788575,-23.56345186170337],[-46.41513597807803,-23.563517022345007],[-46.41504373827031,-23.563517022345007],[-46.4149514984626,-23.563582182986643],[-46.414859258654886,-23.563582182986643],[-46.414767018847165,-23.56364734362828],[-46.41467477903945,-23.56364734362828],[-46.414628659135595,-23.56364734362828],[-46.41458253923174,-23.563582182986643],[-46.414490299424024,-23.563517022345007],[-46.41444417952017,-23.56345186170337],[-46.4143980596163,-23.563386701061738],[-46.414351939712446,-23.563386701061738],[-46.41430581980859,-23.5633215404201],[-46.414213580000876,-23.5633215404201],[-46.41416746009702,-23.5633215404201],[-46.41412134019316,-23.5633215404201],[-46.41402910038544,-23.563256379778466],[-46.413982980481585,-23.563256379778466],[-46.41389074067387,-23.563256379778466],[-46.41379850086616,-23.563256379778466],[-46.4137523809623,-23.563256379778466],[-46.413706261058444,-23.56319121913683],[-46.41361402125072,-23.56319121913683],[-46.413567901346866,-23.56319121913683],[-46.413567901346866,-23.563256379778466],[-46.41352178144301,-23.563256379778466],[-46.41347566153915,-23.563256379778466],[-46.413429541635296,-23.563256379778466],[-46.41338342173144,-23.5633215404201],[-46.41333730182758,-23.563256379778466],[-46.41329118192372,-23.563256379778466],[-46.41324506201986,-23.563256379778466],[-46.413198942116004,-23.563256379778466],[-46.41315282221215,-23.56319121913683],[-46.413060582404434,-23.56319121913683],[-46.413060582404434,-23.563126058495193],[-46.41301446250058,-23.563126058495193],[-46.41296834259672,-23.563126058495193],[-46.41296834259672,-23.563060897853557],[-46.412922222692856,-23.563060897853557],[-46.412876102789,-23.563060897853557],[-46.41282998288514,-23.56299573721192],[-46.412783862981286,-23.56299573721192],[-46.41273774307743,-23.56299573721192],[-46.41273774307743,-23.562930576570285],[-46.41269162317357,-23.562930576570285],[-46.41269162317357,-23.56286541592865],[-46.41273774307743,-23.56286541592865],[-46.41273774307743,-23.562800255287012],[-46.41269162317357,-23.562800255287012],[-46.412645503269715,-23.562800255287012],[-46.41259938336586,-23.562800255287012],[-46.412553263461994,-23.562735094645376],[-46.41250714355814,-23.562735094645376],[-46.41236878384657,-23.562735094645376],[-46.41232266394271,-23.562735094645376],[-46.41227654403885,-23.562735094645376],[-46.412230424135,-23.562735094645376],[-46.41218430423113,-23.562735094645376],[-46.412138184327276,-23.562735094645376],[-46.41209206442342,-23.562735094645376],[-46.41204594451956,-23.562735094645376],[-46.41190758480799,-23.562735094645376],[-46.41181534500027,-23.562735094645376],[-46.41172310519256,-23.562735094645376],[-46.4116769852887,-23.562669934003743],[-46.4116769852887,-23.56253961272047],[-46.41163086538484,-23.562474452078835],[-46.41158474548099,-23.5624092914372],[-46.411492505673266,-23.562344130795562],[-46.411354145961695,-23.56221380951229],[-46.41130802605784,-23.56221380951229],[-46.411215786250125,-23.56221380951229],[-46.411123546442404,-23.56221380951229],[-46.41103130663469,-23.56221380951229],[-46.41093906682698,-23.56221380951229],[-46.410800707115406,-23.562278970153926],[-46.410708467307686,-23.562278970153926],[-46.41061622749997,-23.562278970153926],[-46.410570107596115,-23.562278970153926],[-46.410431747884545,-23.562278970153926],[-46.41029338817297,-23.562344130795562],[-46.410155028461396,-23.562344130795562],[-46.41001666874982,-23.562278970153926],[-46.409924428942105,-23.562278970153926],[-46.409786069230535,-23.562344130795562],[-46.40969382942282,-23.562344130795562],[-46.40955546971124,-23.562344130795562],[-46.40941710999967,-23.5624092914372],[-46.409370990095816,-23.5624092914372],[-46.40932487019196,-23.5624092914372],[-46.409278750288095,-23.562474452078835],[-46.40918651048038,-23.562474452078835],[-46.40904815076881,-23.56253961272047],[-46.40890979105723,-23.562604773362107],[-46.40877143134566,-23.562669934003743],[-46.40867919153795,-23.562669934003743],[-46.408586951730236,-23.562669934003743],[-46.40844859201866,-23.562735094645376],[-46.4084024721148,-23.562735094645376],[-46.408356352210944,-23.562800255287012],[-46.40831023230709,-23.562800255287012],[-46.408217992499374,-23.56286541592865],[-46.408079632787796,-23.56286541592865],[-46.407941273076226,-23.562930576570285],[-46.40775679346079,-23.56299573721192],[-46.407710673556934,-23.56299573721192],[-46.40761843374922,-23.563060897853557],[-46.407572313845364,-23.563060897853557],[-46.40752619394151,-23.563060897853557],[-46.40748007403765,-23.563060897853557],[-46.407433954133786,-23.563060897853557],[-46.40738783422993,-23.563126058495193],[-46.40734171432607,-23.563126058495193],[-46.407295594422216,-23.563126058495193],[-46.40724947451836,-23.563126058495193],[-46.4072033546145,-23.563126058495193],[-46.407157234710645,-23.563126058495193],[-46.40711111480679,-23.563126058495193],[-46.40711111480679,-23.56319121913683],[-46.407064994902925,-23.56319121913683],[-46.40701887499907,-23.56319121913683],[-46.40697275509521,-23.56319121913683],[-46.406926635191354,-23.563256379778466],[-46.4068805152875,-23.563256379778466],[-46.40683439538364,-23.563256379778466],[-46.40674215557593,-23.5633215404201],[-46.40660379586435,-23.5633215404201],[-46.40646543615278,-23.563386701061738],[-46.40641931624892,-23.563386701061738],[-46.40623483663349,-23.563386701061738],[-46.406142596825774,-23.56345186170337],[-46.40605035701806,-23.56345186170337],[-46.40577363759491,-23.563582182986643],[-46.405727517691055,-23.56364734362828],[-46.405635277883334,-23.563712504269915],[-46.405496918171764,-23.56377766491155],[-46.40535855846019,-23.563842825553188],[-46.40526631865247,-23.563907986194824],[-46.405220198748616,-23.56397314683646],[-46.405081839037045,-23.564038307478096],[-46.404943479325475,-23.564038307478096],[-46.40475899971004,-23.564168628761365],[-46.40466675990233,-23.564233789403],[-46.40452840019075,-23.564364110686274],[-46.40448228028689,-23.56442927132791],[-46.404436160383035,-23.564494431969546],[-46.40425168076761,-23.564689913894455],[-46.40420556086375,-23.564755074536087],[-46.40415944095989,-23.564755074536087],[-46.40415944095989,-23.564820235177724],[-46.40411332105603,-23.564820235177724],[-46.40406720115217,-23.56488539581936],[-46.40402108124832,-23.56488539581936],[-46.40402108124832,-23.564950556460996],[-46.4039288414406,-23.564950556460996],[-46.403882721536746,-23.565015717102632],[-46.40383660163289,-23.56508087774427],[-46.403790481729025,-23.565146038385905],[-46.40374436182517,-23.565146038385905],[-46.40369824192131,-23.56521119902754],[-46.403652122017455,-23.565276359669177],[-46.40355988220974,-23.56540668095245],[-46.40346764240203,-23.565471841594082],[-46.403421522498164,-23.565471841594082],[-46.40332928269045,-23.56553700223572],[-46.40328316278659,-23.565602162877354],[-46.403237042882736,-23.56566732351899],[-46.403237042882736,-23.565732484160627],[-46.40319092297888,-23.565797644802263],[-46.40314480307502,-23.565797644802263],[-46.403098683171166,-23.5658628054439],[-46.4030525632673,-23.565927966085535],[-46.403006443363445,-23.565927966085535],[-46.40296032345959,-23.56599312672717],[-46.402868083651875,-23.566058287368808],[-46.40277584384416,-23.56612344801044],[-46.402729723940304,-23.566188608652077],[-46.40263748413258,-23.566253769293713],[-46.402591364228726,-23.56631892993535],[-46.40254524432487,-23.566384090576985],[-46.40249912442101,-23.56644925121862],[-46.402453004517156,-23.566514411860258],[-46.4024068846133,-23.566514411860258],[-46.4024068846133,-23.566579572501894],[-46.40231464480558,-23.56664473314353],[-46.40226852490172,-23.566709893785166],[-46.40217628509401,-23.5667750544268],[-46.40213016519015,-23.566840215068435],[-46.402084045286294,-23.56690537571007],[-46.40203792538244,-23.56690537571007],[-46.40199180547858,-23.566970536351707],[-46.40194568557472,-23.567035696993344],[-46.401853445767,-23.56710085763498],[-46.401807325863146,-23.56710085763498],[-46.40176120595929,-23.567166018276616],[-46.401668966151576,-23.567166018276616],[-46.401668966151576,-23.567231178918252],[-46.40162284624772,-23.567231178918252],[-46.401576726343855,-23.56729633955989],[-46.40148448653614,-23.567361500201525],[-46.40139224672843,-23.56742666084316],[-46.40134612682457,-23.56742666084316],[-46.40120776711299,-23.567491821484793],[-46.401161647209136,-23.567491821484793],[-46.40106940740142,-23.567622142768066],[-46.401023287497566,-23.567622142768066],[-46.40093104768985,-23.567687303409702],[-46.40083880788213,-23.56775246405134],[-46.400792687978274,-23.567817624692974],[-46.40070044817056,-23.56788278533461],[-46.400654328266704,-23.567947945976247],[-46.40060820836285,-23.567947945976247],[-46.400515968555126,-23.568013106617883],[-46.40042372874741,-23.568013106617883],[-46.400377608843556,-23.56807826725952],[-46.40028536903584,-23.568143427901152],[-46.400239249131985,-23.568143427901152],[-46.40019312922813,-23.568208588542788],[-46.400147009324265,-23.568208588542788],[-46.40010088942041,-23.568208588542788],[-46.40010088942041,-23.568273749184424],[-46.39996252970884,-23.56833890982606],[-46.39991640980498,-23.56833890982606],[-46.39987028990112,-23.56833890982606],[-46.3997780500934,-23.568404070467697],[-46.399731930189546,-23.568469231109333],[-46.39968581028569,-23.568469231109333],[-46.39963969038183,-23.56853439175097],[-46.399593570477975,-23.56853439175097],[-46.39954745057412,-23.568599552392605],[-46.39950133067026,-23.568599552392605],[-46.399362970958684,-23.568729873675878],[-46.39927073115097,-23.56879503431751],[-46.399224611247114,-23.56879503431751],[-46.39908625153554,-23.568860194959147],[-46.39904013163168,-23.568925355600783],[-46.39899401172782,-23.56899051624242],[-46.398947891823966,-23.569055676884055],[-46.39885565201625,-23.569055676884055],[-46.39876341220854,-23.56912083752569],[-46.39867117240082,-23.569185998167328],[-46.39862505249696,-23.569251158808964],[-46.39848669278539,-23.5693163194506],[-46.39844057288153,-23.5693163194506],[-46.39834833307382,-23.569381480092236],[-46.3982560932661,-23.569446640733872],[-46.398163853458385,-23.569446640733872],[-46.39811773355453,-23.569511801375505],[-46.39807161365067,-23.569511801375505],[-46.398025493746815,-23.56957696201714],[-46.39797937384296,-23.56957696201714],[-46.39788713403524,-23.569642122658777],[-46.39784101413138,-23.569642122658777],[-46.39779489422752,-23.569707283300414],[-46.397518174804375,-23.569837604583686],[-46.397379815092805,-23.569902765225322],[-46.39728757528509,-23.569902765225322],[-46.39714921557351,-23.56996792586696],[-46.3970569757658,-23.570033086508595],[-46.396964735958086,-23.570033086508595],[-46.39691861605423,-23.57009824715023],[-46.39687249615037,-23.57009824715023],[-46.39682637624651,-23.57009824715023],[-46.39678025634265,-23.570163407791863],[-46.39668801653494,-23.5702285684335],[-46.39668801653494,-23.570293729075136],[-46.39664189663108,-23.570293729075136],[-46.396595776727224,-23.570358889716772],[-46.39654965682337,-23.570424050358408],[-46.39650353691951,-23.570489211000044],[-46.39645741701565,-23.570489211000044],[-46.39641129711179,-23.570489211000044],[-46.396319057304076,-23.570489211000044],[-46.39622681749636,-23.57055437164168],[-46.396180697592506,-23.57055437164168],[-46.39613457768864,-23.57055437164168],[-46.396088457784785,-23.57055437164168],[-46.39599621797707,-23.57055437164168],[-46.395811738361644,-23.570489211000044],[-46.39576561845778,-23.570424050358408],[-46.395673378650066,-23.570424050358408],[-46.39562725874621,-23.570424050358408],[-46.39562725874621,-23.570489211000044],[-46.395673378650066,-23.570489211000044],[-46.39571949855392,-23.57055437164168],[-46.395673378650066,-23.57055437164168],[-46.39562725874621,-23.570619532283317],[-46.39558113884235,-23.570684692924953],[-46.395535018938496,-23.570684692924953],[-46.39544277913078,-23.570619532283317],[-46.395304419419205,-23.57055437164168],[-46.39521217961149,-23.57055437164168],[-46.395166059707634,-23.57055437164168],[-46.39507381989992,-23.570619532283317],[-46.39502769999606,-23.570619532283317],[-46.39502769999606,-23.570684692924953],[-46.394889340284486,-23.570815014208222],[-46.39484322038063,-23.570880174849858],[-46.39479710047677,-23.57101049613313],[-46.394750980572915,-23.57101049613313],[-46.394750980572915,-23.571075656774767],[-46.39470486066906,-23.571140817416403],[-46.394658740765195,-23.571140817416403],[-46.39461262086134,-23.57120597805804],[-46.39461262086134,-23.571271138699675],[-46.39456650095748,-23.571271138699675],[-46.39456650095748,-23.57133629934131],[-46.394520381053624,-23.571401459982948],[-46.39447426114977,-23.571466620624584],[-46.39442814124591,-23.571531781266216],[-46.394382021342054,-23.571596941907853],[-46.3943359014382,-23.57166210254949],[-46.39428978153433,-23.571727263191125],[-46.394243661630476,-23.57179242383276],[-46.39415142182276,-23.571857584474397],[-46.394105301918906,-23.571857584474397],[-46.39405918201505,-23.571922745116034],[-46.39401306211119,-23.571922745116034],[-46.393966942207335,-23.57198790575767],[-46.39392082230347,-23.57198790575767],[-46.39382858249576,-23.57198790575767],[-46.3937824625919,-23.572053066399306],[-46.393736342688044,-23.572053066399306],[-46.39369022278419,-23.572053066399306],[-46.39364410288033,-23.572053066399306],[-46.39359798297647,-23.572118227040942],[-46.39355186307261,-23.572118227040942],[-46.39350574316875,-23.572118227040942],[-46.393459623264896,-23.572118227040942],[-46.39341350336104,-23.572118227040942],[-46.39336738345718,-23.572118227040942],[-46.393321263553325,-23.572118227040942],[-46.39327514364947,-23.572183387682575],[-46.39318290384175,-23.572183387682575],[-46.39313678393789,-23.572183387682575],[-46.393090664034034,-23.572183387682575],[-46.393090664034034,-23.572118227040942],[-46.393090664034034,-23.572053066399306],[-46.39304454413018,-23.572053066399306],[-46.39299842422632,-23.572053066399306],[-46.39299842422632,-23.57198790575767],[-46.39295230432246,-23.57198790575767],[-46.39290618441861,-23.57198790575767],[-46.39290618441861,-23.572053066399306],[-46.39286006451475,-23.572053066399306],[-46.392813944610886,-23.572053066399306],[-46.392813944610886,-23.572118227040942],[-46.39276782470703,-23.572118227040942],[-46.39276782470703,-23.572053066399306],[-46.39272170480317,-23.572053066399306],[-46.392675584899315,-23.572053066399306],[-46.392675584899315,-23.57198790575767],[-46.39262946499546,-23.57198790575767],[-46.3925833450916,-23.57198790575767],[-46.392537225187745,-23.57198790575767],[-46.39249110528389,-23.57198790575767],[-46.39249110528389,-23.572053066399306],[-46.392444985380024,-23.572053066399306],[-46.39239886547617,-23.572053066399306],[-46.39235274557231,-23.572053066399306],[-46.39235274557231,-23.57198790575767],[-46.39230662566845,-23.57198790575767],[-46.3922605057646,-23.57198790575767],[-46.3922605057646,-23.571922745116034],[-46.39221438586074,-23.571922745116034],[-46.39221438586074,-23.571857584474397],[-46.39216826595688,-23.571857584474397],[-46.392122146053026,-23.571857584474397],[-46.39207602614916,-23.57179242383276],[-46.392029906245305,-23.57179242383276],[-46.392029906245305,-23.571727263191125],[-46.39198378634145,-23.571727263191125],[-46.39198378634145,-23.57166210254949],[-46.39198378634145,-23.571596941907853],[-46.39193766643759,-23.571596941907853],[-46.39193766643759,-23.571531781266216],[-46.391891546533735,-23.571531781266216],[-46.39184542662988,-23.571531781266216],[-46.39184542662988,-23.571466620624584],[-46.39179930672602,-23.571466620624584],[-46.391753186822164,-23.571466620624584],[-46.391753186822164,-23.571401459982948],[-46.3917070669183,-23.571401459982948],[-46.39161482711059,-23.571401459982948],[-46.39156870720673,-23.571401459982948],[-46.39152258730287,-23.571401459982948],[-46.39152258730287,-23.57133629934131],[-46.391476467399016,-23.57133629934131],[-46.39143034749516,-23.57133629934131],[-46.3913842275913,-23.57133629934131],[-46.39133810768744,-23.57133629934131],[-46.39133810768744,-23.571271138699675],[-46.39129198778358,-23.571271138699675],[-46.391245867879725,-23.571271138699675],[-46.39119974797587,-23.57120597805804],[-46.39115362807201,-23.57120597805804],[-46.391107508168155,-23.57120597805804],[-46.3910613882643,-23.571140817416403],[-46.391015268360434,-23.571140817416403],[-46.39096914845658,-23.571140817416403],[-46.390830788745006,-23.57101049613313],[-46.39073854893729,-23.570945335491494],[-46.390692429033436,-23.570945335491494],[-46.39064630912957,-23.570945335491494],[-46.390600189225715,-23.570945335491494],[-46.39055406932186,-23.570945335491494],[-46.390507949418,-23.570945335491494],[-46.390461829514145,-23.570945335491494],[-46.390461829514145,-23.57101049613313],[-46.39041570961029,-23.57101049613313],[-46.39036958970643,-23.57101049613313],[-46.390323469802574,-23.571075656774767],[-46.39027734989871,-23.571075656774767],[-46.39023122999485,-23.571140817416403],[-46.390185110091,-23.571140817416403],[-46.39013899018714,-23.571140817416403],[-46.39009287028328,-23.571140817416403],[-46.39009287028328,-23.57120597805804],[-46.390046750379426,-23.57120597805804],[-46.39000063047557,-23.57120597805804],[-46.38995451057171,-23.571271138699675],[-46.38986227076399,-23.57133629934131],[-46.389816150860135,-23.57133629934131],[-46.38977003095628,-23.57133629934131],[-46.38972391105242,-23.57133629934131],[-46.38963167124471,-23.57133629934131],[-46.38958555134085,-23.57133629934131],[-46.38953943143699,-23.57133629934131],[-46.38949331153313,-23.57133629934131],[-46.389401071725416,-23.57133629934131],[-46.389401071725416,-23.571401459982948],[-46.38935495182156,-23.571466620624584],[-46.3893088319177,-23.571466620624584],[-46.3893088319177,-23.571531781266216],[-46.389262712013846,-23.571531781266216],[-46.38921659210999,-23.571531781266216],[-46.389170472206125,-23.571596941907853],[-46.38912435230227,-23.571596941907853],[-46.38907823239841,-23.571596941907853],[-46.389032112494554,-23.57166210254949],[-46.3889859925907,-23.57166210254949],[-46.38893987268684,-23.57166210254949],[-46.388893752782984,-23.57166210254949],[-46.38884763287913,-23.571727263191125],[-46.38880151297526,-23.571727263191125],[-46.388755393071406,-23.571727263191125],[-46.38870927316755,-23.57179242383276],[-46.38866315326369,-23.57179242383276],[-46.388617033359836,-23.57179242383276],[-46.38857091345598,-23.57179242383276],[-46.38852479355212,-23.57179242383276],[-46.388478673648265,-23.571857584474397],[-46.3884325537444,-23.571857584474397],[-46.388386433840544,-23.571857584474397],[-46.38834031393669,-23.571857584474397],[-46.38829419403283,-23.571857584474397],[-46.388248074128974,-23.571857584474397],[-46.388248074128974,-23.57179242383276],[-46.38820195422512,-23.57179242383276],[-46.38815583432126,-23.57179242383276],[-46.3881097144174,-23.57179242383276],[-46.38801747460968,-23.571857584474397],[-46.387971354705826,-23.571857584474397],[-46.38792523480197,-23.571922745116034],[-46.38787911489811,-23.571922745116034],[-46.387832994994255,-23.571922745116034],[-46.38764851537882,-23.571922745116034],[-46.38737179595568,-23.571922745116034],[-46.3872334362441,-23.571857584474397],[-46.387187316340246,-23.571857584474397],[-46.38700283672482,-23.571857584474397],[-46.38686447701324,-23.57179242383276],[-46.38667999739781,-23.571727263191125],[-46.386633877493956,-23.57166210254949],[-46.386541637686236,-23.57166210254949],[-46.38644939787852,-23.57166210254949],[-46.38631103816695,-23.57166210254949],[-46.386264918263095,-23.57166210254949],[-46.38612655855152,-23.57166210254949],[-46.3860343187438,-23.57166210254949],[-46.38598819883995,-23.57166210254949],[-46.38598819883995,-23.571596941907853],[-46.38594207893609,-23.571596941907853],[-46.38589595903223,-23.571596941907853],[-46.38584983912837,-23.571596941907853],[-46.38580371922451,-23.571531781266216],[-46.385757599320655,-23.571531781266216],[-46.3857114794168,-23.571466620624584],[-46.38566535951294,-23.571466620624584],[-46.385619239609085,-23.571466620624584],[-46.385619239609085,-23.571401459982948],[-46.38557311970523,-23.571401459982948],[-46.385526999801364,-23.57133629934131],[-46.38548087989751,-23.57133629934131],[-46.38543475999365,-23.57133629934131],[-46.38543475999365,-23.571271138699675],[-46.38538864008979,-23.571271138699675],[-46.38534252018594,-23.571271138699675],[-46.38534252018594,-23.57120597805804],[-46.38529640028208,-23.57120597805804],[-46.38525028037822,-23.57120597805804],[-46.38525028037822,-23.571140817416403],[-46.385204160474366,-23.571140817416403],[-46.3851580405705,-23.571140817416403],[-46.385111920666645,-23.571140817416403],[-46.385111920666645,-23.571075656774767],[-46.38506580076279,-23.571075656774767],[-46.38501968085893,-23.571075656774767],[-46.38501968085893,-23.57101049613313],[-46.384973560955075,-23.57101049613313],[-46.38492744105122,-23.57101049613313],[-46.38492744105122,-23.570945335491494],[-46.38488132114736,-23.570945335491494],[-46.38488132114736,-23.570880174849858],[-46.384835201243504,-23.570880174849858],[-46.38372832355092,-23.570684692924953],[-46.38372832355092,-23.570815014208222],[-46.38372832355092,-23.57101049613313],[-46.3836360837432,-23.57120597805804],[-46.38358996383934,-23.57133629934131],[-46.383543843935485,-23.571466620624584],[-46.38349772403163,-23.571531781266216],[-46.383405484223914,-23.571727263191125],[-46.38335936432006,-23.57179242383276],[-46.38331324441619,-23.571922745116034],[-46.38322100460848,-23.57198790575767],[-46.383128764800766,-23.572118227040942],[-46.38308264489691,-23.572183387682575],[-46.382990405089195,-23.57224854832421],[-46.382898165281475,-23.572313708965847],[-46.38280592547376,-23.572378869607483],[-46.382759805569904,-23.572378869607483],[-46.38266756576219,-23.57244403024912],[-46.38257532595447,-23.57244403024912],[-46.382483086146756,-23.572509190890756],[-46.382344726435186,-23.572509190890756],[-46.38225248662747,-23.572574351532392],[-46.38220636672361,-23.572574351532392],[-46.38216024681975,-23.572639512174028],[-46.38202188710818,-23.572639512174028],[-46.38188352739661,-23.572704672815664],[-46.38174516768503,-23.5727698334573],[-46.381699047781176,-23.5727698334573],[-46.38160680797346,-23.572834994098933],[-46.381560688069605,-23.57290015474057],[-46.381560688069605,-23.572965315382206],[-46.38151456816575,-23.573030476023842],[-46.38151456816575,-23.573095636665478],[-46.381468448261884,-23.573095636665478],[-46.381468448261884,-23.573160797307114],[-46.38142232835803,-23.573160797307114],[-46.38142232835803,-23.57322595794875],[-46.38142232835803,-23.573291118590387],[-46.38142232835803,-23.573356279232023],[-46.38137620845417,-23.57342143987366],[-46.38137620845417,-23.573486600515295],[-46.381330088550314,-23.573551761156928],[-46.38128396864646,-23.5736820824402],[-46.38119172883874,-23.573747243081836],[-46.38114560893489,-23.573812403723473],[-46.38109948903102,-23.573812403723473],[-46.381053369127166,-23.57387756436511],[-46.38100724922331,-23.573942725006745],[-46.38096112931945,-23.573942725006745],[-46.380915009415595,-23.573942725006745],[-46.38086888951174,-23.573942725006745],[-46.38082276960788,-23.573942725006745],[-46.380776649704025,-23.573942725006745],[-46.38059217008859,-23.573942725006745],[-46.38040769047316,-23.573942725006745],[-46.380130971050015,-23.57400788564838],[-46.379900371530724,-23.57400788564838],[-46.37957753220372,-23.574073046290017],[-46.37893185354971,-23.574138206931654],[-46.37879349383814,-23.574203367573286],[-46.37874737393428,-23.574203367573286],[-46.37865513412657,-23.574203367573286],[-46.37860901422271,-23.574268528214922],[-46.37847065451113,-23.57446401013983],[-46.37833229479956,-23.574594331423103],[-46.378286174895706,-23.574724652706376],[-46.378286174895706,-23.574789813348012],[-46.37833229479956,-23.575050455914553],[-46.37842453460728,-23.575180777197826],[-46.37856289431885,-23.57557174104764],[-46.37879349383814,-23.57609302618073],[-46.37879349383814,-23.576158186822365],[-46.37888573364585,-23.576288508105634],[-46.379070213261286,-23.576614311313815],[-46.37920857297286,-23.576744632597087],[-46.379346932684435,-23.576809793238724],[-46.379485292396005,-23.576940114521992],[-46.379715891915296,-23.57700527516363],[-46.37994649143458,-23.57700527516363],[-46.380038731242294,-23.57700527516363],[-46.38022321085773,-23.577070435805265],[-46.3803615705693,-23.577070435805265],[-46.380776649704025,-23.577070435805265],[-46.38100724922331,-23.577070435805265],[-46.38109948903102,-23.577070435805265],[-46.38109948903102,-23.5771355964469],[-46.38114560893489,-23.5771355964469],[-46.38114560893489,-23.577070435805265],[-46.38119172883874,-23.577070435805265],[-46.38160680797346,-23.5771355964469],[-46.38165292787732,-23.5771355964469],[-46.38202188710818,-23.577200757088537],[-46.38216024681975,-23.577265917730173],[-46.382344726435186,-23.57733107837181],[-46.38252920605061,-23.577396239013446],[-46.38285204537762,-23.577526560296718],[-46.38294428518533,-23.57759172093835],[-46.38303652499305,-23.577656881579987],[-46.383128764800766,-23.577722042221623],[-46.38322100460848,-23.57778720286326],[-46.38335936432006,-23.577852363504896],[-46.383543843935485,-23.57791752414653],[-46.3836360837432,-23.57791752414653],[-46.383774443454776,-23.577982684788168],[-46.383774443454776,-23.578047845429804],[-46.38386668326249,-23.57811300607144],[-46.3839589230702,-23.57824332735471],[-46.38386668326249,-23.57824332735471],[-46.38382056335863,-23.578308487996345],[-46.383774443454776,-23.578308487996345],[-46.38372832355092,-23.57837364863798],[-46.38372832355092,-23.578438809279618],[-46.383682203647055,-23.578438809279618],[-46.383682203647055,-23.578503969921254],[-46.383682203647055,-23.57856913056289],[-46.38372832355092,-23.578634291204526],[-46.38372832355092,-23.578699451846163],[-46.38372832355092,-23.5787646124878],[-46.38372832355092,-23.578829773129435],[-46.383774443454776,-23.578894933771068],[-46.383774443454776,-23.578960094412704],[-46.383774443454776,-23.57902525505434],[-46.383774443454776,-23.579090415695976],[-46.38382056335863,-23.579155576337612],[-46.38386668326249,-23.57922073697925],[-46.383912803166346,-23.579285897620885],[-46.383912803166346,-23.57935105826252],[-46.38386668326249,-23.579481379545793],[-46.38372832355092,-23.58000266467888],[-46.383682203647055,-23.580328467887057],[-46.383682203647055,-23.580393628528693],[-46.38358996383934,-23.580393628528693],[-46.38349772403163,-23.580393628528693],[-46.383405484223914,-23.580393628528693],[-46.38322100460848,-23.580328467887057],[-46.38317488470462,-23.580328467887057],[-46.383128764800766,-23.580328467887057],[-46.382990405089195,-23.580393628528693],[-46.38280592547376,-23.580523949811965],[-46.38271368566605,-23.580523949811965],[-46.38252920605061,-23.5805891104536],[-46.38225248662747,-23.580719431736874],[-46.38220636672361,-23.58078459237851],[-46.38216024681975,-23.58078459237851],[-46.38192964730047,-23.581110395586688],[-46.38165292787732,-23.58143619879487],[-46.38160680797346,-23.581501359436505],[-46.38151456816575,-23.581631680719774],[-46.381468448261884,-23.58169684136141],[-46.38142232835803,-23.581762002003046],[-46.38137620845417,-23.581827162644682],[-46.3812378487426,-23.58202264456959],[-46.38119172883874,-23.582152965852863],[-46.38114560893489,-23.5822181264945],[-46.38086888951174,-23.582609090344313],[-46.38082276960788,-23.58267425098595],[-46.380684409896304,-23.582869732910858],[-46.38040769047316,-23.58326069676067],[-46.38031545066544,-23.583391018043944],[-46.380269330761585,-23.58345617868558],[-46.38017709095387,-23.583651660610485],[-46.380038731242294,-23.583847142535394],[-46.37999261133844,-23.58391230317703],[-46.37999261133844,-23.583977463818666],[-46.380038731242294,-23.584303267026844],[-46.38008485114616,-23.584433588310116],[-46.38008485114616,-23.58456390959339],[-46.38008485114616,-23.584629070235025],[-46.38008485114616,-23.584759391518297],[-46.38008485114616,-23.58488971280157],[-46.38008485114616,-23.584954873443202],[-46.38008485114616,-23.585020034084838],[-46.38008485114616,-23.585085194726474],[-46.380038731242294,-23.585215516009747],[-46.37999261133844,-23.585215516009747],[-46.37994649143458,-23.585280676651383],[-46.37980813172301,-23.585541319217928],[-46.37953141229986,-23.585867122426105],[-46.37930081278057,-23.586192925634286],[-46.37911633316514,-23.58638840755919],[-46.37888573364585,-23.586649050125736],[-46.378701254030425,-23.58677937140901],[-46.37856289431885,-23.58690969269228],[-46.37847065451113,-23.586974853333913],[-46.37842453460728,-23.58704001397555],[-46.378193935087985,-23.587105174617186],[-46.37787109576099,-23.587170335258822],[-46.377640496241696,-23.587300656542094],[-46.37745601662626,-23.587496138467003],[-46.37736377681855,-23.587626459750272],[-46.37731765691469,-23.587626459750272],[-46.37731765691469,-23.587691620391908],[-46.37736377681855,-23.587952262958453],[-46.37745601662626,-23.588082584241725],[-46.377502136530126,-23.58814774488336],[-46.377502136530126,-23.588212905524998],[-46.377502136530126,-23.58827806616663],[-46.37745601662626,-23.58847354809154],[-46.37736377681855,-23.588734190658084],[-46.37736377681855,-23.58905999386626],[-46.37736377681855,-23.589125154507897],[-46.37745601662626,-23.589320636432806],[-46.37736377681855,-23.58945095771608],[-46.37731765691469,-23.58958127899935],[-46.377271537010834,-23.589972242849164],[-46.37768661614555,-23.589776760924256],[-46.37787109576099,-23.589646439640983],[-46.378055575376415,-23.58945095771608],[-46.37824005499185,-23.589320636432806],[-46.37837841470342,-23.589190315149533],[-46.37856289431885,-23.58905999386626],[-46.37860901422271,-23.58905999386626],[-46.37893185354971,-23.588864511941356],[-46.379485292396005,-23.588669030016447],[-46.37976201181915,-23.588538708733175],[-46.380038731242294,-23.588538708733175],[-46.38017709095387,-23.588538708733175],[-46.38022321085773,-23.588538708733175],[-46.380269330761585,-23.588538708733175],[-46.38031545066544,-23.588538708733175],[-46.38049993028088,-23.588669030016447],[-46.38063828999245,-23.588734190658084],[-46.38073052980016,-23.58879935129972],[-46.380776649704025,-23.588864511941356],[-46.38086888951174,-23.588929672582992],[-46.380915009415595,-23.588994833224625],[-46.38096112931945,-23.58905999386626],[-46.38119172883874,-23.5900374034908],[-46.38142232835803,-23.59029804605734],[-46.381837407492746,-23.590558688623886],[-46.381975767204324,-23.59068900990716],[-46.382114126915894,-23.590754170548795],[-46.38225248662747,-23.591079973756973],[-46.38239084633904,-23.591210295040245],[-46.38257532595447,-23.59147093760679],[-46.38271368566605,-23.591796740814967],[-46.38266756576219,-23.592057383381512],[-46.382759805569904,-23.592448347231326],[-46.38285204537762,-23.592774150439507],[-46.382898165281475,-23.592969632364415],[-46.382990405089195,-23.59316511428932],[-46.38303652499305,-23.59336059621423],[-46.38303652499305,-23.593621238780774],[-46.38303652499305,-23.594272845197132],[-46.38303652499305,-23.594338005838765],[-46.38308264489691,-23.594533487763673],[-46.38322100460848,-23.594794130330218],[-46.383543843935485,-23.594989612255127],[-46.383682203647055,-23.595119933538395],[-46.383774443454776,-23.59538057610494],[-46.383912803166346,-23.595641218671485],[-46.383912803166346,-23.59583670059639],[-46.3839589230702,-23.595967021879662],[-46.38400504297406,-23.596097343162935],[-46.38409728278178,-23.596227664446207],[-46.38414340268564,-23.596292825087843],[-46.38414340268564,-23.596357985729476],[-46.38409728278178,-23.596553467654385],[-46.3839589230702,-23.596683788937657],[-46.383912803166346,-23.596683788937657],[-46.383912803166346,-23.596748949579293],[-46.38386668326249,-23.596748949579293],[-46.38386668326249,-23.596944431504202],[-46.38386668326249,-23.597009592145838],[-46.383912803166346,-23.597205074070743],[-46.38386668326249,-23.597335395354015],[-46.38358996383934,-23.59759603792056],[-46.383543843935485,-23.59759603792056],[-46.38335936432006,-23.597791519845465],[-46.38331324441619,-23.59805216241201],[-46.38326712451234,-23.598117323053646],[-46.38331324441619,-23.598377965620188],[-46.38326712451234,-23.598377965620188],[-46.38317488470462,-23.59850828690346],[-46.38308264489691,-23.59870376882837],[-46.38303652499305,-23.59883409011164],[-46.38303652499305,-23.598964411394913],[-46.38303652499305,-23.599094732678182],[-46.38308264489691,-23.59915989331982],[-46.38322100460848,-23.599355375244727],[-46.38326712451234,-23.599485696528],[-46.38331324441619,-23.599550857169636],[-46.383543843935485,-23.599876660377813],[-46.3836360837432,-23.600006981661085],[-46.38382056335863,-23.600137302944358],[-46.383912803166346,-23.60026762422763],[-46.38405116287792,-23.600332784869266],[-46.38428176239721,-23.60052826679417],[-46.3845123619165,-23.60072374871908],[-46.384742961435784,-23.600854070002352],[-46.38492744105122,-23.60091923064399],[-46.385111920666645,-23.60091923064399],[-46.38525028037822,-23.60091923064399],[-46.38598819883995,-23.60117987321053],[-46.38612655855152,-23.601245033852166],[-46.386403277974665,-23.601310194493802],[-46.38644939787852,-23.601310194493802],[-46.38649551778238,-23.601310194493802],[-46.386541637686236,-23.601310194493802],[-46.38658775759009,-23.601245033852166],[-46.386633877493956,-23.60117987321053],[-46.38667999739781,-23.60117987321053],[-46.38677223720553,-23.601114712568894],[-46.38686447701324,-23.60104955192726],[-46.38709507653253,-23.600984391285625],[-46.38741791585954,-23.60091923064399],[-46.38751015566725,-23.600854070002352],[-46.38755627557111,-23.600854070002352],[-46.387602395474964,-23.60091923064399],[-46.38769463528268,-23.60091923064399],[-46.387832994994255,-23.600984391285625],[-46.38880151297526,-23.601245033852166],[-46.38921659210999,-23.601440515777075],[-46.389816150860135,-23.60170115834362],[-46.390185110091,-23.60196180091016],[-46.390461829514145,-23.60215728283507],[-46.39064630912957,-23.60228760411834],[-46.39087690864886,-23.602483086043247],[-46.39119974797587,-23.60261340732652],[-46.39129198778358,-23.602678567968155],[-46.39143034749516,-23.60274372860979],[-46.39156870720673,-23.602808889251428],[-46.3917070669183,-23.602874049893064],[-46.39193766643759,-23.6029392105347],[-46.392029906245305,-23.603004371176336],[-46.392122146053026,-23.603004371176336],[-46.39216826595688,-23.603004371176336],[-46.39221438586074,-23.603004371176336],[-46.39239886547617,-23.602808889251428],[-46.39262946499546,-23.60261340732652],[-46.39276782470703,-23.602483086043247],[-46.39304454413018,-23.602222443476705],[-46.39313678393789,-23.602092122193433],[-46.39322902374561,-23.602026961551797],[-46.39359798297647,-23.602092122193433],[-46.39369022278419,-23.602092122193433],[-46.39382858249576,-23.602092122193433],[-46.393966942207335,-23.602026961551797],[-46.39419754172662,-23.602026961551797],[-46.394382021342054,-23.602026961551797],[-46.394520381053624,-23.602026961551797],[-46.39470486066906,-23.602092122193433],[-46.394889340284486,-23.602092122193433],[-46.3949815800922,-23.602092122193433],[-46.39507381989992,-23.602092122193433],[-46.39544277913078,-23.60215728283507],[-46.39571949855392,-23.60228760411834],[-46.39576561845778,-23.602352764759978],[-46.395811738361644,-23.602483086043247],[-46.396088457784785,-23.60274372860979],[-46.39613457768864,-23.602808889251428],[-46.39622681749636,-23.602874049893064],[-46.39641129711179,-23.603069531817972],[-46.39650353691951,-23.603134692459605],[-46.39654965682337,-23.603134692459605],[-46.39664189663108,-23.603265013742877],[-46.396734136438795,-23.60339533502615],[-46.39678025634265,-23.603460495667786],[-46.39687249615037,-23.603525656309422],[-46.39691861605423,-23.60359081695106],[-46.396964735958086,-23.603655977592695],[-46.39701085586194,-23.60372113823433],[-46.39710309566966,-23.603786298875963],[-46.39719533547737,-23.603786298875963],[-46.39719533547737,-23.6038514595176],[-46.397241455381234,-23.603981780800872],[-46.39728757528509,-23.60404694144251],[-46.39733369518895,-23.60417726272578],[-46.397379815092805,-23.604242423367417],[-46.397379815092805,-23.604307584009053],[-46.397379815092805,-23.604437905292322],[-46.39742593499666,-23.604503065933958],[-46.39747205490052,-23.604503065933958],[-46.39770265441981,-23.604698547858867],[-46.39784101413138,-23.604763708500503],[-46.39811773355453,-23.60495919042541],[-46.398163853458385,-23.60495919042541],[-46.398163853458385,-23.605089511708684],[-46.39820997336224,-23.605154672350317],[-46.398394452977676,-23.60528499363359],[-46.39862505249696,-23.60541531491686],[-46.39890177192011,-23.605675957483406],[-46.39908625153554,-23.605806278766675],[-46.39917849134326,-23.605936600049947],[-46.399455210766405,-23.60606692133322],[-46.399593570477975,-23.606132081974856],[-46.399731930189546,-23.60626240325813],[-46.39982416999727,-23.60626240325813],[-46.3997780500934,-23.6063927245414],[-46.399593570477975,-23.606588206466306],[-46.399362970958684,-23.606783688391214],[-46.39931685105483,-23.60684884903285],[-46.39931685105483,-23.606914009674487],[-46.399362970958684,-23.606979170316123],[-46.39940909086254,-23.60704433095776],[-46.399455210766405,-23.607109491599395],[-46.39950133067026,-23.607174652241028],[-46.39931685105483,-23.60750045544921],[-46.39899401172782,-23.607826258657386],[-46.39876341220854,-23.60795657994066],[-46.39848669278539,-23.60808690122393],[-46.39820997336224,-23.608347543790476],[-46.39788713403524,-23.608412704432112],[-46.39756429470823,-23.608477865073745],[-46.39742593499666,-23.608608186357017],[-46.397379815092805,-23.608673346998653],[-46.39733369518895,-23.608673346998653],[-46.39728757528509,-23.608673346998653],[-46.397241455381234,-23.608673346998653],[-46.397241455381234,-23.60873850764029],[-46.39719533547737,-23.60873850764029],[-46.39719533547737,-23.608803668281926],[-46.39714921557351,-23.608803668281926],[-46.39691861605423,-23.608868828923562],[-46.396734136438795,-23.608868828923562],[-46.39654965682337,-23.608933989565198],[-46.39650353691951,-23.608933989565198],[-46.39645741701565,-23.608999150206834],[-46.39641129711179,-23.608999150206834],[-46.39636517720793,-23.608999150206834],[-46.396319057304076,-23.608999150206834],[-46.39627293740022,-23.609129471490103],[-46.39622681749636,-23.60919463213174],[-46.396180697592506,-23.609259792773376],[-46.396180697592506,-23.609390114056648],[-46.396180697592506,-23.60952043533992],[-46.39613457768864,-23.609585595981557],[-46.39613457768864,-23.609650756623193],[-46.39613457768864,-23.60971591726483],[-46.396088457784785,-23.60971591726483],[-46.39599621797707,-23.609781077906465],[-46.39599621797707,-23.609846238548098],[-46.39599621797707,-23.609911399189734],[-46.39590397816936,-23.610106881114643],[-46.39590397816936,-23.610237202397915],[-46.3958578582655,-23.61030236303955],[-46.395811738361644,-23.610367523681187],[-46.39576561845778,-23.610497844964456],[-46.395811738361644,-23.610497844964456],[-46.39576561845778,-23.610563005606092],[-46.39571949855392,-23.61062816624773],[-46.395673378650066,-23.610693326889365],[-46.395673378650066,-23.610758487531],[-46.39562725874621,-23.610888808814273],[-46.39558113884235,-23.610888808814273],[-46.39558113884235,-23.61095396945591],[-46.39558113884235,-23.611019130097546],[-46.39548889903464,-23.611149451380815],[-46.39544277913078,-23.61121461202245],[-46.39539665922692,-23.611279772664087],[-46.39535053932306,-23.61141009394736],[-46.395304419419205,-23.611475254588996],[-46.39521217961149,-23.611540415230632],[-46.395166059707634,-23.611670736513904],[-46.39511993980378,-23.611931379080445],[-46.3949815800922,-23.612517824855168],[-46.39507381989992,-23.612778467421712],[-46.395304419419205,-23.6132997525548],[-46.39535053932306,-23.613755877046252],[-46.395304419419205,-23.61388619832952],[-46.39535053932306,-23.61408168025443],[-46.39548889903464,-23.614277162179338],[-46.395535018938496,-23.614342322820974],[-46.395535018938496,-23.614472644104247],[-46.39548889903464,-23.61453780474588],[-46.39548889903464,-23.614602965387515],[-46.39548889903464,-23.61466812602915],[-46.395535018938496,-23.61466812602915],[-46.39590397816936,-23.614993929237333],[-46.39599621797707,-23.61505908987897],[-46.39604233788093,-23.615124250520605],[-46.396088457784785,-23.615124250520605],[-46.396180697592506,-23.615124250520605],[-46.39622681749636,-23.615189411162238],[-46.39636517720793,-23.615189411162238],[-46.39641129711179,-23.615254571803874],[-46.39664189663108,-23.615384893087146],[-46.396964735958086,-23.61551521437042],[-46.39714921557351,-23.615580375012055],[-46.39733369518895,-23.61564553565369],[-46.39742593499666,-23.615710696295327],[-46.39756429470823,-23.6158410175786],[-46.397610414612096,-23.615775856936963],[-46.39765653451595,-23.615450053728782],[-46.397610414612096,-23.615254571803874],[-46.397610414612096,-23.615189411162238],[-46.397610414612096,-23.615124250520605],[-46.39756429470823,-23.614993929237333],[-46.39747205490052,-23.61486360795406],[-46.39742593499666,-23.614733286670788],[-46.39742593499666,-23.614602965387515],[-46.397379815092805,-23.61453780474588],[-46.39728757528509,-23.614472644104247],[-46.397241455381234,-23.614342322820974],[-46.397241455381234,-23.614277162179338],[-46.397241455381234,-23.6142120015377],[-46.39728757528509,-23.6142120015377],[-46.39728757528509,-23.614146840896066],[-46.39728757528509,-23.61408168025443],[-46.39733369518895,-23.61408168025443],[-46.39733369518895,-23.614016519612793],[-46.39733369518895,-23.613951358971157],[-46.397379815092805,-23.61388619832952],[-46.397379815092805,-23.613821037687888],[-46.39742593499666,-23.613755877046252],[-46.39747205490052,-23.613690716404616],[-46.397518174804375,-23.61362555576298],[-46.397518174804375,-23.613560395121343],[-46.39756429470823,-23.613560395121343],[-46.39756429470823,-23.613495234479707],[-46.397610414612096,-23.61343007383807],[-46.397610414612096,-23.613364913196435],[-46.39765653451595,-23.6132997525548],[-46.39765653451595,-23.613234591913162],[-46.39770265441981,-23.613169431271526],[-46.39774877432367,-23.613104270629893],[-46.39774877432367,-23.613039109988257],[-46.39774877432367,-23.61297394934662],[-46.39774877432367,-23.612908788704985],[-46.39774877432367,-23.61284362806335],[-46.39779489422752,-23.61284362806335],[-46.39779489422752,-23.612778467421712],[-46.39779489422752,-23.612713306780076],[-46.39779489422752,-23.61264814613844],[-46.39779489422752,-23.612582985496804],[-46.39784101413138,-23.612517824855168],[-46.39788713403524,-23.612517824855168],[-46.39788713403524,-23.612452664213535],[-46.39797937384296,-23.6123875035719],[-46.398025493746815,-23.612322342930263],[-46.39807161365067,-23.612322342930263],[-46.39811773355453,-23.612322342930263],[-46.39811773355453,-23.612257182288626],[-46.398163853458385,-23.612257182288626],[-46.39820997336224,-23.612257182288626],[-46.39820997336224,-23.61219202164699],[-46.3982560932661,-23.61219202164699],[-46.3982560932661,-23.612126861005354],[-46.3982560932661,-23.612061700363718],[-46.3982560932661,-23.61199653972208],[-46.398302213169956,-23.61199653972208],[-46.398302213169956,-23.611931379080445],[-46.39834833307382,-23.611931379080445],[-46.39834833307382,-23.61186621843881],[-46.398394452977676,-23.61186621843881],[-46.398394452977676,-23.611801057797177],[-46.39844057288153,-23.611801057797177],[-46.39844057288153,-23.61173589715554],[-46.39848669278539,-23.61173589715554],[-46.39848669278539,-23.611670736513904],[-46.398578932593104,-23.611670736513904],[-46.39862505249696,-23.611605575872268],[-46.39867117240082,-23.611605575872268],[-46.39871729230468,-23.611605575872268],[-46.39871729230468,-23.611540415230632],[-46.39876341220854,-23.611540415230632],[-46.39876341220854,-23.611475254588996],[-46.398809532112395,-23.611475254588996],[-46.39885565201625,-23.611475254588996],[-46.39885565201625,-23.61141009394736],[-46.39890177192011,-23.61141009394736],[-46.398947891823966,-23.61141009394736],[-46.398947891823966,-23.611344933305723],[-46.39899401172782,-23.611279772664087],[-46.39904013163168,-23.61121461202245],[-46.39904013163168,-23.611149451380815],[-46.39908625153554,-23.611084290739182],[-46.3991323714394,-23.611084290739182],[-46.3991323714394,-23.611019130097546],[-46.39917849134326,-23.611019130097546],[-46.399224611247114,-23.611019130097546],[-46.39927073115097,-23.61095396945591],[-46.39931685105483,-23.61095396945591],[-46.399362970958684,-23.61095396945591],[-46.399362970958684,-23.610888808814273],[-46.39940909086254,-23.610888808814273],[-46.399362970958684,-23.610888808814273],[-46.39940909086254,-23.610888808814273],[-46.39940909086254,-23.610823648172637],[-46.399455210766405,-23.610823648172637],[-46.39950133067026,-23.610758487531],[-46.39954745057412,-23.610758487531],[-46.39954745057412,-23.610693326889365],[-46.399593570477975,-23.610693326889365],[-46.39963969038183,-23.610693326889365],[-46.39963969038183,-23.61062816624773],[-46.39968581028569,-23.61062816624773],[-46.399731930189546,-23.61062816624773],[-46.3997780500934,-23.61062816624773],[-46.39982416999727,-23.61062816624773],[-46.39987028990112,-23.61062816624773],[-46.39991640980498,-23.61062816624773],[-46.39991640980498,-23.610563005606092],[-46.39996252970884,-23.610563005606092],[-46.400008649612694,-23.610497844964456],[-46.40005476951655,-23.610497844964456],[-46.40005476951655,-23.610432684322824],[-46.40010088942041,-23.610432684322824],[-46.40010088942041,-23.610367523681187],[-46.40005476951655,-23.610367523681187],[-46.400008649612694,-23.610367523681187],[-46.400008649612694,-23.61030236303955],[-46.40005476951655,-23.61030236303955],[-46.40010088942041,-23.61030236303955],[-46.40010088942041,-23.610237202397915],[-46.400147009324265,-23.610237202397915],[-46.40010088942041,-23.610237202397915],[-46.40010088942041,-23.61017204175628],[-46.40010088942041,-23.610106881114643],[-46.400147009324265,-23.610106881114643],[-46.40019312922813,-23.610106881114643],[-46.400239249131985,-23.610041720473006],[-46.40028536903584,-23.610041720473006],[-46.4003314889397,-23.610041720473006],[-46.4003314889397,-23.60997655983137],[-46.400377608843556,-23.60997655983137],[-46.40042372874741,-23.60997655983137],[-46.40042372874741,-23.609911399189734],[-46.40046984865127,-23.609911399189734],[-46.400515968555126,-23.609911399189734],[-46.40056208845899,-23.609911399189734],[-46.40060820836285,-23.609846238548098],[-46.40060820836285,-23.609781077906465],[-46.400654328266704,-23.609781077906465],[-46.400654328266704,-23.60971591726483],[-46.40070044817056,-23.60971591726483],[-46.40074656807442,-23.60971591726483],[-46.400792687978274,-23.609650756623193],[-46.40083880788213,-23.609650756623193],[-46.40088492778599,-23.609650756623193],[-46.40088492778599,-23.609585595981557],[-46.40093104768985,-23.609585595981557],[-46.40097716759371,-23.609585595981557],[-46.401023287497566,-23.609585595981557],[-46.40106940740142,-23.60952043533992],[-46.40111552730528,-23.60952043533992],[-46.401161647209136,-23.60952043533992],[-46.401161647209136,-23.609455274698284],[-46.40120776711299,-23.609455274698284],[-46.40125388701685,-23.609390114056648],[-46.401300006920714,-23.609390114056648],[-46.401300006920714,-23.609324953415012],[-46.40134612682457,-23.609324953415012],[-46.40139224672843,-23.609259792773376],[-46.401438366632284,-23.609259792773376],[-46.40148448653614,-23.609259792773376],[-46.40153060644,-23.609259792773376],[-46.40153060644,-23.60919463213174],[-46.401576726343855,-23.60919463213174],[-46.40162284624772,-23.60919463213174],[-46.401668966151576,-23.609129471490103],[-46.40171508605543,-23.609129471490103],[-46.40176120595929,-23.609129471490103],[-46.401807325863146,-23.60906431084847],[-46.401853445767,-23.60906431084847],[-46.40189956567086,-23.60906431084847],[-46.40189956567086,-23.608999150206834],[-46.40194568557472,-23.608999150206834],[-46.40199180547858,-23.608999150206834],[-46.40199180547858,-23.608933989565198],[-46.40203792538244,-23.608868828923562],[-46.40203792538244,-23.608803668281926],[-46.40199180547858,-23.608803668281926],[-46.40199180547858,-23.60873850764029],[-46.40203792538244,-23.60873850764029],[-46.40203792538244,-23.608673346998653],[-46.402084045286294,-23.608673346998653],[-46.40213016519015,-23.608673346998653],[-46.40217628509401,-23.608673346998653],[-46.402222404997865,-23.608673346998653],[-46.402222404997865,-23.608608186357017],[-46.40226852490172,-23.608608186357017],[-46.40226852490172,-23.60854302571538],[-46.40226852490172,-23.608477865073745],[-46.40231464480558,-23.608477865073745],[-46.40236076470944,-23.608477865073745],[-46.4024068846133,-23.608477865073745],[-46.4024068846133,-23.608412704432112],[-46.402453004517156,-23.608412704432112],[-46.40249912442101,-23.608412704432112],[-46.40254524432487,-23.608347543790476],[-46.402591364228726,-23.608347543790476],[-46.40263748413258,-23.608347543790476],[-46.40263748413258,-23.60828238314884],[-46.40268360403644,-23.608217222507204],[-46.40268360403644,-23.608152061865567],[-46.402729723940304,-23.608152061865567],[-46.40277584384416,-23.608152061865567],[-46.40282196374802,-23.60808690122393],[-46.402868083651875,-23.60808690122393],[-46.40291420355573,-23.60808690122393],[-46.40296032345959,-23.60808690122393],[-46.403006443363445,-23.60808690122393],[-46.4030525632673,-23.60808690122393],[-46.4030525632673,-23.608021740582295],[-46.403098683171166,-23.608021740582295],[-46.40314480307502,-23.60795657994066],[-46.40319092297888,-23.60795657994066],[-46.403237042882736,-23.607891419299023],[-46.40328316278659,-23.607891419299023],[-46.40332928269045,-23.607891419299023],[-46.40337540259431,-23.607826258657386],[-46.403421522498164,-23.607826258657386],[-46.403421522498164,-23.607761098015754],[-46.40346764240203,-23.607761098015754],[-46.403513762305884,-23.607695937374118],[-46.40355988220974,-23.607695937374118],[-46.40355988220974,-23.60763077673248],[-46.4036060021136,-23.60763077673248],[-46.4036060021136,-23.607565616090845],[-46.403652122017455,-23.607565616090845],[-46.403652122017455,-23.60750045544921],[-46.40369824192131,-23.60750045544921],[-46.40374436182517,-23.60750045544921],[-46.403790481729025,-23.60750045544921],[-46.40383660163289,-23.607435294807573],[-46.403882721536746,-23.607435294807573],[-46.4039288414406,-23.607435294807573],[-46.40397496134446,-23.607435294807573],[-46.40402108124832,-23.607370134165937],[-46.40406720115217,-23.607370134165937],[-46.40406720115217,-23.6073049735243],[-46.40406720115217,-23.607239812882664],[-46.40411332105603,-23.607239812882664],[-46.40411332105603,-23.607174652241028],[-46.40415944095989,-23.607109491599395],[-46.40420556086375,-23.607109491599395],[-46.40425168076761,-23.60704433095776],[-46.404297800671465,-23.60704433095776],[-46.40434392057532,-23.60704433095776],[-46.40439004047918,-23.60704433095776],[-46.404436160383035,-23.60704433095776],[-46.40448228028689,-23.60704433095776],[-46.40452840019075,-23.60704433095776],[-46.40452840019075,-23.606979170316123],[-46.40457452009461,-23.606979170316123],[-46.40457452009461,-23.606914009674487],[-46.40466675990233,-23.60684884903285],[-46.40466675990233,-23.606783688391214],[-46.40471287980618,-23.606783688391214],[-46.40471287980618,-23.606718527749578],[-46.40475899971004,-23.606718527749578],[-46.4048051196139,-23.606653367107942],[-46.4048051196139,-23.606588206466306],[-46.4048051196139,-23.60652304582467],[-46.40475899971004,-23.60652304582467],[-46.40471287980618,-23.60652304582467],[-46.40471287980618,-23.606457885183033],[-46.40471287980618,-23.6063927245414],[-46.40471287980618,-23.606327563899764],[-46.40475899971004,-23.606327563899764],[-46.40475899971004,-23.60626240325813],[-46.4048051196139,-23.60626240325813],[-46.404851239517754,-23.60626240325813],[-46.40489735942161,-23.606197242616492],[-46.40489735942161,-23.606132081974856],[-46.404943479325475,-23.60606692133322],[-46.404943479325475,-23.606001760691584],[-46.40498959922933,-23.606001760691584],[-46.40498959922933,-23.605936600049947],[-46.40498959922933,-23.60587143940831],[-46.40503571913319,-23.605806278766675],[-46.40503571913319,-23.605741118125042],[-46.405081839037045,-23.605741118125042],[-46.40503571913319,-23.605741118125042],[-46.40503571913319,-23.605675957483406],[-46.405081839037045,-23.605675957483406],[-46.4051279589409,-23.605675957483406],[-46.40517407884476,-23.605675957483406],[-46.405220198748616,-23.605675957483406],[-46.40526631865247,-23.605675957483406],[-46.40526631865247,-23.60561079684177],[-46.40531243855634,-23.60561079684177],[-46.40535855846019,-23.605545636200134],[-46.40540467836405,-23.605545636200134],[-46.40540467836405,-23.605480475558497],[-46.40545079826791,-23.605480475558497],[-46.40545079826791,-23.60541531491686],[-46.405496918171764,-23.60541531491686],[-46.40554303807562,-23.605350154275225],[-46.40558915797948,-23.605350154275225],[-46.405635277883334,-23.60528499363359],[-46.4056813977872,-23.60528499363359],[-46.4056813977872,-23.605219832991953],[-46.40577363759491,-23.605154672350317],[-46.40577363759491,-23.605089511708684],[-46.40581975749877,-23.605024351067048],[-46.405865877402626,-23.605024351067048],[-46.405865877402626,-23.60495919042541],[-46.40591199730648,-23.60495919042541],[-46.40595811721034,-23.604894029783775],[-46.406004237114196,-23.604894029783775],[-46.40605035701806,-23.604894029783775],[-46.40609647692192,-23.604894029783775],[-46.40609647692192,-23.60482886914214],[-46.406142596825774,-23.60482886914214],[-46.40618871672963,-23.60482886914214],[-46.40623483663349,-23.60482886914214],[-46.406280956537344,-23.60482886914214],[-46.4063270764412,-23.60482886914214],[-46.40637319634506,-23.60482886914214],[-46.40637319634506,-23.604894029783775],[-46.40641931624892,-23.604894029783775],[-46.40641931624892,-23.60482886914214],[-46.40646543615278,-23.60482886914214],[-46.406511556056635,-23.60482886914214],[-46.40655767596049,-23.60482886914214],[-46.40655767596049,-23.604763708500503],[-46.40655767596049,-23.604698547858867],[-46.40660379586435,-23.604698547858867],[-46.40660379586435,-23.60463338721723],[-46.406649915768206,-23.604568226575594],[-46.40669603567206,-23.604568226575594],[-46.40674215557593,-23.604568226575594],[-46.406788275479784,-23.604568226575594],[-46.406788275479784,-23.60463338721723],[-46.40683439538364,-23.60463338721723],[-46.4068805152875,-23.60463338721723],[-46.40697275509521,-23.60463338721723],[-46.40701887499907,-23.60463338721723],[-46.407064994902925,-23.60463338721723],[-46.40711111480679,-23.604568226575594],[-46.407157234710645,-23.604568226575594],[-46.40724947451836,-23.604568226575594],[-46.40734171432607,-23.604503065933958],[-46.40738783422993,-23.604503065933958],[-46.407433954133786,-23.604503065933958],[-46.40748007403765,-23.604437905292322],[-46.40752619394151,-23.60437274465069],[-46.407572313845364,-23.604307584009053],[-46.40761843374922,-23.604307584009053],[-46.40761843374922,-23.604242423367417],[-46.40766455365308,-23.604242423367417],[-46.40766455365308,-23.60417726272578],[-46.407710673556934,-23.60417726272578],[-46.40775679346079,-23.60417726272578],[-46.40780291336465,-23.604112102084144],[-46.40784903326851,-23.604112102084144],[-46.40789515317237,-23.604112102084144],[-46.407941273076226,-23.604112102084144],[-46.40798739298008,-23.604112102084144],[-46.40798739298008,-23.60404694144251],[-46.40803351288394,-23.60404694144251],[-46.408079632787796,-23.60404694144251],[-46.408079632787796,-23.603981780800872],[-46.40812575269165,-23.603981780800872],[-46.40812575269165,-23.603916620159236],[-46.40817187259551,-23.6038514595176],[-46.408217992499374,-23.6038514595176],[-46.408217992499374,-23.603786298875963],[-46.40826411240323,-23.603786298875963],[-46.40831023230709,-23.60372113823433],[-46.408356352210944,-23.60372113823433],[-46.4084024721148,-23.603655977592695],[-46.40844859201866,-23.603655977592695],[-46.408494711922515,-23.60359081695106],[-46.40854083182637,-23.60359081695106],[-46.408586951730236,-23.60359081695106],[-46.40863307163409,-23.60359081695106],[-46.40867919153795,-23.603525656309422],[-46.408725311441806,-23.603525656309422],[-46.40877143134566,-23.603525656309422],[-46.40881755124952,-23.603525656309422],[-46.40886367115338,-23.603525656309422],[-46.40890979105723,-23.603525656309422],[-46.40890979105723,-23.603460495667786],[-46.4089559109611,-23.603460495667786],[-46.409002030864954,-23.603460495667786],[-46.40904815076881,-23.603460495667786],[-46.40909427067267,-23.603460495667786],[-46.409140390576525,-23.603460495667786],[-46.40918651048038,-23.603460495667786],[-46.40923263038424,-23.60339533502615],[-46.409278750288095,-23.60339533502615],[-46.40932487019196,-23.60339533502615],[-46.409370990095816,-23.603330174384514],[-46.40941710999967,-23.603330174384514],[-46.40946322990353,-23.603330174384514],[-46.40950934980739,-23.603330174384514],[-46.40955546971124,-23.603330174384514],[-46.4096015896151,-23.603265013742877],[-46.40964770951896,-23.603265013742877],[-46.40969382942282,-23.603265013742877],[-46.409786069230535,-23.603265013742877],[-46.40987830903825,-23.60319985310124],[-46.40997054884596,-23.60319985310124],[-46.41006278865368,-23.603134692459605],[-46.41020114836525,-23.603134692459605],[-46.41024726826911,-23.603069531817972],[-46.41029338817297,-23.603069531817972],[-46.41038562798068,-23.603069531817972],[-46.410431747884545,-23.603134692459605],[-46.4104778677884,-23.603134692459605],[-46.41052398769226,-23.603134692459605],[-46.410570107596115,-23.603134692459605],[-46.41061622749997,-23.603069531817972],[-46.41061622749997,-23.603004371176336],[-46.41066234740383,-23.6029392105347],[-46.41066234740383,-23.602874049893064],[-46.410708467307686,-23.602808889251428],[-46.410708467307686,-23.60274372860979],[-46.41075458721154,-23.60274372860979],[-46.410800707115406,-23.602678567968155],[-46.41084682701926,-23.60261340732652],[-46.41089294692312,-23.60261340732652],[-46.41093906682698,-23.60261340732652],[-46.410985186730834,-23.60261340732652],[-46.41103130663469,-23.60261340732652],[-46.41103130663469,-23.602678567968155],[-46.41107742653855,-23.602678567968155],[-46.411123546442404,-23.602678567968155],[-46.41116966634627,-23.602678567968155],[-46.411215786250125,-23.602678567968155],[-46.41126190615398,-23.602678567968155],[-46.41130802605784,-23.602678567968155],[-46.411354145961695,-23.602678567968155],[-46.41140026586555,-23.602678567968155],[-46.41144638576941,-23.602678567968155],[-46.411492505673266,-23.602678567968155],[-46.41153862557713,-23.602678567968155],[-46.41158474548099,-23.60261340732652],[-46.41163086538484,-23.60261340732652],[-46.41172310519256,-23.60261340732652],[-46.411769225096414,-23.60261340732652],[-46.41181534500027,-23.60261340732652],[-46.411861464904135,-23.60261340732652],[-46.41190758480799,-23.602548246684883],[-46.411999824615705,-23.602548246684883],[-46.41204594451956,-23.602548246684883],[-46.41209206442342,-23.602483086043247],[-46.412138184327276,-23.60241792540161],[-46.41218430423113,-23.60241792540161],[-46.412230424135,-23.60241792540161],[-46.41227654403885,-23.60241792540161],[-46.41227654403885,-23.602483086043247],[-46.41232266394271,-23.602483086043247],[-46.41232266394271,-23.602548246684883],[-46.41236878384657,-23.602548246684883],[-46.412414903750424,-23.602548246684883],[-46.41246102365428,-23.602548246684883],[-46.41250714355814,-23.602548246684883],[-46.412553263461994,-23.602548246684883],[-46.41259938336586,-23.602548246684883],[-46.41259938336586,-23.602483086043247],[-46.412645503269715,-23.602483086043247],[-46.412645503269715,-23.60241792540161],[-46.41269162317357,-23.602352764759978],[-46.41269162317357,-23.60228760411834],[-46.41269162317357,-23.602222443476705],[-46.41273774307743,-23.60215728283507],[-46.41282998288514,-23.60215728283507],[-46.412876102789,-23.60215728283507],[-46.412922222692856,-23.60215728283507],[-46.412922222692856,-23.602092122193433],[-46.41296834259672,-23.602092122193433],[-46.413060582404434,-23.602092122193433],[-46.413060582404434,-23.602026961551797],[-46.41310670230829,-23.60196180091016],[-46.41310670230829,-23.601896640268524],[-46.41310670230829,-23.601831479626888],[-46.41315282221215,-23.601766318985252],[-46.41315282221215,-23.60170115834362],[-46.41324506201986,-23.601570837060347],[-46.41329118192372,-23.60150567641871],[-46.41333730182758,-23.601440515777075],[-46.41338342173144,-23.60137535513544],[-46.41347566153915,-23.60137535513544],[-46.41352178144301,-23.601310194493802],[-46.41361402125072,-23.601245033852166],[-46.413706261058444,-23.60117987321053],[-46.41379850086616,-23.60104955192726],[-46.41389074067387,-23.60091923064399],[-46.41393686057773,-23.600854070002352],[-46.413982980481585,-23.600788909360716],[-46.413982980481585,-23.600658588077444],[-46.413982980481585,-23.600593427435808],[-46.41402910038544,-23.60052826679417],[-46.414075220289305,-23.600332784869266],[-46.414075220289305,-23.60026762422763],[-46.414075220289305,-23.600202463585994],[-46.414075220289305,-23.600137302944358],[-46.41412134019316,-23.60007214230272],[-46.41412134019316,-23.600006981661085],[-46.41416746009702,-23.599876660377813],[-46.41412134019316,-23.599876660377813],[-46.41416746009702,-23.599811499736177],[-46.41416746009702,-23.59974633909454],[-46.414213580000876,-23.59974633909454],[-46.414213580000876,-23.59961601781127],[-46.41425969990473,-23.59961601781127],[-46.414351939712446,-23.599550857169636],[-46.4143980596163,-23.599485696528],[-46.414490299424024,-23.599420535886363],[-46.414490299424024,-23.599355375244727],[-46.41453641932788,-23.59929021460309],[-46.41458253923174,-23.59929021460309],[-46.41458253923174,-23.599225053961455],[-46.414628659135595,-23.599225053961455],[-46.414767018847165,-23.599094732678182],[-46.41481313875103,-23.59902957203655],[-46.414859258654886,-23.598899250753277],[-46.41490537855874,-23.598768929470005],[-46.4149514984626,-23.598768929470005],[-46.414997618366456,-23.59870376882837],[-46.41504373827031,-23.59870376882837],[-46.41508985817417,-23.598638608186732],[-46.41508985817417,-23.598573447545096],[-46.41504373827031,-23.59850828690346],[-46.41504373827031,-23.598377965620188],[-46.41508985817417,-23.59824764433692],[-46.41508985817417,-23.598117323053646],[-46.41518209798189,-23.5978566804871],[-46.41518209798189,-23.597661198562196],[-46.41522821788575,-23.597530877278924],[-46.41522821788575,-23.597465716637288],[-46.415274337789604,-23.59740055599565],[-46.415274337789604,-23.597335395354015],[-46.41532045769346,-23.597335395354015],[-46.415412697501175,-23.597205074070743],[-46.41545881740503,-23.597205074070743],[-46.41545881740503,-23.597139913429107],[-46.41550493730889,-23.597009592145838],[-46.41559717711661,-23.596879270862566],[-46.415643297020466,-23.59681411022093],[-46.41568941692432,-23.596748949579293],[-46.41573553682818,-23.596748949579293],[-46.41582777663589,-23.596683788937657],[-46.41596613634747,-23.596683788937657],[-46.416058376155185,-23.596683788937657],[-46.416196735866755,-23.596683788937657],[-46.41624285577061,-23.596748949579293],[-46.41638121548219,-23.596748949579293],[-46.41642733538605,-23.596748949579293],[-46.41642733538605,-23.596683788937657],[-46.41642733538605,-23.59661862829602],[-46.41642733538605,-23.596553467654385],[-46.41638121548219,-23.59648830701275],[-46.416288975674476,-23.59648830701275],[-46.41624285577061,-23.596423146371112],[-46.4161506159629,-23.596292825087843],[-46.41610449605904,-23.596227664446207],[-46.41601225625133,-23.59616250380457],[-46.41601225625133,-23.596097343162935],[-46.41601225625133,-23.595967021879662],[-46.41601225625133,-23.595901861238026],[-46.416058376155185,-23.59583670059639],[-46.41610449605904,-23.595771539954754],[-46.416196735866755,-23.59557605802985],[-46.41624285577061,-23.595510897388213],[-46.416288975674476,-23.59538057610494],[-46.41633509557833,-23.595250254821668],[-46.41638121548219,-23.59518509418003],[-46.4164734552899,-23.59505477289676],[-46.41651957519376,-23.594989612255127],[-46.41665793490534,-23.594859290971854],[-46.416704054809195,-23.594663809046946],[-46.41675017471305,-23.594663809046946],[-46.41688853442462,-23.594468327122037],[-46.4170268941362,-23.594272845197132],[-46.41716525384777,-23.59414252391386],[-46.417257493655484,-23.594012202630587],[-46.41781093250178,-23.59336059621423],[-46.41794929221335,-23.59316511428932],[-46.41799541211721,-23.593099953647684],[-46.41799541211721,-23.593034793006048],[-46.418041532021064,-23.59290447172278],[-46.418133771828785,-23.592839311081143],[-46.41817989173264,-23.592774150439507],[-46.4182260116365,-23.592774150439507]]]}}]}