{"type":"FeatureCollection","features":[{"type":"Feature","properties":{"DATA_ULT_A":"2009/10/09","DATA_CRIAC":"2009/10/09","id":22,"name":"Ermelino Matarazzo","area":15.1,"pop_2010":207509,"pop_density_2010":13742,"budget_2015":33418246},"geometry":{"type":"Polygon","coordinates":[[[-46.50004272108011,-23.47704885089423],[-46.496122529252204,-23.476397244477873],[-46.49538461079048,-23.4762669231946],[-46.49487729184805,-23.476201762552964],[-46.49478505204033,-23.47613660191133],[-46.49473893213647,-23.47613660191133],[-46.49464669232876,-23.47613660191133],[-46.4946005724249,-23.47613660191133],[-46.494277733097896,-23.476071441269692],[-46.49400101367475,-23.476006280628056],[-46.4937242942516,-23.476006280628056],[-46.49358593454003,-23.476071441269692],[-46.493401454924594,-23.476071441269692],[-46.49335533502074,-23.476071441269692],[-46.493263095213024,-23.47613660191133],[-46.492986375789876,-23.476201762552964],[-46.49257129665516,-23.47646240511951],[-46.49234069713587,-23.476527565761145],[-46.49201785780887,-23.476657887044418],[-46.49197173790501,-23.47672304768605],[-46.49169501848186,-23.476788208327687],[-46.49123381944329,-23.47691852961096],[-46.490864860212426,-23.476983690252595],[-46.49081874030856,-23.476983690252595],[-46.49068038059699,-23.47704885089423],[-46.490634260693135,-23.47704885089423],[-46.49017306165456,-23.477179172177504],[-46.48938902328898,-23.47750497538568],[-46.4892506635774,-23.47750497538568],[-46.489204543673544,-23.477570136027317],[-46.48883558444268,-23.477635296668954],[-46.48865110482725,-23.47770045731059],[-46.488420505307964,-23.477635296668954],[-46.48837438540411,-23.477635296668954],[-46.48832826550025,-23.477635296668954],[-46.48795930626939,-23.477570136027317],[-46.4877287067501,-23.47750497538568],[-46.48759034703853,-23.47750497538568],[-46.487498107230806,-23.47750497538568],[-46.48708302809609,-23.47737465410241],[-46.48703690819223,-23.47737465410241],[-46.486714068865226,-23.477309493460776],[-46.48616063001894,-23.477179172177504],[-46.48602227030736,-23.477179172177504],[-46.485930030499645,-23.477114011535868],[-46.48588391059579,-23.477114011535868],[-46.48546883146107,-23.477114011535868],[-46.48496151251863,-23.47704885089423],[-46.484500313480055,-23.476983690252595],[-46.48413135424919,-23.476983690252595],[-46.48362403530676,-23.47691852961096],[-46.48320895617204,-23.476983690252595],[-46.48302447655661,-23.476983690252595],[-46.48274775713346,-23.47691852961096],[-46.48256327751803,-23.47691852961096],[-46.4823787979026,-23.47691852961096],[-46.482286558094884,-23.47691852961096],[-46.48210207847946,-23.47691852961096],[-46.481871478960166,-23.476983690252595],[-46.48177923915245,-23.476983690252595],[-46.48159475953702,-23.47691852961096],[-46.48141027992159,-23.47691852961096],[-46.4811796804023,-23.476983690252595],[-46.480856841075294,-23.476983690252595],[-46.48067236145987,-23.476983690252595],[-46.48034952213286,-23.476983690252595],[-46.480072802709714,-23.476983690252595],[-46.48002668280586,-23.476983690252595],[-46.479888323094286,-23.476983690252595],[-46.47974996338271,-23.47704885089423],[-46.47915040463256,-23.47737465410241],[-46.47864308569012,-23.477635296668954],[-46.47799740703611,-23.477765617952226],[-46.476936649247385,-23.4778959392355],[-46.47629097059338,-23.478026260518767],[-46.475875891458664,-23.478091421160403],[-46.47527633270851,-23.47835206372695],[-46.47453841424679,-23.47867786693513],[-46.47384661568892,-23.47893850950167],[-46.47278585790019,-23.479524955276393],[-46.472094059342325,-23.47991591912621],[-46.471310020976745,-23.48037204361766],[-46.470525982611164,-23.480632686184205],[-46.470110903476446,-23.48082816810911],[-46.46955746463015,-23.481088810675654],[-46.46951134472629,-23.481088810675654],[-46.46955746463015,-23.481219131958927],[-46.46964970443787,-23.481414613883832],[-46.46969582434173,-23.481675256450377],[-46.46978806414944,-23.48193589901692],[-46.4698341840533,-23.482131380941826],[-46.469880303957154,-23.4822617022251],[-46.46997254376487,-23.482522344791644],[-46.46997254376487,-23.48258750543328],[-46.47006478357259,-23.48284814799982],[-46.47006478357259,-23.482913308641457],[-46.47020314328416,-23.483173951208002],[-46.47029538309187,-23.483173951208002],[-46.47043374280345,-23.483108790566366],[-46.470525982611164,-23.483108790566366],[-46.470664342322735,-23.48304362992473],[-46.470756582130456,-23.48304362992473],[-46.470894941842026,-23.482978469283093],[-46.4710333015536,-23.482978469283093],[-46.47112554136132,-23.482978469283093],[-46.47121778116903,-23.482978469283093],[-46.4713561408806,-23.482978469283093],[-46.4713561408806,-23.48304362992473],[-46.4713561408806,-23.483108790566366],[-46.471310020976745,-23.483239111849638],[-46.47121778116903,-23.483434593774543],[-46.47121778116903,-23.48349975441618],[-46.47112554136132,-23.483564915057816],[-46.4710333015536,-23.483695236341088],[-46.47084882193817,-23.48382555762436],[-46.47061822241888,-23.48402103954927],[-46.470387622899594,-23.484216521474174],[-46.47020314328416,-23.484412003399083],[-46.47001866366873,-23.484542324682355],[-46.469880303957154,-23.484672645965627],[-46.46978806414944,-23.484737806607264],[-46.46969582434173,-23.484802967248896],[-46.469603584534006,-23.48493328853217],[-46.469465224822436,-23.484998449173805],[-46.46941910491858,-23.48506360981544],[-46.46937298501472,-23.485128770457077],[-46.469326865110865,-23.485128770457077],[-46.469326865110865,-23.485193931098713],[-46.46928074520701,-23.485193931098713],[-46.469234625303145,-23.48525909174035],[-46.469234625303145,-23.485324252381986],[-46.46918850539929,-23.485324252381986],[-46.46918850539929,-23.485389413023622],[-46.46914238549543,-23.485454573665255],[-46.469096265591574,-23.485584894948527],[-46.46905014568772,-23.485650055590163],[-46.46900402578386,-23.485845537515072],[-46.46886566607228,-23.48617134072325],[-46.46886566607228,-23.486236501364885],[-46.468819546168426,-23.48630166200652],[-46.46877342626457,-23.486431983289794],[-46.46872730636071,-23.486562304573066],[-46.468681186456855,-23.48669262585634],[-46.468635066553,-23.486757786497975],[-46.46858894664914,-23.486888107781244],[-46.46854282674528,-23.487018429064516],[-46.46849670684142,-23.48714875034779],[-46.46835834712985,-23.487539714197602],[-46.468312227225994,-23.487539714197602],[-46.468312227225994,-23.48760487483924],[-46.46826610732214,-23.487670035480875],[-46.46821998741828,-23.487800356764147],[-46.468173867514416,-23.487865517405783],[-46.46812774761056,-23.487995838689056],[-46.4680816277067,-23.488126159972325],[-46.468035507802846,-23.488256481255597],[-46.468035507802846,-23.488321641897233],[-46.468035507802846,-23.48838680253887],[-46.4680816277067,-23.488582284463778],[-46.4680816277067,-23.488647445105414],[-46.468173867514416,-23.488777766388687],[-46.46821998741828,-23.48884292703032],[-46.46826610732214,-23.48884292703032],[-46.46826610732214,-23.488908087671955],[-46.468312227225994,-23.488908087671955],[-46.46835834712985,-23.488908087671955],[-46.46840446703371,-23.488908087671955],[-46.46858894664914,-23.48897324831359],[-46.468681186456855,-23.48897324831359],[-46.46886566607228,-23.489038408955228],[-46.46895790588,-23.489038408955228],[-46.46900402578386,-23.489103569596864],[-46.46914238549543,-23.489103569596864],[-46.469326865110865,-23.4891687302385],[-46.46941910491858,-23.4891687302385],[-46.469465224822436,-23.4891687302385],[-46.46955746463015,-23.489233890880136],[-46.46969582434173,-23.489233890880136],[-46.46978806414944,-23.48936421216341],[-46.46978806414944,-23.489429372805045],[-46.4698341840533,-23.489429372805045],[-46.4698341840533,-23.489494533446678],[-46.4698341840533,-23.489559694088314],[-46.4698341840533,-23.48962485472995],[-46.4698341840533,-23.489690015371586],[-46.4698341840533,-23.48982033665486],[-46.4698341840533,-23.489885497296495],[-46.4698341840533,-23.490015818579767],[-46.4698341840533,-23.490146139863036],[-46.4698341840533,-23.490211300504672],[-46.4698341840533,-23.49027646114631],[-46.4698341840533,-23.49040678242958],[-46.46978806414944,-23.490537103712853],[-46.46978806414944,-23.490732585637762],[-46.46978806414944,-23.490797746279394],[-46.46978806414944,-23.490928067562667],[-46.46978806414944,-23.49105838884594],[-46.46978806414944,-23.491123549487575],[-46.4698341840533,-23.491253870770848],[-46.4698341840533,-23.49138419205412],[-46.4698341840533,-23.491449352695753],[-46.469880303957154,-23.491579673979025],[-46.469880303957154,-23.49164483462066],[-46.46992642386101,-23.491775155903934],[-46.46997254376487,-23.491905477187206],[-46.46997254376487,-23.491970637828842],[-46.47001866366873,-23.492100959112115],[-46.47006478357259,-23.492231280395384],[-46.47006478357259,-23.49229644103702],[-46.470110903476446,-23.492426762320292],[-46.470110903476446,-23.49249192296193],[-46.4701570233803,-23.4926222442452],[-46.4701570233803,-23.492687404886837],[-46.47020314328416,-23.492817726170106],[-46.470249263188016,-23.49294804745338],[-46.470249263188016,-23.49307836873665],[-46.47029538309187,-23.493208690019923],[-46.47029538309187,-23.49327385066156],[-46.47034150299573,-23.493469332586464],[-46.470387622899594,-23.493664814511373],[-46.470387622899594,-23.49372997515301],[-46.470387622899594,-23.493795135794645],[-46.470387622899594,-23.49386029643628],[-46.470387622899594,-23.493925457077918],[-46.470387622899594,-23.493990617719554],[-46.47034150299573,-23.49405577836119],[-46.47029538309187,-23.494120939002826],[-46.47029538309187,-23.49418609964446],[-46.470249263188016,-23.494251260286095],[-46.47020314328416,-23.494251260286095],[-46.4701570233803,-23.49431642092773],[-46.470110903476446,-23.49431642092773],[-46.47001866366873,-23.494381581569368],[-46.46992642386101,-23.494446742211004],[-46.469741944245584,-23.49451190285264],[-46.469603584534006,-23.494577063494276],[-46.46951134472629,-23.494642224135912],[-46.46941910491858,-23.494642224135912],[-46.46941910491858,-23.49470738477755],[-46.46937298501472,-23.49470738477755],[-46.469326865110865,-23.49470738477755],[-46.469326865110865,-23.494772545419185],[-46.46928074520701,-23.494772545419185],[-46.469234625303145,-23.494837706060817],[-46.46918850539929,-23.494837706060817],[-46.469096265591574,-23.494902866702454],[-46.46905014568772,-23.49496802734409],[-46.46900402578386,-23.495033187985726],[-46.46895790588,-23.495033187985726],[-46.46891178597615,-23.495098348627362],[-46.46886566607228,-23.495163509269],[-46.46877342626457,-23.495228669910635],[-46.468681186456855,-23.49529383055227],[-46.468681186456855,-23.495358991193907],[-46.468635066553,-23.495358991193907],[-46.46849670684142,-23.495554473118812],[-46.46840446703371,-23.495619633760448],[-46.46835834712985,-23.495684794402084],[-46.468312227225994,-23.495815115685357],[-46.46821998741828,-23.49594543696863],[-46.46821998741828,-23.4960757582519],[-46.468173867514416,-23.49620607953517],[-46.46812774761056,-23.496336400818443],[-46.46812774761056,-23.496466722101715],[-46.46812774761056,-23.496597043384988],[-46.4680816277067,-23.496792525309896],[-46.4680816277067,-23.49685768595153],[-46.4680816277067,-23.497053167876437],[-46.468035507802846,-23.497118328518074],[-46.4680816277067,-23.497248649801346],[-46.4680816277067,-23.49737897108462],[-46.468035507802846,-23.497509292367887],[-46.468035507802846,-23.497574453009523],[-46.46798938789899,-23.497704774292796],[-46.46798938789899,-23.497769934934432],[-46.46794326799513,-23.49796541685934],[-46.46794326799513,-23.498030577500977],[-46.467897148091275,-23.49816089878425],[-46.467897148091275,-23.498291220067518],[-46.46785102818742,-23.49842154135079],[-46.46785102818742,-23.498551862634063],[-46.467804908283554,-23.498682183917335],[-46.467804908283554,-23.49874734455897],[-46.4677587883797,-23.498942826483876],[-46.46771266847584,-23.499007987125513],[-46.467897148091275,-23.499138308408785],[-46.46812774761056,-23.499268629692057],[-46.468173867514416,-23.499268629692057],[-46.46821998741828,-23.499333790333694],[-46.46826610732214,-23.499333790333694],[-46.46835834712985,-23.49939895097533],[-46.46840446703371,-23.49939895097533],[-46.46849670684142,-23.499464111616966],[-46.46854282674528,-23.499464111616966],[-46.46858894664914,-23.4995292722586],[-46.468681186456855,-23.499594432900235],[-46.46877342626457,-23.499594432900235],[-46.46877342626457,-23.49965959354187],[-46.468819546168426,-23.49965959354187],[-46.46891178597615,-23.499724754183507],[-46.46900402578386,-23.499789914825143],[-46.469096265591574,-23.49985507546678],[-46.46914238549543,-23.49985507546678],[-46.469326865110865,-23.499920236108416],[-46.46937298501472,-23.499985396750052],[-46.46951134472629,-23.500115718033324],[-46.46964970443787,-23.50018087867496],[-46.469741944245584,-23.50031119995823],[-46.469880303957154,-23.500376360599866],[-46.47001866366873,-23.500506681883138],[-46.47006478357259,-23.500571842524774],[-46.470110903476446,-23.50063700316641],[-46.47020314328416,-23.500702163808047],[-46.47029538309187,-23.50083248509132],[-46.470387622899594,-23.50089764573295],[-46.47047986270731,-23.500962806374588],[-46.470525982611164,-23.501027967016224],[-46.47061822241888,-23.501158288299496],[-46.47071046222659,-23.501223448941133],[-46.470756582130456,-23.50128860958277],[-46.47094106174588,-23.50141893086604],[-46.4710333015536,-23.50154925214931],[-46.47107942145745,-23.501614412790946],[-46.47112554136132,-23.501614412790946],[-46.47112554136132,-23.501679573432583],[-46.471171661265174,-23.50174473407422],[-46.47121778116903,-23.501809894715855],[-46.47126390107289,-23.50187505535749],[-46.471310020976745,-23.501940215999127],[-46.471310020976745,-23.502005376640764],[-46.4713561408806,-23.5020705372824],[-46.471448380688315,-23.502200858565672],[-46.47149450059218,-23.50233117984894],[-46.47149450059218,-23.502396340490577],[-46.471540620496036,-23.50252666177385],[-46.47158674039989,-23.50252666177385],[-46.47163286030375,-23.502722143698758],[-46.47167898020761,-23.502787304340394],[-46.47172510011146,-23.50285246498203],[-46.47172510011146,-23.502917625623663],[-46.47177122001532,-23.5029827862653],[-46.47181733991918,-23.503047946906936],[-46.47181733991918,-23.50311310754857],[-46.47186345982304,-23.50311310754857],[-46.4719095797269,-23.50311310754857],[-46.4719095797269,-23.503178268190208],[-46.471955699630755,-23.503178268190208],[-46.47200181953461,-23.503243428831844],[-46.472094059342325,-23.50330858947348],[-46.4722324190539,-23.503438910756753],[-46.47237077876547,-23.50350407139839],[-46.47246301857319,-23.503634392681658],[-46.4725552583809,-23.503699553323294],[-46.472601378284764,-23.503699553323294],[-46.472739737996335,-23.503829874606566],[-46.47278585790019,-23.503829874606566],[-46.47292421761176,-23.50396019588984],[-46.47306257732334,-23.50409051717311],[-46.473154817131054,-23.504155677814747],[-46.47324705693877,-23.504220838456384],[-46.47333929674649,-23.504285999098016],[-46.4734315365542,-23.50441632038129],[-46.47356989626577,-23.504481481022925],[-46.473662136073486,-23.50454664166456],[-46.47375437588121,-23.504611802306197],[-46.47380049578506,-23.504676962947833],[-46.473938855496634,-23.50474212358947],[-46.474031095304355,-23.504872444872742],[-46.47412333511207,-23.504937605514375],[-46.47421557491978,-23.50500276615601],[-46.47440005453522,-23.505133087439283],[-46.47444617443907,-23.505133087439283],[-46.47449229434293,-23.505133087439283],[-46.47453841424679,-23.50519824808092],[-46.4746306540545,-23.505263408722556],[-46.474722893862214,-23.505263408722556],[-46.47476901376608,-23.505328569364192],[-46.47486125357379,-23.505328569364192],[-46.47490737347765,-23.505393730005828],[-46.474953493381506,-23.505393730005828],[-46.47504573318922,-23.505393730005828],[-46.47513797299694,-23.505458890647464],[-46.4751840929008,-23.505458890647464],[-46.475230212804654,-23.5055240512891],[-46.47541469242008,-23.505589211930733],[-46.47546081232394,-23.505589211930733],[-46.4755069322278,-23.50565437257237],[-46.475599172035515,-23.50565437257237],[-46.47569141184323,-23.505719533214005],[-46.47578365165094,-23.505719533214005],[-46.4758297715548,-23.50578469385564],[-46.475875891458664,-23.50578469385564],[-46.476014251170234,-23.505849854497278],[-46.47619873078566,-23.50598017578055],[-46.47633709049724,-23.50598017578055],[-46.476521570112666,-23.506110497063823],[-46.47656769001652,-23.506110497063823],[-46.47675216963196,-23.50617565770546],[-46.476936649247385,-23.506305978988728],[-46.477028889055106,-23.506305978988728],[-46.47707500895896,-23.506305978988728],[-46.47707500895896,-23.506371139630364],[-46.47712112886282,-23.506371139630364],[-46.47730560847825,-23.506436300272],[-46.47749008809368,-23.506501460913636],[-46.47767456770911,-23.506566621555272],[-46.477812927420686,-23.50663178219691],[-46.47795128713226,-23.50676210348018],[-46.478089646843834,-23.50676210348018],[-46.47813576674769,-23.506827264121817],[-46.47818188665155,-23.506827264121817],[-46.478089646843834,-23.50708790668836],[-46.47799740703611,-23.507544031179812],[-46.4779051672284,-23.50800015567126],[-46.47776680751683,-23.508782083370892],[-46.47753620799754,-23.509694332353792],[-46.47735172838211,-23.51067174197833],[-46.47721336867053,-23.511453669677962],[-46.477028889055106,-23.512365918660862],[-46.47689052934353,-23.513473649568674],[-46.47661380992039,-23.51542846881775],[-46.47656769001652,-23.515623950742658],[-46.47656769001652,-23.515819432667563],[-46.47656769001652,-23.515949753950835],[-46.476521570112666,-23.516145235875744],[-46.47647545020881,-23.516275557159016],[-46.47647545020881,-23.51647103908392],[-46.47642933030495,-23.51666652100883],[-46.47642933030495,-23.516796842292102],[-46.47642933030495,-23.51686200293374],[-46.476383210401096,-23.516927163575374],[-46.476383210401096,-23.517057484858643],[-46.476383210401096,-23.51712264550028],[-46.47633709049724,-23.517252966783552],[-46.47629097059338,-23.51744844870846],[-46.47629097059338,-23.517578769991733],[-46.476244850689525,-23.517774251916638],[-46.47619873078566,-23.517969733841547],[-46.47619873078566,-23.51810005512482],[-46.476152610881805,-23.518295537049728],[-46.47610649097795,-23.518491018974633],[-46.47610649097795,-23.51868650089954],[-46.47606037107409,-23.518816822182814],[-46.476014251170234,-23.519012304107722],[-46.47596813126638,-23.519207786032627],[-46.47596813126638,-23.519403267957536],[-46.47592201136252,-23.519533589240808],[-46.475875891458664,-23.519729071165713],[-46.475875891458664,-23.519924553090622],[-46.4758297715548,-23.52012003501553],[-46.47578365165094,-23.520250356298803],[-46.47578365165094,-23.520445838223708],[-46.475737531747086,-23.520641320148616],[-46.47569141184323,-23.52077164143189],[-46.47564529193937,-23.520967123356797],[-46.47564529193937,-23.521162605281702],[-46.475599172035515,-23.52135808720661],[-46.47555305213166,-23.52155356913152],[-46.47555305213166,-23.521749051056425],[-46.4755069322278,-23.52181421169806],[-46.4755069322278,-23.52200969362297],[-46.47546081232394,-23.522074854264606],[-46.47546081232394,-23.522205175547878],[-46.47541469242008,-23.522400657472783],[-46.475368572516224,-23.52259613939769],[-46.475368572516224,-23.522726460680964],[-46.47532245261237,-23.522856781964236],[-46.47532245261237,-23.522921942605873],[-46.47527633270851,-23.523117424530778],[-46.47527633270851,-23.52324774581405],[-46.475230212804654,-23.52344322773896],[-46.4751840929008,-23.523638709663867],[-46.4751840929008,-23.523703870305503],[-46.4751840929008,-23.523769030947136],[-46.47513797299694,-23.523834191588772],[-46.47527633270851,-23.52389935223041],[-46.475368572516224,-23.52389935223041],[-46.47555305213166,-23.523964512872045],[-46.47569141184323,-23.52402967351368],[-46.4758297715548,-23.52402967351368],[-46.4758297715548,-23.524094834155317],[-46.47606037107409,-23.524159994796953],[-46.47610649097795,-23.524159994796953],[-46.47629097059338,-23.52422515543859],[-46.47642933030495,-23.524290316080226],[-46.47661380992039,-23.524355476721862],[-46.476798289535814,-23.524420637363495],[-46.47698276915125,-23.52448579800513],[-46.477028889055106,-23.52448579800513],[-46.47721336867053,-23.524550958646767],[-46.47735172838211,-23.524616119288403],[-46.47739784828597,-23.524616119288403],[-46.47749008809368,-23.524616119288403],[-46.47767456770911,-23.52468127993004],[-46.47776680751683,-23.524746440571676],[-46.4779051672284,-23.52481160121331],[-46.47804352693997,-23.52481160121331],[-46.478228006555405,-23.524941922496584],[-46.47841248617083,-23.52500708313822],[-46.47850472597855,-23.52500708313822],[-46.47859696578627,-23.525072243779857],[-46.478781445401694,-23.52513740442149],[-46.478873685209415,-23.52513740442149],[-46.47905816482484,-23.525202565063125],[-46.47915040463256,-23.52526772570476],[-46.47933488424799,-23.525332886346398],[-46.479519363863425,-23.525398046988034],[-46.47961160367114,-23.525398046988034],[-46.47974996338271,-23.52546320762967],[-46.47993444299814,-23.525528368271306],[-46.48011892261357,-23.525593528912943],[-46.48016504251743,-23.525593528912943],[-46.480303402229005,-23.52565868955458],[-46.48048788184443,-23.525723850196215],[-46.48067236145987,-23.525789010837848],[-46.48076460126758,-23.525854171479484],[-46.48094908088301,-23.52591933212112],[-46.48104132069073,-23.52591933212112],[-46.481087440594585,-23.52591933212112],[-46.48113356049844,-23.525984492762756],[-46.4811796804023,-23.525984492762756],[-46.481225800306156,-23.525984492762756],[-46.48145639982545,-23.525984492762756],[-46.48154863963316,-23.525984492762756],[-46.481733119248595,-23.525984492762756],[-46.48182535905631,-23.526049653404392],[-46.48191759886402,-23.526049653404392],[-46.48210207847946,-23.526049653404392],[-46.48233267799874,-23.526049653404392],[-46.482424917806455,-23.526049653404392],[-46.48247103771032,-23.526049653404392],[-46.482517157614176,-23.526049653404392],[-46.48256327751803,-23.526049653404392],[-46.48260939742189,-23.526049653404392],[-46.482655517325746,-23.525984492762756],[-46.4827016372296,-23.525984492762756],[-46.48283999694118,-23.52591933212112],[-46.48297835665275,-23.525854171479484],[-46.483070596460465,-23.525789010837848],[-46.4832550760759,-23.52565868955458],[-46.48334731588361,-23.52565868955458],[-46.48348567559518,-23.525528368271306],[-46.48367015521062,-23.52546320762967],[-46.48376239501833,-23.525398046988034],[-46.4839007547299,-23.525332886346398],[-46.48399299453762,-23.52526772570476],[-46.48403911444148,-23.52526772570476],[-46.484085234345336,-23.52526772570476],[-46.48413135424919,-23.52526772570476],[-46.48417747415305,-23.52526772570476],[-46.484361953768484,-23.525398046988034],[-46.48440807367234,-23.525398046988034],[-46.48454643338391,-23.52546320762967],[-46.48468479309549,-23.525528368271306],[-46.48482315280706,-23.525593528912943],[-46.484915392614774,-23.52565868955458],[-46.48496151251863,-23.52565868955458],[-46.48505375232635,-23.525723850196215],[-46.48523823194178,-23.525789010837848],[-46.485376591653356,-23.525854171479484],[-46.48542271155721,-23.52591933212112],[-46.48556107126878,-23.525984492762756],[-46.48560719117264,-23.525984492762756],[-46.485699430980354,-23.526049653404392],[-46.48583779069193,-23.52611481404603],[-46.485930030499645,-23.52611481404603],[-46.48602227030736,-23.526179974687665],[-46.486068390211216,-23.526179974687665],[-46.48611451011508,-23.526179974687665],[-46.48620674992279,-23.5262451353293],[-46.48625286982665,-23.5262451353293],[-46.486345109634364,-23.5262451353293],[-46.48643734944208,-23.5262451353293],[-46.486575709153655,-23.526310295970937],[-46.48676018876908,-23.526310295970937],[-46.48680630867294,-23.526310295970937],[-46.48694466838452,-23.526310295970937],[-46.486990788288374,-23.526310295970937],[-46.48708302809609,-23.526310295970937],[-46.4871752679038,-23.526310295970937],[-46.48726750771152,-23.526310295970937],[-46.487359747519235,-23.526310295970937],[-46.48745198732695,-23.5262451353293],[-46.48754422713466,-23.526179974687665],[-46.48759034703853,-23.526179974687665],[-46.4877287067501,-23.52611481404603],[-46.48782094655781,-23.525984492762756],[-46.48786706646167,-23.525984492762756],[-46.488005426173245,-23.525854171479484],[-46.4880515460771,-23.525789010837848],[-46.48809766598096,-23.525854171479484],[-46.488143785884816,-23.525854171479484],[-46.48818990578867,-23.52591933212112],[-46.48823602569253,-23.52591933212112],[-46.48823602569253,-23.525984492762756],[-46.488282145596386,-23.525984492762756],[-46.488282145596386,-23.526049653404392],[-46.48832826550025,-23.526049653404392],[-46.48832826550025,-23.52611481404603],[-46.48837438540411,-23.526179974687665],[-46.48837438540411,-23.5262451353293],[-46.488420505307964,-23.526310295970937],[-46.488420505307964,-23.526375456612573],[-46.48846662521182,-23.526375456612573],[-46.48846662521182,-23.526440617254206],[-46.48851274511568,-23.526440617254206],[-46.48851274511568,-23.526505777895842],[-46.488558865019534,-23.526505777895842],[-46.48860498492339,-23.52657093853748],[-46.48865110482725,-23.526636099179115],[-46.48865110482725,-23.52670125982075],[-46.48869722473111,-23.52670125982075],[-46.48874334463497,-23.52670125982075],[-46.48874334463497,-23.526766420462387],[-46.488789464538826,-23.526831581104023],[-46.488789464538826,-23.52689674174566],[-46.48883558444268,-23.52689674174566],[-46.48888170434654,-23.52689674174566],[-46.488927824250396,-23.526961902387296],[-46.48897394415425,-23.526961902387296],[-46.48897394415425,-23.52702706302893],[-46.48897394415425,-23.527092223670564],[-46.48902006405811,-23.527092223670564],[-46.48902006405811,-23.5271573843122],[-46.489066183961974,-23.5271573843122],[-46.48911230386583,-23.527222544953837],[-46.48911230386583,-23.527287705595473],[-46.48915842376969,-23.527287705595473],[-46.489204543673544,-23.52735286623711],[-46.4892506635774,-23.52735286623711],[-46.4892506635774,-23.527418026878745],[-46.48929678348126,-23.527418026878745],[-46.48929678348126,-23.52748318752038],[-46.489342903385115,-23.527548348162018],[-46.48938902328898,-23.527613508803654],[-46.489435143192836,-23.527613508803654],[-46.48948126309669,-23.52767866944529],[-46.48952738300055,-23.527743830086926],[-46.489573502904406,-23.527743830086926],[-46.48966574271212,-23.527743830086926],[-46.48971186261598,-23.527743830086926],[-46.48975798251984,-23.527743830086926],[-46.48994246213527,-23.527743830086926],[-46.49003470194298,-23.52767866944529],[-46.49003470194298,-23.527613508803654],[-46.49017306165456,-23.52735286623711],[-46.49040366117384,-23.52702706302893],[-46.490772620404705,-23.52657093853748],[-46.49095710002014,-23.5262451353293],[-46.491326059251,-23.525789010837848],[-46.49169501848186,-23.525332886346398],[-46.492063977712725,-23.525072243779857],[-46.49229457723201,-23.52481160121331],[-46.4930786155976,-23.52422515543859],[-46.49335533502074,-23.523964512872045],[-46.49358593454003,-23.523834191588772],[-46.494047133578604,-23.523508388380595],[-46.49436997290561,-23.52324774581405],[-46.494554452521044,-23.523052263889145],[-46.49473893213647,-23.5227916213226],[-46.49478505204033,-23.522661300039328],[-46.494923411751905,-23.522400657472783],[-46.49496953165576,-23.522140014906242],[-46.495061771463476,-23.52200969362297],[-46.49524625107891,-23.52181421169806],[-46.495476850598195,-23.521618729773156],[-46.495984169540634,-23.52135808720661],[-46.49644536857921,-23.52122776592334],[-46.49662984819464,-23.521162605281702],[-46.4969988074255,-23.521097444640066],[-46.49801344531037,-23.52077164143189],[-46.49824404482966,-23.520706480790253],[-46.499120323002956,-23.520445838223708],[-46.499627641945395,-23.520250356298803],[-46.499904361368536,-23.520185195657167],[-46.50004272108011,-23.520185195657167],[-46.50022720069554,-23.520185195657167],[-46.50036556040712,-23.520185195657167],[-46.50101123906112,-23.52031551694044],[-46.50257931579229,-23.520510998865344],[-46.50299439492701,-23.52057615950698],[-46.50345559396558,-23.520641320148616],[-46.503824553196445,-23.520641320148616],[-46.50414739252345,-23.520641320148616],[-46.504608591562025,-23.520641320148616],[-46.505115910504465,-23.52057615950698],[-46.5059460687739,-23.52057615950698],[-46.50691458675491,-23.52057615950698],[-46.50742190569735,-23.520510998865344],[-46.5076986251205,-23.520510998865344],[-46.50797534454364,-23.520445838223708],[-46.50862102319765,-23.520250356298803],[-46.50885162271694,-23.52012003501553],[-46.50958954117866,-23.519924553090622],[-46.50972790089023,-23.519924553090622],[-46.51014298002495,-23.51979423180735],[-46.5104196994481,-23.51966391052408],[-46.51065029896739,-23.519598749882444],[-46.51083477858282,-23.519533589240808],[-46.51101925819825,-23.519468428599172],[-46.51175717665998,-23.519403267957536],[-46.51221837569855,-23.5193381073159],[-46.5124950951217,-23.519272946674263],[-46.512725694640984,-23.51914262539099],[-46.51300241406413,-23.519012304107722],[-46.513233013583424,-23.518816822182814],[-46.51346361310271,-23.518621340257905],[-46.513694212622,-23.518425858332996],[-46.51387869223743,-23.518295537049728],[-46.514155411660575,-23.51810005512482],[-46.51498556993001,-23.517578769991733],[-46.515354529160874,-23.517383288066824],[-46.51590796800717,-23.51712264550028],[-46.51664588646889,-23.516796842292102],[-46.51710708550747,-23.516536199725557],[-46.51738380493062,-23.516405878442285],[-46.51775276416148,-23.516145235875744],[-46.518213963200054,-23.515949753950835],[-46.51918248118107,-23.515493629459385],[-46.51978203993122,-23.51523298689284],[-46.52038159868137,-23.51477686240139],[-46.52061219820066,-23.514581380476482],[-46.520935037527664,-23.514385898551573],[-46.52116563704695,-23.514255577268305],[-46.52111951714309,-23.514255577268305],[-46.52098115743152,-23.514255577268305],[-46.520935037527664,-23.51419041662667],[-46.52084279771995,-23.51419041662667],[-46.52070443800837,-23.514125255985032],[-46.520519958392946,-23.514125255985032],[-46.52038159868137,-23.514060095343396],[-46.52019711906594,-23.51399493470176],[-46.52005875935436,-23.51399493470176],[-46.520012639450506,-23.513929774060124],[-46.51996651954665,-23.513929774060124],[-46.51982815983508,-23.51379945277685],[-46.5196898001235,-23.513603970851946],[-46.51955144041193,-23.51353881021031],[-46.519505320508074,-23.513473649568674],[-46.519366960796496,-23.513408488927038],[-46.51932084089264,-23.5133433282854],[-46.519228601084926,-23.513278167643765],[-46.51913636127721,-23.51321300700213],[-46.5190441214695,-23.513147846360493],[-46.518998001565635,-23.513147846360493],[-46.51890576175792,-23.513082685718857],[-46.51876740204635,-23.51301752507722],[-46.518582922430916,-23.512952364435588],[-46.5184906826232,-23.51288720379395],[-46.518444562719345,-23.51288720379395],[-46.51839844281549,-23.51288720379395],[-46.51835232291163,-23.51288720379395],[-46.518306203007775,-23.51288720379395],[-46.51826008310391,-23.512822043152315],[-46.518213963200054,-23.512822043152315],[-46.518075603488484,-23.51275688251068],[-46.51798336368077,-23.512691721869043],[-46.51789112387305,-23.512626561227407],[-46.517798884065336,-23.51256140058577],[-46.51775276416148,-23.512496239944134],[-46.517660524353765,-23.512496239944134],[-46.51756828454605,-23.512431079302498],[-46.51747604473833,-23.512365918660862],[-46.51738380493062,-23.51230075801923],[-46.5172915651229,-23.512235597377593],[-46.51724544521905,-23.512170436735957],[-46.517153205411326,-23.512170436735957],[-46.51710708550747,-23.51210527609432],[-46.517014845699755,-23.51210527609432],[-46.51692260589204,-23.512040115452685],[-46.516876485988185,-23.512040115452685],[-46.51683036608433,-23.51197495481105],[-46.516784246180464,-23.51197495481105],[-46.51673812627661,-23.51197495481105],[-46.51664588646889,-23.511909794169412],[-46.51659976656504,-23.511909794169412],[-46.51650752675732,-23.511844633527776],[-46.5164152869496,-23.511844633527776],[-46.516369167045745,-23.51177947288614],[-46.51627692723803,-23.51177947288614],[-46.516230807334175,-23.51177947288614],[-46.516092447622604,-23.511714312244504],[-46.51600020781488,-23.511714312244504],[-46.51590796800717,-23.511714312244504],[-46.51586184810331,-23.511649151602867],[-46.515815728199456,-23.511714312244504],[-46.5157696082956,-23.511714312244504],[-46.51572348839174,-23.511649151602867],[-46.515585128680165,-23.511583990961235],[-46.51540064906474,-23.5115188303196],[-46.51530840925702,-23.511453669677962],[-46.515170049545446,-23.511453669677962],[-46.515031689833876,-23.511388509036326],[-46.5148933301223,-23.51132334839469],[-46.514801090314585,-23.511258187753054],[-46.514662730603014,-23.511193027111418],[-46.51461661069915,-23.511193027111418],[-46.51447825098758,-23.511193027111418],[-46.514386011179866,-23.51112786646978],[-46.51429377137215,-23.51112786646978],[-46.51420153156443,-23.51112786646978],[-46.51410929175672,-23.511062705828145],[-46.51406317185286,-23.511062705828145],[-46.514017051949004,-23.51099754518651],[-46.51397093204515,-23.51099754518651],[-46.51392481214129,-23.51099754518651],[-46.51387869223743,-23.511062705828145],[-46.51378645242971,-23.511062705828145],[-46.513740332525856,-23.511062705828145],[-46.51364809271814,-23.51112786646978],[-46.513601972814286,-23.51112786646978],[-46.513509733006565,-23.51112786646978],[-46.51341749319885,-23.51112786646978],[-46.513371373294994,-23.51112786646978],[-46.51327913348728,-23.51112786646978],[-46.51318689367957,-23.511062705828145],[-46.5131407737757,-23.511062705828145],[-46.51304853396799,-23.511062705828145],[-46.51291017425642,-23.51099754518651],[-46.512817934448705,-23.51086722390324],[-46.512587334929414,-23.510802063261604],[-46.5124950951217,-23.510802063261604],[-46.51240285531398,-23.510736902619968],[-46.512310615506266,-23.510736902619968],[-46.51221837569855,-23.51067174197833],[-46.512172255794695,-23.51067174197833],[-46.51198777617926,-23.51054142069506],[-46.51184941646769,-23.510476260053423],[-46.51175717665998,-23.51034593877015],[-46.5116188169484,-23.510280778128518],[-46.51157269704454,-23.51021561748688],[-46.511526577140685,-23.510150456845246],[-46.51148045723683,-23.510150456845246],[-46.51143433733297,-23.510150456845246],[-46.511388217429115,-23.510150456845246],[-46.511295977621394,-23.510150456845246],[-46.51120373781368,-23.510150456845246],[-46.51106537810211,-23.510150456845246],[-46.51106537810211,-23.51008529620361],[-46.51101925819825,-23.51008529620361],[-46.510973138294396,-23.51008529620361],[-46.51092701839053,-23.51008529620361],[-46.510880898486676,-23.51008529620361],[-46.510604179063535,-23.510020135561973],[-46.51055805915967,-23.510020135561973],[-46.51046581935196,-23.510020135561973],[-46.5104196994481,-23.510020135561973],[-46.51037357954424,-23.510020135561973],[-46.510327459640386,-23.510020135561973],[-46.51028133973653,-23.510020135561973],[-46.510235219832666,-23.510020135561973],[-46.51018909992881,-23.510020135561973],[-46.51014298002495,-23.510020135561973],[-46.510096860121095,-23.510020135561973],[-46.51005074021724,-23.509954974920337],[-46.51000462031338,-23.509954974920337],[-46.51000462031338,-23.5098898142787],[-46.509958500409525,-23.5098898142787],[-46.509958500409525,-23.509824653637065],[-46.50991238050567,-23.50975949299543],[-46.509866260601804,-23.509629171712156],[-46.509866260601804,-23.509564011070523],[-46.50982014069795,-23.509564011070523],[-46.50977402079409,-23.509564011070523],[-46.50972790089023,-23.509564011070523],[-46.50968178098638,-23.509564011070523],[-46.50963566108252,-23.509564011070523],[-46.50958954117866,-23.509564011070523],[-46.509543421274806,-23.509564011070523],[-46.50949730137094,-23.509564011070523],[-46.509451181467085,-23.509564011070523],[-46.50940506156323,-23.509564011070523],[-46.509312821755515,-23.509498850428887],[-46.50926670185166,-23.509498850428887],[-46.509174462043944,-23.509498850428887],[-46.50912834214008,-23.509498850428887],[-46.50898998242851,-23.509498850428887],[-46.50894386252465,-23.50943368978725],[-46.508897742620796,-23.50943368978725],[-46.50885162271694,-23.50943368978725],[-46.50880550281308,-23.50943368978725],[-46.50880550281308,-23.509498850428887],[-46.50875938290922,-23.509498850428887],[-46.50871326300536,-23.509498850428887],[-46.508667143101505,-23.509498850428887],[-46.508667143101505,-23.509564011070523],[-46.50862102319765,-23.509564011070523],[-46.50857490329379,-23.509564011070523],[-46.508528783389934,-23.509564011070523],[-46.50843654358222,-23.509629171712156],[-46.50839042367836,-23.509629171712156],[-46.5083443037745,-23.509629171712156],[-46.50829818387064,-23.509629171712156],[-46.508252063966786,-23.509629171712156],[-46.50815982415907,-23.509629171712156],[-46.508113704255216,-23.509629171712156],[-46.508021464447495,-23.509564011070523],[-46.50797534454364,-23.509564011070523],[-46.50792922463978,-23.509564011070523],[-46.507883104735924,-23.509564011070523],[-46.50783698483207,-23.509498850428887],[-46.507744745024354,-23.509498850428887],[-46.5076986251205,-23.509498850428887],[-46.50765250521663,-23.509498850428887],[-46.507606385312776,-23.509498850428887],[-46.50756026540892,-23.50943368978725],[-46.50751414550506,-23.50943368978725],[-46.50742190569735,-23.50943368978725],[-46.507329665889635,-23.50943368978725],[-46.50728354598577,-23.509368529145615],[-46.50719130617806,-23.509368529145615],[-46.5071451862742,-23.509368529145615],[-46.507099066370344,-23.509368529145615],[-46.50705294646649,-23.50930336850398],[-46.50700682656263,-23.509238207862342],[-46.506960706658774,-23.509238207862342],[-46.50691458675491,-23.509173047220706],[-46.50686846685105,-23.509173047220706],[-46.50686846685105,-23.50910788657907],[-46.506822346947196,-23.509042725937434],[-46.50677622704334,-23.509042725937434],[-46.50677622704334,-23.508977565295798],[-46.50673010713948,-23.508977565295798],[-46.506683987235625,-23.508977565295798],[-46.50663786733177,-23.508977565295798],[-46.50659174742791,-23.508977565295798],[-46.50636114790862,-23.508977565295798],[-46.506315028004764,-23.508977565295798],[-46.50622278819705,-23.508977565295798],[-46.506176668293186,-23.508977565295798],[-46.50613054838933,-23.508977565295798],[-46.50608442848547,-23.508977565295798],[-46.506038308581616,-23.508977565295798],[-46.50599218867776,-23.508977565295798],[-46.505899948870045,-23.508912404654165],[-46.505807709062324,-23.50884724401253],[-46.50576158915847,-23.50884724401253],[-46.50571546925461,-23.508782083370892],[-46.505669349350754,-23.508716922729256],[-46.5056232294469,-23.50865176208762],[-46.50557710954304,-23.508586601445984],[-46.50548486973533,-23.508586601445984],[-46.505392629927606,-23.508586601445984],[-46.50534651002375,-23.508521440804348],[-46.505254270216035,-23.508521440804348],[-46.50520815031218,-23.508521440804348],[-46.505115910504465,-23.508521440804348],[-46.5050697906006,-23.508521440804348],[-46.50497755079289,-23.508521440804348],[-46.50488531098517,-23.508521440804348],[-46.50483919108132,-23.508521440804348],[-46.504746951273596,-23.50845628016271],[-46.50465471146588,-23.50845628016271],[-46.50456247165817,-23.50845628016271],[-46.504470231850455,-23.50845628016271],[-46.504377992042734,-23.508391119521075],[-46.50428575223502,-23.508391119521075],[-46.50419351242731,-23.508391119521075],[-46.50410127261959,-23.508391119521075],[-46.50400903281187,-23.50832595887944],[-46.503962912908015,-23.50832595887944],[-46.50391679300416,-23.50832595887944],[-46.50377843329259,-23.50832595887944],[-46.50373231338873,-23.50832595887944],[-46.503686193484874,-23.508391119521075],[-46.50364007358101,-23.508391119521075],[-46.503593953677154,-23.508391119521075],[-46.50350171386944,-23.508391119521075],[-46.50350171386944,-23.50845628016271],[-46.503409474061726,-23.50845628016271],[-46.50336335415787,-23.50845628016271],[-46.50331723425401,-23.50845628016271],[-46.50322499444629,-23.508521440804348],[-46.503178874542435,-23.508521440804348],[-46.503040514830865,-23.508521440804348],[-46.50299439492701,-23.508521440804348],[-46.50294827502315,-23.508521440804348],[-46.50290215511929,-23.508586601445984],[-46.5026715556,-23.50865176208762],[-46.502533195888425,-23.508716922729256],[-46.50244095608071,-23.508716922729256],[-46.502348716273,-23.508716922729256],[-46.50230259636914,-23.508716922729256],[-46.50221035656143,-23.508716922729256],[-46.50216423665756,-23.508716922729256],[-46.50193363713828,-23.508782083370892],[-46.501841397330566,-23.508782083370892],[-46.5017952774267,-23.508782083370892],[-46.50156467790742,-23.50884724401253],[-46.50151855800356,-23.50884724401253],[-46.501472438099704,-23.50884724401253],[-46.50142631819584,-23.50884724401253],[-46.50138019829198,-23.50884724401253],[-46.501334078388126,-23.50884724401253],[-46.50128795848427,-23.50884724401253],[-46.501195718676556,-23.508782083370892],[-46.5011495987727,-23.508782083370892],[-46.50105735896498,-23.508716922729256],[-46.500965119157264,-23.50865176208762],[-46.50091899925341,-23.508586601445984],[-46.500826759445694,-23.508586601445984],[-46.50078063954184,-23.508521440804348],[-46.50073451963798,-23.508521440804348],[-46.500688399734116,-23.50845628016271],[-46.50064227983026,-23.50845628016271],[-46.5005961599264,-23.508391119521075],[-46.500550040022546,-23.508391119521075],[-46.500550040022546,-23.50832595887944],[-46.50050392011869,-23.508260798237806],[-46.50050392011869,-23.50819563759617],[-46.50045780021483,-23.508130476954534],[-46.50036556040712,-23.508065316312898],[-46.500319440503254,-23.508065316312898],[-46.5002733205994,-23.508065316312898],[-46.5002733205994,-23.50800015567126],[-46.50022720069554,-23.50800015567126],[-46.50022720069554,-23.507934995029625],[-46.50022720069554,-23.50786983438799],[-46.50022720069554,-23.507739513104717],[-46.500181080791684,-23.50767435246308],[-46.500181080791684,-23.507609191821444],[-46.50013496088783,-23.507609191821444],[-46.50008884098397,-23.507544031179812],[-46.50004272108011,-23.507544031179812],[-46.49999660117626,-23.507544031179812],[-46.49995048127239,-23.507609191821444],[-46.499904361368536,-23.507609191821444],[-46.49985824146468,-23.507609191821444],[-46.49981212156082,-23.507609191821444],[-46.499766001656965,-23.50767435246308],[-46.49971988175311,-23.50767435246308],[-46.49967376184925,-23.50767435246308],[-46.499627641945395,-23.507739513104717],[-46.49958152204153,-23.507739513104717],[-46.499535402137674,-23.507739513104717],[-46.49948928223382,-23.507739513104717],[-46.49944316232996,-23.507739513104717],[-46.499397042426104,-23.507739513104717],[-46.49935092252225,-23.507739513104717],[-46.49930480261839,-23.507739513104717],[-46.499258682714526,-23.507739513104717],[-46.49916644290681,-23.507739513104717],[-46.499120323002956,-23.50767435246308],[-46.49902808319524,-23.50767435246308],[-46.498981963291385,-23.50767435246308],[-46.498889723483664,-23.50767435246308],[-46.49884360357981,-23.50767435246308],[-46.49879748367595,-23.50767435246308],[-46.49870524386824,-23.50767435246308],[-46.49865912396438,-23.50767435246308],[-46.49861300406052,-23.50767435246308],[-46.498566884156666,-23.507609191821444],[-46.4985207642528,-23.507609191821444],[-46.498474644348946,-23.507609191821444],[-46.49838240454123,-23.507544031179812],[-46.49829016473352,-23.507544031179812],[-46.498197924925805,-23.507544031179812],[-46.49815180502194,-23.507544031179812],[-46.498105685118084,-23.507544031179812],[-46.49801344531037,-23.507544031179812],[-46.49796732540651,-23.507544031179812],[-46.4978750855988,-23.507544031179812],[-46.49778284579108,-23.507544031179812],[-46.49764448607951,-23.507544031179812],[-46.49759836617565,-23.507544031179812],[-46.497552246271795,-23.507544031179812],[-46.49741388656022,-23.507544031179812],[-46.49736776665636,-23.507544031179812],[-46.4973216467525,-23.507544031179812],[-46.49727552684865,-23.507544031179812],[-46.49722940694479,-23.507544031179812],[-46.497137167137076,-23.507478870538176],[-46.497044927329355,-23.50741370989654],[-46.4969988074255,-23.507348549254903],[-46.49695268752164,-23.507348549254903],[-46.496906567617785,-23.507283388613267],[-46.49686044771393,-23.507283388613267],[-46.49681432781007,-23.50721822797163],[-46.496675968098494,-23.507153067329995],[-46.49662984819464,-23.507153067329995],[-46.49658372829078,-23.50708790668836],[-46.49644536857921,-23.507022746046722],[-46.49639924867535,-23.507022746046722],[-46.49630700886763,-23.506957585405086],[-46.496260888963775,-23.506957585405086],[-46.49621476905992,-23.506957585405086],[-46.49616864915606,-23.506957585405086],[-46.496122529252204,-23.506957585405086],[-46.49603028944449,-23.506892424763453],[-46.495984169540634,-23.506892424763453],[-46.49593804963677,-23.506892424763453],[-46.49589192973291,-23.506892424763453],[-46.495845809829056,-23.506892424763453],[-46.4957996899252,-23.506827264121817],[-46.495707450117486,-23.506827264121817],[-46.49566133021363,-23.506827264121817],[-46.49561521030977,-23.506827264121817],[-46.49556909040591,-23.50676210348018],[-46.49552297050205,-23.50676210348018],[-46.495476850598195,-23.50676210348018],[-46.49543073069434,-23.50676210348018],[-46.49538461079048,-23.50676210348018],[-46.495338490886624,-23.506696942838545],[-46.49529237098277,-23.506696942838545],[-46.49524625107891,-23.506696942838545],[-46.49520013117505,-23.506696942838545],[-46.49515401127119,-23.506696942838545],[-46.495061771463476,-23.506696942838545],[-46.495061771463476,-23.50676210348018],[-46.49501565155962,-23.50676210348018],[-46.49496953165576,-23.50676210348018],[-46.494923411751905,-23.50676210348018],[-46.49487729184805,-23.50676210348018],[-46.49478505204033,-23.50676210348018],[-46.49473893213647,-23.50676210348018],[-46.494692812232614,-23.50676210348018],[-46.49464669232876,-23.50676210348018],[-46.4946005724249,-23.50676210348018],[-46.494554452521044,-23.50676210348018],[-46.494692812232614,-23.506501460913636],[-46.494692812232614,-23.506371139630364],[-46.4946005724249,-23.50617565770546],[-46.494554452521044,-23.50598017578055],[-46.49450833261719,-23.505915015138914],[-46.49446221271332,-23.50578469385564],[-46.494416092809466,-23.505719533214005],[-46.49436997290561,-23.505589211930733],[-46.49432385300175,-23.505328569364192],[-46.494277733097896,-23.505133087439283],[-46.494047133578604,-23.504155677814747],[-46.494047133578604,-23.504025356531475],[-46.494047133578604,-23.503895035248203],[-46.494047133578604,-23.50376471396493],[-46.494047133578604,-23.50356923204002],[-46.49409325348246,-23.50356923204002],[-46.49409325348246,-23.50350407139839],[-46.49413937338632,-23.50350407139839],[-46.49413937338632,-23.503373750115117],[-46.49413937338632,-23.503178268190208],[-46.49413937338632,-23.502917625623663],[-46.49418549329018,-23.502591822415486],[-46.49418549329018,-23.502200858565672],[-46.49418549329018,-23.502135697924036],[-46.49423161319404,-23.50187505535749],[-46.49423161319404,-23.50154925214931],[-46.49423161319404,-23.501353770224405],[-46.49423161319404,-23.501223448941133],[-46.49423161319404,-23.501158288299496],[-46.49413937338632,-23.50083248509132],[-46.49409325348246,-23.500571842524774],[-46.494047133578604,-23.500441521241502],[-46.494047133578604,-23.500376360599866],[-46.494047133578604,-23.50031119995823],[-46.49409325348246,-23.500246039316593],[-46.49409325348246,-23.50018087867496],[-46.49409325348246,-23.500115718033324],[-46.49413937338632,-23.50005055739169],[-46.49413937338632,-23.499985396750052],[-46.49413937338632,-23.499920236108416],[-46.49423161319404,-23.49985507546678],[-46.49423161319404,-23.499789914825143],[-46.49432385300175,-23.499724754183507],[-46.49436997290561,-23.49965959354187],[-46.494416092809466,-23.49965959354187],[-46.49446221271332,-23.499594432900235],[-46.49464669232876,-23.499464111616966],[-46.49496953165576,-23.499268629692057],[-46.495061771463476,-23.49920346905042],[-46.49529237098277,-23.499007987125513],[-46.49543073069434,-23.49887766584224],[-46.49556909040591,-23.498682183917335],[-46.49561521030977,-23.4986170232757],[-46.49561521030977,-23.498551862634063],[-46.49566133021363,-23.498551862634063],[-46.49575357002134,-23.49842154135079],[-46.49575357002134,-23.498356380709154],[-46.495845809829056,-23.498226059425882],[-46.49593804963677,-23.498030577500977],[-46.495984169540634,-23.49796541685934],[-46.49607640934835,-23.497900256217704],[-46.49607640934835,-23.497835095576068],[-46.496122529252204,-23.497769934934432],[-46.49616864915606,-23.497769934934432],[-46.49616864915606,-23.497835095576068],[-46.49621476905992,-23.497835095576068],[-46.49621476905992,-23.497900256217704],[-46.496260888963775,-23.497900256217704],[-46.49630700886763,-23.497900256217704],[-46.49639924867535,-23.497769934934432],[-46.49644536857921,-23.497704774292796],[-46.49662984819464,-23.497509292367887],[-46.496675968098494,-23.497444131726255],[-46.496768207906214,-23.497313810442982],[-46.49686044771393,-23.497248649801346],[-46.49695268752164,-23.497118328518074],[-46.497044927329355,-23.4969880072348],[-46.49709104723322,-23.4969880072348],[-46.497137167137076,-23.49685768595153],[-46.49722940694479,-23.49672736466826],[-46.49727552684865,-23.49672736466826],[-46.4973216467525,-23.496662204026624],[-46.49741388656022,-23.496597043384988],[-46.49746000646408,-23.496466722101715],[-46.49750612636794,-23.49640156146008],[-46.49759836617565,-23.496336400818443],[-46.497690605983365,-23.49620607953517],[-46.49773672588722,-23.496140918893538],[-46.49778284579108,-23.4960757582519],[-46.49782896569494,-23.496010597610265],[-46.4978750855988,-23.495880276326993],[-46.4978750855988,-23.49574995504372],[-46.49792120550266,-23.49574995504372],[-46.49792120550266,-23.495684794402084],[-46.49792120550266,-23.495619633760448],[-46.49796732540651,-23.495554473118812],[-46.49801344531037,-23.495424151835543],[-46.49801344531037,-23.495358991193907],[-46.49805956521423,-23.49529383055227],[-46.49805956521423,-23.495163509269],[-46.498105685118084,-23.495098348627362],[-46.49815180502194,-23.495033187985726],[-46.49815180502194,-23.49496802734409],[-46.49815180502194,-23.494902866702454],[-46.498197924925805,-23.494902866702454],[-46.498197924925805,-23.494837706060817],[-46.498197924925805,-23.494772545419185],[-46.49824404482966,-23.494642224135912],[-46.49824404482966,-23.494577063494276],[-46.49824404482966,-23.49451190285264],[-46.49824404482966,-23.494381581569368],[-46.49824404482966,-23.49431642092773],[-46.49824404482966,-23.49418609964446],[-46.49829016473352,-23.494120939002826],[-46.49829016473352,-23.493990617719554],[-46.49829016473352,-23.493925457077918],[-46.49829016473352,-23.49386029643628],[-46.49829016473352,-23.49372997515301],[-46.49829016473352,-23.493339011303195],[-46.49829016473352,-23.493143529378287],[-46.49829016473352,-23.49307836873665],[-46.49838240454123,-23.49307836873665],[-46.49838240454123,-23.493143529378287],[-46.49842852444509,-23.493013208095014],[-46.49842852444509,-23.49294804745338],[-46.49842852444509,-23.492882886811742],[-46.49842852444509,-23.492752565528473],[-46.49842852444509,-23.492687404886837],[-46.498474644348946,-23.492557083603565],[-46.498474644348946,-23.49249192296193],[-46.498474644348946,-23.492361601678656],[-46.498474644348946,-23.49229644103702],[-46.498474644348946,-23.492231280395384],[-46.498474644348946,-23.492166119753747],[-46.498474644348946,-23.492100959112115],[-46.498474644348946,-23.49203579847048],[-46.498474644348946,-23.491970637828842],[-46.4985207642528,-23.491970637828842],[-46.4985207642528,-23.491905477187206],[-46.4985207642528,-23.49184031654557],[-46.4985207642528,-23.491775155903934],[-46.4985207642528,-23.491709995262298],[-46.4985207642528,-23.49164483462066],[-46.498566884156666,-23.49164483462066],[-46.498566884156666,-23.491579673979025],[-46.49861300406052,-23.491579673979025],[-46.49865912396438,-23.491579673979025],[-46.49870524386824,-23.491579673979025],[-46.498751363772094,-23.49151451333739],[-46.49879748367595,-23.49151451333739],[-46.49884360357981,-23.49151451333739],[-46.498889723483664,-23.491449352695753],[-46.49893584338753,-23.491449352695753],[-46.498981963291385,-23.491449352695753],[-46.4990742030991,-23.49138419205412],[-46.499120323002956,-23.49138419205412],[-46.49921256281067,-23.491319031412484],[-46.49930480261839,-23.491319031412484],[-46.49935092252225,-23.491319031412484],[-46.49948928223382,-23.491253870770848],[-46.49958152204153,-23.491253870770848],[-46.49971988175311,-23.49118871012921],[-46.499766001656965,-23.49118871012921],[-46.49981212156082,-23.491123549487575],[-46.49985824146468,-23.491123549487575],[-46.499904361368536,-23.491123549487575],[-46.49995048127239,-23.491123549487575],[-46.49995048127239,-23.49105838884594],[-46.49999660117626,-23.49105838884594],[-46.50004272108011,-23.49105838884594],[-46.50008884098397,-23.49105838884594],[-46.50013496088783,-23.49105838884594],[-46.500181080791684,-23.49105838884594],[-46.50022720069554,-23.49105838884594],[-46.5002733205994,-23.49105838884594],[-46.500319440503254,-23.49105838884594],[-46.50036556040712,-23.490993228204303],[-46.500411680310975,-23.490993228204303],[-46.50045780021483,-23.490993228204303],[-46.50050392011869,-23.490993228204303],[-46.500550040022546,-23.490928067562667],[-46.5005961599264,-23.490928067562667],[-46.500688399734116,-23.490928067562667],[-46.50078063954184,-23.49086290692103],[-46.500826759445694,-23.490797746279394],[-46.50091899925341,-23.490797746279394],[-46.500965119157264,-23.490732585637762],[-46.50101123906112,-23.490732585637762],[-46.50105735896498,-23.490732585637762],[-46.50105735896498,-23.490667424996126],[-46.50110347886884,-23.490667424996126],[-46.501195718676556,-23.49060226435449],[-46.50138019829198,-23.490471943071217],[-46.50165691771513,-23.490341621787945],[-46.501749157522845,-23.49027646114631],[-46.501841397330566,-23.490211300504672],[-46.50193363713828,-23.490146139863036],[-46.50202587694599,-23.490080979221403],[-46.50216423665756,-23.48995065793813],[-46.502256476465284,-23.489885497296495],[-46.50248707598457,-23.489885497296495],[-46.5026715556,-23.489885497296495],[-46.50285603521543,-23.48982033665486],[-46.50294827502315,-23.489755176013222],[-46.50299439492701,-23.489755176013222],[-46.5035478337733,-23.48962485472995],[-46.50373231338873,-23.489559694088314],[-46.50410127261959,-23.489494533446678],[-46.504470231850455,-23.48936421216341],[-46.50451635175431,-23.48936421216341],[-46.504746951273596,-23.48936421216341],[-46.50479307117746,-23.489299051521773],[-46.50483919108132,-23.489299051521773],[-46.50483919108132,-23.489233890880136],[-46.50488531098517,-23.489233890880136],[-46.50493143088903,-23.4891687302385],[-46.50497755079289,-23.489103569596864],[-46.505023670696744,-23.489038408955228],[-46.5050697906006,-23.489038408955228],[-46.5050697906006,-23.48897324831359],[-46.505115910504465,-23.48897324831359],[-46.505115910504465,-23.488908087671955],[-46.50516203040832,-23.488908087671955],[-46.50520815031218,-23.48884292703032],[-46.50530039011989,-23.48871260574705],[-46.50534651002375,-23.488647445105414],[-46.505392629927606,-23.488582284463778],[-46.505392629927606,-23.48851712382214],[-46.50543874983146,-23.48851712382214],[-46.50543874983146,-23.488451963180506],[-46.50553098963918,-23.488451963180506],[-46.50553098963918,-23.48838680253887],[-46.50548486973533,-23.488321641897233],[-46.50530039011989,-23.487865517405783],[-46.505254270216035,-23.487670035480875],[-46.505115910504465,-23.487344232272697],[-46.505023670696744,-23.48714875034779],[-46.50488531098517,-23.48695326842288],[-46.50479307117746,-23.486757786497975],[-46.504608591562025,-23.486562304573066],[-46.50456247165817,-23.486431983289794],[-46.504470231850455,-23.486431983289794],[-46.5044241119466,-23.486366822648158],[-46.50428575223502,-23.48617134072325],[-46.50414739252345,-23.486106180081613],[-46.504055152715736,-23.48604101943998],[-46.50400903281187,-23.485975858798344],[-46.503824553196445,-23.485910698156708],[-46.50364007358101,-23.485780376873436],[-46.50336335415787,-23.4857152162318],[-46.50313275463858,-23.485584894948527],[-46.50290215511929,-23.485584894948527],[-46.5026715556,-23.48551973430689],[-46.50244095608071,-23.48551973430689],[-46.502348716273,-23.48551973430689],[-46.50202587694599,-23.48551973430689],[-46.50188751723442,-23.48551973430689],[-46.5017952774267,-23.48551973430689],[-46.5005961599264,-23.48551973430689],[-46.50036556040712,-23.48551973430689],[-46.50008884098397,-23.48551973430689],[-46.49981212156082,-23.48551973430689],[-46.49948928223382,-23.48551973430689],[-46.49935092252225,-23.48551973430689],[-46.4990742030991,-23.48551973430689],[-46.498981963291385,-23.48551973430689],[-46.498751363772094,-23.48551973430689],[-46.498566884156666,-23.485454573665255],[-46.4985207642528,-23.485454573665255],[-46.49842852444509,-23.485454573665255],[-46.49829016473352,-23.485454573665255],[-46.498197924925805,-23.485389413023622],[-46.498105685118084,-23.485389413023622],[-46.49796732540651,-23.485389413023622],[-46.49782896569494,-23.485324252381986],[-46.49764448607951,-23.48525909174035],[-46.49759836617565,-23.48525909174035],[-46.49750612636794,-23.485193931098713],[-46.4973216467525,-23.48506360981544],[-46.497137167137076,-23.484998449173805],[-46.497044927329355,-23.48493328853217],[-46.4969988074255,-23.484868127890532],[-46.49695268752164,-23.484868127890532],[-46.496906567617785,-23.484802967248896],[-46.49681432781007,-23.484737806607264],[-46.49672208800236,-23.484672645965627],[-46.49658372829078,-23.48460748532399],[-46.496491488483066,-23.48447716404072],[-46.49639924867535,-23.484412003399083],[-46.496260888963775,-23.48428168211581],[-46.49630700886763,-23.48428168211581],[-46.49639924867535,-23.484216521474174],[-46.49644536857921,-23.484216521474174],[-46.496491488483066,-23.484216521474174],[-46.49653760838692,-23.484216521474174],[-46.49658372829078,-23.484216521474174],[-46.49662984819464,-23.484216521474174],[-46.496675968098494,-23.484216521474174],[-46.49672208800236,-23.484216521474174],[-46.49672208800236,-23.484151360832538],[-46.496768207906214,-23.484151360832538],[-46.49681432781007,-23.484151360832538],[-46.49686044771393,-23.484151360832538],[-46.496906567617785,-23.4840862001909],[-46.49695268752164,-23.4840862001909],[-46.4969988074255,-23.48402103954927],[-46.497044927329355,-23.483955878907633],[-46.49709104723322,-23.483890718265997],[-46.497137167137076,-23.48382555762436],[-46.49718328704093,-23.483695236341088],[-46.4973216467525,-23.483564915057816],[-46.49736776665636,-23.48349975441618],[-46.49736776665636,-23.483434593774543],[-46.49741388656022,-23.483434593774543],[-46.49750612636794,-23.483239111849638],[-46.49759836617565,-23.483108790566366],[-46.49764448607951,-23.483108790566366],[-46.49764448607951,-23.48304362992473],[-46.497690605983365,-23.48304362992473],[-46.497690605983365,-23.482978469283093],[-46.49773672588722,-23.482978469283093],[-46.49773672588722,-23.482913308641457],[-46.4978750855988,-23.482782987358185],[-46.49801344531037,-23.48258750543328],[-46.49801344531037,-23.482522344791644],[-46.49805956521423,-23.482522344791644],[-46.49805956521423,-23.482457184150007],[-46.49815180502194,-23.482326862866735],[-46.49824404482966,-23.482196541583463],[-46.49829016473352,-23.482131380941826],[-46.498336284637375,-23.48206622030019],[-46.498474644348946,-23.481870738375285],[-46.498566884156666,-23.481740417092013],[-46.49861300406052,-23.481675256450377],[-46.49865912396438,-23.48161009580874],[-46.49865912396438,-23.481544935167104],[-46.49870524386824,-23.481544935167104],[-46.49879748367595,-23.4813494532422],[-46.49884360357981,-23.481284292600563],[-46.498889723483664,-23.481284292600563],[-46.49893584338753,-23.48115397131729],[-46.498981963291385,-23.481088810675654],[-46.49902808319524,-23.481088810675654],[-46.49921256281067,-23.480763007467473],[-46.499258682714526,-23.48069784682584],[-46.49935092252225,-23.48056752554257],[-46.499397042426104,-23.480502364900932],[-46.49944316232996,-23.480437204259296],[-46.499535402137674,-23.480306882976024],[-46.499535402137674,-23.480241722334387],[-46.49958152204153,-23.48017656169275],[-46.49967376184925,-23.48004624040948],[-46.49971988175311,-23.48004624040948],[-46.499766001656965,-23.479981079767846],[-46.49981212156082,-23.47991591912621],[-46.49985824146468,-23.479850758484574],[-46.49985824146468,-23.479785597842938],[-46.499904361368536,-23.479785597842938],[-46.49995048127239,-23.4797204372013],[-46.49995048127239,-23.479655276559665],[-46.49999660117626,-23.47959011591803],[-46.50008884098397,-23.479459794634757],[-46.50013496088783,-23.479459794634757],[-46.50022720069554,-23.47926431270985],[-46.500319440503254,-23.47913399142658],[-46.50036556040712,-23.479068830784943],[-46.500411680310975,-23.479003670143307],[-46.50045780021483,-23.47893850950167],[-46.50045780021483,-23.478873348860034],[-46.50050392011869,-23.478873348860034],[-46.500550040022546,-23.478808188218398],[-46.5005961599264,-23.478808188218398],[-46.5005961599264,-23.478743027576762],[-46.50078063954184,-23.47867786693513],[-46.500826759445694,-23.47867786693513],[-46.50078063954184,-23.478612706293493],[-46.50073451963798,-23.478547545651857],[-46.500688399734116,-23.47848238501022],[-46.50064227983026,-23.478417224368584],[-46.5005961599264,-23.47835206372695],[-46.5005961599264,-23.478286903085312],[-46.50050392011869,-23.478221742443676],[-46.50050392011869,-23.47815658180204],[-46.50050392011869,-23.478091421160403],[-46.50050392011869,-23.478026260518767],[-46.500550040022546,-23.478026260518767],[-46.500550040022546,-23.477961099877135],[-46.5005961599264,-23.477961099877135],[-46.50064227983026,-23.477961099877135],[-46.50064227983026,-23.4778959392355],[-46.5005961599264,-23.4778959392355],[-46.5005961599264,-23.477830778593862],[-46.50050392011869,-23.47770045731059],[-46.50045780021483,-23.47770045731059],[-46.50045780021483,-23.477635296668954],[-46.500411680310975,-23.477570136027317],[-46.50036556040712,-23.47750497538568],[-46.500319440503254,-23.477439814744045],[-46.50022720069554,-23.47737465410241],[-46.50022720069554,-23.477309493460776],[-46.50004272108011,-23.47704885089423]]]}}]}