{"type":"FeatureCollection","features":[{"type":"Feature","properties":{"DATA_ULT_A":"2009/10/09","DATA_CRIAC":"2009/10/09","id":13,"name":"Ipiranga","area":37.5,"pop_2010":463804,"pop_density_2010":12368,"budget_2015":47545044},"geometry":{"type":"Polygon","coordinates":[[[-46.61820191476362,-23.579090415695976],[-46.61820191476362,-23.57902525505434],[-46.61815579485976,-23.57902525505434],[-46.61815579485976,-23.578960094412704],[-46.61815579485976,-23.578894933771068],[-46.61815579485976,-23.578829773129435],[-46.61815579485976,-23.5787646124878],[-46.61815579485976,-23.578699451846163],[-46.61820191476362,-23.578699451846163],[-46.61820191476362,-23.578634291204526],[-46.618248034667474,-23.57856913056289],[-46.618248034667474,-23.578503969921254],[-46.61829415457133,-23.578503969921254],[-46.61834027447519,-23.578308487996345],[-46.618386394379044,-23.578308487996345],[-46.6184325142829,-23.57824332735471],[-46.61847863418676,-23.57811300607144],[-46.618616993898335,-23.57791752414653],[-46.61866311380219,-23.57778720286326],[-46.618755353609906,-23.577656881579987],[-46.61870923370605,-23.577656881579987],[-46.61870923370605,-23.57759172093835],[-46.61866311380219,-23.577526560296718],[-46.618616993898335,-23.577461399655082],[-46.61857087399448,-23.57733107837181],[-46.61857087399448,-23.577265917730173],[-46.61852475409062,-23.577200757088537],[-46.61847863418676,-23.577200757088537],[-46.61847863418676,-23.5771355964469],[-46.6184325142829,-23.5771355964469],[-46.6184325142829,-23.577070435805265],[-46.618386394379044,-23.577070435805265],[-46.61834027447519,-23.577070435805265],[-46.61834027447519,-23.57700527516363],[-46.61829415457133,-23.57700527516363],[-46.618248034667474,-23.57700527516363],[-46.61820191476362,-23.57700527516363],[-46.61820191476362,-23.576940114521992],[-46.61815579485976,-23.576940114521992],[-46.618109674955896,-23.576940114521992],[-46.61806355505204,-23.576940114521992],[-46.61801743514818,-23.576940114521992],[-46.61801743514818,-23.576874953880356],[-46.617971315244326,-23.576874953880356],[-46.61792519534047,-23.576874953880356],[-46.61787907543661,-23.576809793238724],[-46.617832955532755,-23.576809793238724],[-46.617832955532755,-23.576744632597087],[-46.6177868356289,-23.576744632597087],[-46.6177868356289,-23.57667947195545],[-46.617740715725034,-23.57667947195545],[-46.61769459582118,-23.576614311313815],[-46.61764847591732,-23.576614311313815],[-46.61764847591732,-23.57654915067218],[-46.617602356013464,-23.576483990030543],[-46.61746399630189,-23.57635366874727],[-46.61746399630189,-23.576288508105634],[-46.61741787639804,-23.576288508105634],[-46.61737175649417,-23.576288508105634],[-46.61737175649417,-23.576223347463998],[-46.617325636590316,-23.576223347463998],[-46.61727951668646,-23.576158186822365],[-46.6172333967826,-23.576158186822365],[-46.617187276878745,-23.57609302618073],[-46.61714115697489,-23.57609302618073],[-46.61709503707103,-23.57609302618073],[-46.617048917167175,-23.576027865539093],[-46.616956677359454,-23.576027865539093],[-46.6169105574556,-23.575962704897456],[-46.61686443755174,-23.575962704897456],[-46.61667995793631,-23.57589754425582],[-46.61667995793631,-23.575832383614184],[-46.61663383803245,-23.575832383614184],[-46.61658771812859,-23.575832383614184],[-46.61658771812859,-23.575767222972548],[-46.616541598224735,-23.575767222972548],[-46.616541598224735,-23.57570206233091],[-46.61649547832088,-23.57570206233091],[-46.61644935841702,-23.57570206233091],[-46.61644935841702,-23.575636901689276],[-46.616403238513165,-23.575636901689276],[-46.616403238513165,-23.57557174104764],[-46.61635711860931,-23.57557174104764],[-46.61635711860931,-23.575506580406007],[-46.61631099870545,-23.575506580406007],[-46.61631099870545,-23.57544141976437],[-46.61626487880159,-23.57544141976437],[-46.61617263899387,-23.575311098481098],[-46.6160342792823,-23.57511561655619],[-46.61584979966687,-23.575050455914553],[-46.615895919570725,-23.575050455914553],[-46.615895919570725,-23.574985295272917],[-46.61594203947459,-23.574985295272917],[-46.61594203947459,-23.57492013463128],[-46.61594203947459,-23.574854973989645],[-46.61594203947459,-23.574789813348012],[-46.61594203947459,-23.574724652706376],[-46.61594203947459,-23.57465949206474],[-46.615895919570725,-23.57465949206474],[-46.615895919570725,-23.574594331423103],[-46.615895919570725,-23.574529170781467],[-46.61584979966687,-23.574529170781467],[-46.61584979966687,-23.57446401013983],[-46.61580367976301,-23.57446401013983],[-46.61580367976301,-23.574398849498195],[-46.615757559859155,-23.574398849498195],[-46.6157114399553,-23.57433368885656],[-46.61566532005144,-23.57433368885656],[-46.615619200147584,-23.574268528214922],[-46.61557308024373,-23.574268528214922],[-46.615526960339864,-23.574203367573286],[-46.61543472053215,-23.574203367573286],[-46.61538860062829,-23.574138206931654],[-46.615342480724436,-23.574138206931654],[-46.61529636082058,-23.574138206931654],[-46.61525024091672,-23.574138206931654],[-46.615204121012866,-23.574073046290017],[-46.615158001109,-23.574073046290017],[-46.615111881205145,-23.574073046290017],[-46.615111881205145,-23.57400788564838],[-46.61506576130129,-23.57400788564838],[-46.61501964139743,-23.57400788564838],[-46.61501964139743,-23.573942725006745],[-46.614973521493575,-23.573942725006745],[-46.61492740158972,-23.573942725006745],[-46.61492740158972,-23.57387756436511],[-46.61488128168586,-23.573812403723473],[-46.614835161782004,-23.573812403723473],[-46.614835161782004,-23.573747243081836],[-46.614696802070426,-23.573616921798564],[-46.614696802070426,-23.573551761156928],[-46.61465068216657,-23.573551761156928],[-46.61465068216657,-23.573486600515295],[-46.61465068216657,-23.57342143987366],[-46.61460456226271,-23.57342143987366],[-46.61460456226271,-23.573356279232023],[-46.61460456226271,-23.573291118590387],[-46.61460456226271,-23.57322595794875],[-46.61460456226271,-23.573160797307114],[-46.61460456226271,-23.573095636665478],[-46.61460456226271,-23.573030476023842],[-46.61460456226271,-23.572965315382206],[-46.61460456226271,-23.57290015474057],[-46.61465068216657,-23.572834994098933],[-46.61465068216657,-23.5727698334573],[-46.614696802070426,-23.572704672815664],[-46.614696802070426,-23.572639512174028],[-46.614696802070426,-23.572574351532392],[-46.61465068216657,-23.572509190890756],[-46.61446620255114,-23.572313708965847],[-46.61437396274342,-23.57224854832421],[-46.614189483127994,-23.572053066399306],[-46.61414336322414,-23.57198790575767],[-46.61409724332028,-23.571922745116034],[-46.61405112341642,-23.571922745116034],[-46.61400500351256,-23.571922745116034],[-46.6139588836087,-23.571857584474397],[-46.61382052389713,-23.57179242383276],[-46.6136360442817,-23.571727263191125],[-46.613405444762414,-23.57166210254949],[-46.61335932485855,-23.571596941907853],[-46.613128725339266,-23.571531781266216],[-46.613128725339266,-23.571466620624584],[-46.61308260543541,-23.57133629934131],[-46.61299036562769,-23.570945335491494],[-46.61294424572383,-23.570815014208222],[-46.61285200591612,-23.570489211000044],[-46.612759766108404,-23.57009824715023],[-46.61266752630069,-23.569707283300414],[-46.61257528649297,-23.5693163194506],[-46.61252916658911,-23.5693163194506],[-46.61252916658911,-23.569251158808964],[-46.612483046685256,-23.56899051624242],[-46.61239080687754,-23.56879503431751],[-46.61239080687754,-23.568729873675878],[-46.612344686973685,-23.568729873675878],[-46.612344686973685,-23.56866471303424],[-46.61229856706983,-23.56866471303424],[-46.61229856706983,-23.568599552392605],[-46.612252447165964,-23.568599552392605],[-46.612252447165964,-23.56853439175097],[-46.61220632726211,-23.56853439175097],[-46.61216020735825,-23.568469231109333],[-46.612114087454394,-23.568469231109333],[-46.61206796755054,-23.568469231109333],[-46.61206796755054,-23.568404070467697],[-46.61197572774282,-23.568404070467697],[-46.61192960783897,-23.56833890982606],[-46.611837368031246,-23.568273749184424],[-46.61179124812739,-23.568273749184424],[-46.611699008319675,-23.568273749184424],[-46.61151452870424,-23.568208588542788],[-46.61137616899267,-23.56807826725952],[-46.6112378092811,-23.56807826725952],[-46.61082273014638,-23.56788278533461],[-46.61031541120394,-23.567687303409702],[-46.610038691780794,-23.567622142768066],[-46.609485252934505,-23.567361500201525],[-46.60925465341521,-23.56729633955989],[-46.60911629370364,-23.56755698212643],[-46.609070173799786,-23.567687303409702],[-46.60902405389593,-23.56775246405134],[-46.60897793399207,-23.567817624692974],[-46.60888569418435,-23.567947945976247],[-46.60879345437664,-23.568013106617883],[-46.608701214568924,-23.56807826725952],[-46.60865509466507,-23.568143427901152],[-46.60856285485735,-23.568208588542788],[-46.60851673495349,-23.568208588542788],[-46.60851673495349,-23.568273749184424],[-46.60847061504963,-23.568273749184424],[-46.60833225533806,-23.56833890982606],[-46.608193895626485,-23.568404070467697],[-46.60814777572263,-23.568469231109333],[-46.60810165581877,-23.568469231109333],[-46.608055535914914,-23.568469231109333],[-46.607917176203344,-23.568404070467697],[-46.60787105629948,-23.568404070467697],[-46.60782493639562,-23.56833890982606],[-46.60768657668405,-23.568273749184424],[-46.60754821697248,-23.568273749184424],[-46.60722537764548,-23.56807826725952],[-46.60690253831847,-23.567947945976247],[-46.60671805870304,-23.56788278533461],[-46.606487459183754,-23.567817624692974],[-46.60602626014517,-23.567622142768066],[-46.60565730091431,-23.56742666084316],[-46.60538058149117,-23.567361500201525],[-46.60510386206802,-23.567231178918252],[-46.60510386206802,-23.56729633955989],[-46.60505774216416,-23.56729633955989],[-46.60505774216416,-23.567361500201525],[-46.60501162226031,-23.567361500201525],[-46.60496550235645,-23.56742666084316],[-46.604919382452586,-23.56742666084316],[-46.60487326254873,-23.56742666084316],[-46.60487326254873,-23.567491821484793],[-46.60482714264487,-23.567491821484793],[-46.604781022741015,-23.567491821484793],[-46.60473490283716,-23.567491821484793],[-46.6046887829333,-23.567491821484793],[-46.604642663029445,-23.567491821484793],[-46.60459654312559,-23.567491821484793],[-46.60459654312559,-23.56742666084316],[-46.604550423221724,-23.56742666084316],[-46.60441206351015,-23.567361500201525],[-46.604227583894726,-23.56729633955989],[-46.60408922418315,-23.567231178918252],[-46.603581905240716,-23.568273749184424],[-46.60302846639442,-23.569446640733872],[-46.60159874937483,-23.57244403024912],[-46.60003067264367,-23.575767222972548],[-46.59855483572022,-23.578829773129435],[-46.59735571821992,-23.581371038153232],[-46.5972634784122,-23.581566520078137],[-46.597217358508345,-23.581631680719774],[-46.59712511870063,-23.58189232328632],[-46.596663919662056,-23.58280457226922],[-46.596294960431194,-23.583651660610485],[-46.595879881296476,-23.584433588310116],[-46.59528032254632,-23.585671640501197],[-46.59504972302703,-23.586062604351014],[-46.594450164276886,-23.586974853333913],[-46.59403508514217,-23.587496138467003],[-46.59375836571902,-23.58782194167518],[-46.59371224581516,-23.587887102316817],[-46.593435526392014,-23.588212905524998],[-46.59269760793029,-23.58905999386626],[-46.592144169083994,-23.589776760924256],[-46.59140625062227,-23.59068900990716],[-46.59043773264126,-23.591796740814967],[-46.589515334564105,-23.59290447172278],[-46.58914637533324,-23.59336059621423],[-46.58882353600624,-23.593751560064042],[-46.588316217063806,-23.594272845197132],[-46.58803949764066,-23.594663809046946],[-46.58771665831365,-23.59505477289676],[-46.58739381898665,-23.59538057610494],[-46.58725545927508,-23.59557605802985],[-46.587163219467364,-23.595641218671485],[-46.587024859755786,-23.59583670059639],[-46.5867942602365,-23.59616250380457],[-46.58660978062107,-23.596357985729476],[-46.58642530100564,-23.596553467654385],[-46.586240821390206,-23.596748949579293],[-46.586102461678635,-23.596944431504202],[-46.5859179820632,-23.597139913429107],[-46.58568738254392,-23.59740055599565],[-46.585456783024625,-23.597661198562196],[-46.58522618350534,-23.597987001770374],[-46.58494946408219,-23.59824764433692],[-46.58462662475519,-23.598638608186732],[-46.58434990533204,-23.598964411394913],[-46.58398094610118,-23.599420535886363],[-46.58393482619732,-23.599485696528],[-46.58365810677417,-23.599811499736177],[-46.58328914754331,-23.60026762422763],[-46.58292018831245,-23.600658588077444],[-46.58255122908159,-23.60117987321053],[-46.582043910139156,-23.601766318985252],[-46.58158271110058,-23.60228760411834],[-46.581121512062,-23.602874049893064],[-46.58070643292728,-23.603330174384514],[-46.580475833407995,-23.60359081695106],[-46.580383593600274,-23.603655977592695],[-46.5799223945617,-23.604242423367417],[-46.57969179504241,-23.604503065933958],[-46.579599555234694,-23.60463338721723],[-46.57955343533084,-23.604698547858867],[-46.57950731542698,-23.605089511708684],[-46.57955343533084,-23.605480475558497],[-46.57964567513855,-23.60587143940831],[-46.57973791494627,-23.606132081974856],[-46.57978403485013,-23.6063927245414],[-46.57973791494627,-23.606653367107942],[-46.57987627465784,-23.60684884903285],[-46.579968514465556,-23.6073049735243],[-46.58001463436941,-23.60763077673248],[-46.58010687417713,-23.60828238314884],[-46.580245233888704,-23.608999150206834],[-46.58033747369642,-23.60952043533992],[-46.580383593600274,-23.609846238548098],[-46.580475833407995,-23.61017204175628],[-46.58052195331185,-23.61062816624773],[-46.580614193119565,-23.611084290739182],[-46.58070643292728,-23.611670736513904],[-46.58079867273499,-23.612061700363718],[-46.58079867273499,-23.612126861005354],[-46.58084479263886,-23.612257182288626],[-46.58098315235043,-23.613039109988257],[-46.58107539215814,-23.61362555576298],[-46.58130599167743,-23.614798447312424],[-46.58135211158129,-23.615124250520605],[-46.58149047129286,-23.61564553565369],[-46.58149047129286,-23.615906178220232],[-46.581536591196716,-23.616036499503505],[-46.581536591196716,-23.61610166014514],[-46.581536591196716,-23.616166820786777],[-46.58158271110058,-23.616362302711686],[-46.58158271110058,-23.616492623994958],[-46.581674950908294,-23.61688358784477],[-46.58172107081215,-23.61707906976968],[-46.58172107081215,-23.61720939105295],[-46.58176719071601,-23.617404872977858],[-46.581813310619864,-23.61753519426113],[-46.58185943052372,-23.617665515544402],[-46.58185943052372,-23.617860997469307],[-46.58190555042758,-23.61799131875258],[-46.58190555042758,-23.618121640035852],[-46.58195167033144,-23.61831712196076],[-46.58195167033144,-23.618382282602397],[-46.58195167033144,-23.618447443244033],[-46.58195167033144,-23.618577764527302],[-46.58195167033144,-23.618708085810574],[-46.5819977902353,-23.618838407093847],[-46.5819977902353,-23.61896872837712],[-46.582043910139156,-23.61909904966039],[-46.582043910139156,-23.619164210302028],[-46.58209003004301,-23.61922937094366],[-46.58209003004301,-23.619294531585297],[-46.58209003004301,-23.61942485286857],[-46.58213614994687,-23.619490013510205],[-46.58213614994687,-23.61955517415184],[-46.58213614994687,-23.619685495435114],[-46.582182269850726,-23.619946138001655],[-46.58222838975458,-23.620076459284927],[-46.58222838975458,-23.620337101851472],[-46.58236674946616,-23.62085838698456],[-46.58241286937002,-23.62118419019274],[-46.58255122908159,-23.62190095725073],[-46.582597348985445,-23.62209643917564],[-46.582597348985445,-23.62222676045891],[-46.5826434688893,-23.622552563667092],[-46.582689588793166,-23.62287836687527],[-46.58278182860088,-23.62333449136672],[-46.58292018831245,-23.624181579707987],[-46.58301242812017,-23.62476802548271],[-46.583104667927884,-23.62509382869089],[-46.5831969077356,-23.625289310615795],[-46.583243027639455,-23.625419631899067],[-46.58328914754331,-23.625484792540703],[-46.58338138735103,-23.625810595748884],[-46.58338138735103,-23.62600607767379],[-46.58338138735103,-23.626201559598698],[-46.58333526744717,-23.626462202165243],[-46.5831969077356,-23.626657684090148],[-46.58305854802403,-23.626853166015056],[-46.58296630821631,-23.626918326656693],[-46.58278182860088,-23.627178969223237],[-46.58209003004301,-23.627830575639596],[-46.58190555042758,-23.627960896922865],[-46.581813310619864,-23.628091218206137],[-46.58172107081215,-23.62822153948941],[-46.581674950908294,-23.628351860772682],[-46.58158271110058,-23.628742824622496],[-46.581536591196716,-23.629133788472313],[-46.581536591196716,-23.62919894911395],[-46.58176719071601,-23.630176358738485],[-46.58195167033144,-23.630958286438116],[-46.58213614994687,-23.63167505349611],[-46.58227450965844,-23.632066017345924],[-46.582320629562304,-23.632196338629196],[-46.582458989273874,-23.63245698119574],[-46.58255122908159,-23.632522141837377],[-46.58273570869702,-23.632717623762282],[-46.58292018831245,-23.63278278440392],[-46.5831969077356,-23.63291310568719],[-46.58361198687032,-23.6331085876121],[-46.58379646648575,-23.633238908895372],[-46.58416542571661,-23.633499551461913],[-46.5843960252359,-23.63369503338682],[-46.584811104370615,-23.634085997236635],[-46.584903344178336,-23.634216318519908],[-46.58499558398605,-23.634411800444816],[-46.585087823793764,-23.634737603652994],[-46.58513394369762,-23.634867924936266],[-46.58513394369762,-23.63512856750281],[-46.58513394369762,-23.63532404942772],[-46.58513394369762,-23.63545437071099],[-46.585087823793764,-23.63558469199426],[-46.58499558398605,-23.635975655844078],[-46.584811104370615,-23.636757583543705],[-46.584257665524326,-23.638516920867875],[-46.58393482619732,-23.63968981241732],[-46.583750346581894,-23.64034141883368],[-46.5835197470626,-23.641188507174945],[-46.58361198687032,-23.641514310383123],[-46.58370422667803,-23.641644631666395],[-46.58393482619732,-23.642231077441117],[-46.584027066005035,-23.64236139872439],[-46.58421154562047,-23.642882683857476],[-46.58434990533204,-23.643208487065657],[-46.58458050485133,-23.644055575406924],[-46.58462662475519,-23.64425105733183],[-46.58485722427448,-23.644511699898374],[-46.58494946408219,-23.64457686054001],[-46.58504170388991,-23.644707181823282],[-46.585087823793764,-23.64483750310655],[-46.58504170388991,-23.644902663748187],[-46.58476498446676,-23.645228466956368],[-46.584903344178336,-23.64535878823964],[-46.585087823793764,-23.64548910952291],[-46.58541066312077,-23.645684591447818],[-46.58568738254392,-23.645880073372727],[-46.58582574225549,-23.646010394656],[-46.58601022187092,-23.646075555297635],[-46.58619470148635,-23.646205876580904],[-46.58637918110178,-23.646336197864176],[-46.5864714209095,-23.646401358505813],[-46.586655900524924,-23.646531679789085],[-46.5867942602365,-23.64659684043072],[-46.58697873985193,-23.646727161713994],[-46.58711709956351,-23.646792322355626],[-46.58725545927508,-23.6469226436389],[-46.58739381898665,-23.646987804280535],[-46.58748605879437,-23.64705296492217],[-46.587670538409796,-23.647183286205443],[-46.58776277821751,-23.64724844684708],[-46.58790113792909,-23.647313607488716],[-46.587947257832944,-23.647378768130352],[-46.5879933777368,-23.647443928771985],[-46.588085617544515,-23.647574250055257],[-46.58822397725609,-23.647574250055257],[-46.58836233696766,-23.64770457133853],[-46.58850069667924,-23.647769731980166],[-46.588592936486954,-23.647900053263438],[-46.58868517629467,-23.647965213905074],[-46.58882353600624,-23.64803037454671],[-46.588961895717816,-23.648095535188347],[-46.588961895717816,-23.64816069582998],[-46.58914637533324,-23.64829101711325],[-46.58928473504482,-23.648356177754888],[-46.58942309475639,-23.648421338396524],[-46.58956145446796,-23.648551659679796],[-46.58965369427568,-23.648616820321433],[-46.58969981417954,-23.64868198096307],[-46.58979205398725,-23.648747141604705],[-46.58993041369882,-23.648812302246338],[-46.58997653360269,-23.648877462887974],[-46.59011489331426,-23.649007784171246],[-46.590161013218115,-23.649072944812882],[-46.590299372929685,-23.64913810545452],[-46.590391612737406,-23.64913810545452],[-46.59052997244898,-23.649203266096155],[-46.59062221225669,-23.64926842673779],[-46.59071445206441,-23.649333587379427],[-46.590806691872125,-23.649398748021063],[-46.59089893167984,-23.649463908662696],[-46.59099117148755,-23.649529069304332],[-46.59112953119913,-23.64959422994597],[-46.59122177100684,-23.649659390587605],[-46.59140625062227,-23.64972455122924],[-46.59154461033385,-23.649789711870877],[-46.59163685014156,-23.649789711870877],[-46.591729089949276,-23.649854872512513],[-46.59186744966085,-23.64992003315415],[-46.592005809372424,-23.650050354437422],[-46.59209804918014,-23.650050354437422],[-46.592144169083994,-23.650115515079058],[-46.59228252879557,-23.65018067572069],[-46.59242088850714,-23.650245836362327],[-46.592467008411,-23.650310997003963],[-46.592513128314856,-23.6503761576456],[-46.59265148802643,-23.650441318287236],[-46.59269760793029,-23.65050647892887],[-46.592789847738004,-23.650571639570508],[-46.59292820744958,-23.650636800212144],[-46.59306656716115,-23.650767121495416],[-46.593158806968866,-23.65083228213705],[-46.5933432865843,-23.650897442778685],[-46.59338940648816,-23.650897442778685],[-46.59348164629587,-23.650897442778685],[-46.59352776619973,-23.650897442778685],[-46.59362000600745,-23.650897442778685],[-46.59375836571902,-23.650897442778685],[-46.59385060552673,-23.650897442778685],[-46.59398896523831,-23.651027764061958],[-46.594219564757594,-23.65115808534523],[-46.59431180456531,-23.651223245986866],[-46.59440404437303,-23.651223245986866],[-46.59449628418074,-23.651288406628503],[-46.59468076379617,-23.651418727911775],[-46.59477300360389,-23.651483888553408],[-46.594865243411604,-23.651549049195044],[-46.59495748321932,-23.65161420983668],[-46.595095842930895,-23.651679370478316],[-46.59518808273861,-23.651679370478316],[-46.59532644245018,-23.651679370478316],[-46.59541868225789,-23.651679370478316],[-46.595510922065614,-23.651679370478316],[-46.59560316187333,-23.651679370478316],[-46.595649281777185,-23.651744531119952],[-46.59569540168104,-23.651744531119952],[-46.5957415215849,-23.65180969176159],[-46.5957415215849,-23.651874852403225],[-46.595787641488755,-23.65194001304486],[-46.59583376139262,-23.652005173686497],[-46.595879881296476,-23.65213549496977],[-46.59592600120033,-23.652200655611402],[-46.59597212110419,-23.65226581625304],[-46.59597212110419,-23.652330976894675],[-46.596018241008046,-23.65239613753631],[-46.59615660071962,-23.652461298177947],[-46.59624884052734,-23.652526458819583],[-46.59638720023891,-23.652656780102856],[-46.59652555995048,-23.652787101386128],[-46.5966177997582,-23.65285226202776],[-46.59671003956591,-23.652917422669397],[-46.59680227937363,-23.652917422669397],[-46.59689451918134,-23.652917422669397],[-46.596940639085204,-23.652917422669397],[-46.59703287889292,-23.652917422669397],[-46.59712511870063,-23.652917422669397],[-46.59717123860449,-23.652917422669397],[-46.5972634784122,-23.652917422669397],[-46.597309598316066,-23.652917422669397],[-46.59749407793149,-23.652982583311033],[-46.59758631773921,-23.652982583311033],[-46.59777079735464,-23.65304774395267],[-46.59790915706621,-23.65304774395267],[-46.59795527697007,-23.65304774395267],[-46.598001396873926,-23.653112904594305],[-46.5981397565855,-23.653112904594305],[-46.59823199639322,-23.653112904594305],[-46.598278116297074,-23.65317806523594],[-46.59841647600865,-23.653112904594305],[-46.598508715816365,-23.653112904594305],[-46.598647075527936,-23.653112904594305],[-46.598923794951084,-23.65304774395267],[-46.59910827456652,-23.652982583311033],[-46.59920051437423,-23.652982583311033],[-46.59924663427809,-23.652982583311033],[-46.59938499398966,-23.65304774395267],[-46.59947723379738,-23.653112904594305],[-46.59952335370124,-23.653112904594305],[-46.599569473605094,-23.65317806523594],[-46.59966171341281,-23.653243225877578],[-46.599707833316664,-23.653243225877578],[-46.59975395322052,-23.653308386519214],[-46.5998923129321,-23.653438707802486],[-46.599938432835955,-23.65350386844412],[-46.60003067264367,-23.65350386844412],[-46.6002151522591,-23.65363418972739],[-46.60026127216296,-23.65363418972739],[-46.60030739206682,-23.653699350369028],[-46.600491871682244,-23.653699350369028],[-46.60063023139382,-23.653764511010664],[-46.600722471201536,-23.653764511010664],[-46.600860830913106,-23.653764511010664],[-46.600999190624684,-23.6538296716523],[-46.6010914304324,-23.6538296716523],[-46.60122979014397,-23.653894832293936],[-46.601275910047825,-23.653894832293936],[-46.601368149855546,-23.65402515357721],[-46.601368149855546,-23.654090314218845],[-46.60132202995169,-23.65428579614375],[-46.601275910047825,-23.654350956785386],[-46.601506509567116,-23.654350956785386],[-46.60187546879798,-23.65448127806866],[-46.601921588701835,-23.654546438710295],[-46.60201382850955,-23.654546438710295],[-46.60238278774041,-23.654676759993567],[-46.60252114745199,-23.654676759993567],[-46.6026133872597,-23.654741920635203],[-46.60247502754813,-23.65493740256011],[-46.602428907644274,-23.655002563201744],[-46.602567267355845,-23.655002563201744],[-46.602567267355845,-23.65506772384338],[-46.6026133872597,-23.65506772384338],[-46.6026133872597,-23.655132884485017],[-46.60265950716356,-23.655132884485017],[-46.60265950716356,-23.655198045126653],[-46.60265950716356,-23.65526320576829],[-46.602705627067415,-23.65526320576829],[-46.602705627067415,-23.655328366409925],[-46.60275174697127,-23.655328366409925],[-46.60275174697127,-23.65539352705156],[-46.602797866875136,-23.65539352705156],[-46.60284398677899,-23.65539352705156],[-46.60284398677899,-23.655458687693198],[-46.60289010668285,-23.655458687693198],[-46.602936226586706,-23.655458687693198],[-46.60298234649056,-23.655458687693198],[-46.60302846639442,-23.655458687693198],[-46.60302846639442,-23.65552384833483],[-46.60307458629828,-23.65552384833483],[-46.603120706202134,-23.65552384833483],[-46.603166826106,-23.65552384833483],[-46.603166826106,-23.655589008976467],[-46.603212946009855,-23.655589008976467],[-46.603212946009855,-23.655654169618103],[-46.603212946009855,-23.65571933025974],[-46.603212946009855,-23.655784490901375],[-46.60325906591371,-23.65584965154301],[-46.60330518581757,-23.65584965154301],[-46.60330518581757,-23.655914812184648],[-46.603351305721425,-23.655914812184648],[-46.60339742562528,-23.655914812184648],[-46.60339742562528,-23.655979972826284],[-46.60344354552914,-23.655979972826284],[-46.603489665433,-23.655979972826284],[-46.60353578533686,-23.65604513346792],[-46.603581905240716,-23.65604513346792],[-46.60362802514457,-23.65604513346792],[-46.60367414504843,-23.65604513346792],[-46.60372026495229,-23.65604513346792],[-46.60372026495229,-23.656110294109556],[-46.603766384856144,-23.656110294109556],[-46.60381250476,-23.656110294109556],[-46.603858624663864,-23.656110294109556],[-46.60390474456772,-23.656110294109556],[-46.60395086447158,-23.656110294109556],[-46.60395086447158,-23.656175454751192],[-46.603996984375435,-23.656175454751192],[-46.60404310427929,-23.656175454751192],[-46.60408922418315,-23.656175454751192],[-46.60408922418315,-23.656240615392825],[-46.60408922418315,-23.656175454751192],[-46.604135344087005,-23.656175454751192],[-46.60418146399086,-23.656175454751192],[-46.604227583894726,-23.656175454751192],[-46.60427370379858,-23.656175454751192],[-46.60427370379858,-23.656110294109556],[-46.60431982370244,-23.656110294109556],[-46.6043659436063,-23.656110294109556],[-46.60441206351015,-23.656110294109556],[-46.60441206351015,-23.656175454751192],[-46.60445818341401,-23.656175454751192],[-46.60445818341401,-23.656240615392825],[-46.60450430331787,-23.656240615392825],[-46.604550423221724,-23.656240615392825],[-46.60459654312559,-23.656240615392825],[-46.604642663029445,-23.656240615392825],[-46.604642663029445,-23.656175454751192],[-46.6046887829333,-23.656175454751192],[-46.60473490283716,-23.656175454751192],[-46.604781022741015,-23.656175454751192],[-46.60482714264487,-23.656175454751192],[-46.60487326254873,-23.656110294109556],[-46.604919382452586,-23.656110294109556],[-46.60496550235645,-23.656110294109556],[-46.60501162226031,-23.656110294109556],[-46.60505774216416,-23.656110294109556],[-46.60510386206802,-23.656110294109556],[-46.60514998197188,-23.656110294109556],[-46.605196101875734,-23.656110294109556],[-46.60524222177959,-23.656110294109556],[-46.60528834168345,-23.656110294109556],[-46.60533446158731,-23.656110294109556],[-46.60538058149117,-23.656110294109556],[-46.605426701395025,-23.656110294109556],[-46.60547282129888,-23.656110294109556],[-46.60551894120274,-23.656110294109556],[-46.605565061106596,-23.656110294109556],[-46.60561118101045,-23.656110294109556],[-46.60565730091431,-23.656110294109556],[-46.60570342081817,-23.656110294109556],[-46.60570342081817,-23.656175454751192],[-46.60574954072203,-23.656175454751192],[-46.60579566062589,-23.656175454751192],[-46.605841780529744,-23.656175454751192],[-46.605841780529744,-23.656240615392825],[-46.6058879004336,-23.656240615392825],[-46.60593402033746,-23.656240615392825],[-46.605980140241314,-23.656240615392825],[-46.605980140241314,-23.65630577603446],[-46.60602626014517,-23.65630577603446],[-46.606072380049035,-23.65630577603446],[-46.60611849995289,-23.65630577603446],[-46.60616461985675,-23.65630577603446],[-46.606210739760606,-23.65630577603446],[-46.60625685966446,-23.65630577603446],[-46.60630297956832,-23.65630577603446],[-46.606349099472176,-23.65630577603446],[-46.60639521937603,-23.65630577603446],[-46.6064413392799,-23.65630577603446],[-46.606487459183754,-23.656370936676097],[-46.60653357908761,-23.656370936676097],[-46.60657969899147,-23.656370936676097],[-46.606625818895324,-23.656436097317734],[-46.60667193879918,-23.656436097317734],[-46.60671805870304,-23.656436097317734],[-46.606764178606895,-23.656436097317734],[-46.60681029851076,-23.656436097317734],[-46.606856418414615,-23.656436097317734],[-46.60690253831847,-23.656436097317734],[-46.60694865822233,-23.656436097317734],[-46.606994778126186,-23.656436097317734],[-46.60704089803004,-23.65650125795937],[-46.6070870179339,-23.65650125795937],[-46.60713313783776,-23.65650125795937],[-46.60713313783776,-23.656566418601006],[-46.60717925774162,-23.656566418601006],[-46.60722537764548,-23.656631579242642],[-46.607271497549334,-23.656631579242642],[-46.60731761745319,-23.656631579242642],[-46.60731761745319,-23.65669673988428],[-46.60736373735705,-23.65669673988428],[-46.607409857260905,-23.65669673988428],[-46.60745597716476,-23.65669673988428],[-46.60745597716476,-23.656761900525915],[-46.60750209706862,-23.656761900525915],[-46.60754821697248,-23.656761900525915],[-46.60754821697248,-23.65682706116755],[-46.60759433687634,-23.65682706116755],[-46.60759433687634,-23.656892221809183],[-46.607640456780196,-23.656892221809183],[-46.60768657668405,-23.65695738245082],[-46.60773269658791,-23.65695738245082],[-46.607778816491766,-23.65695738245082],[-46.60782493639562,-23.657022543092456],[-46.60787105629948,-23.657022543092456],[-46.607917176203344,-23.657022543092456],[-46.607917176203344,-23.65695738245082],[-46.6079632961072,-23.65695738245082],[-46.60800941601106,-23.65695738245082],[-46.608055535914914,-23.65695738245082],[-46.608055535914914,-23.657022543092456],[-46.60810165581877,-23.657022543092456],[-46.60814777572263,-23.657087703734092],[-46.608193895626485,-23.657087703734092],[-46.608193895626485,-23.65715286437573],[-46.60824001553034,-23.65715286437573],[-46.608286135434206,-23.65715286437573],[-46.608286135434206,-23.657218025017364],[-46.60833225533806,-23.657218025017364],[-46.60837837524192,-23.657283185659],[-46.608424495145776,-23.657283185659],[-46.608424495145776,-23.657348346300637],[-46.60847061504963,-23.657348346300637],[-46.60851673495349,-23.657413506942273],[-46.60856285485735,-23.657413506942273],[-46.60856285485735,-23.65747866758391],[-46.60860897476121,-23.65747866758391],[-46.60865509466507,-23.65747866758391],[-46.60865509466507,-23.657543828225542],[-46.608701214568924,-23.657543828225542],[-46.608701214568924,-23.657608988867178],[-46.60874733447278,-23.657608988867178],[-46.60874733447278,-23.657674149508814],[-46.60879345437664,-23.657674149508814],[-46.60879345437664,-23.65773931015045],[-46.608839574280495,-23.65773931015045],[-46.608839574280495,-23.657804470792087],[-46.60888569418435,-23.657804470792087],[-46.60888569418435,-23.657869631433723],[-46.60893181408821,-23.657869631433723],[-46.60897793399207,-23.657869631433723],[-46.60897793399207,-23.65793479207536],[-46.60902405389593,-23.65793479207536],[-46.609070173799786,-23.65793479207536],[-46.609070173799786,-23.657999952716995],[-46.60911629370364,-23.657999952716995],[-46.6091624136075,-23.657999952716995],[-46.6091624136075,-23.65793479207536],[-46.60920853351136,-23.65793479207536],[-46.60925465341521,-23.65793479207536],[-46.60925465341521,-23.657999952716995],[-46.60930077331907,-23.657999952716995],[-46.609346893222934,-23.657999952716995],[-46.609346893222934,-23.65806511335863],[-46.60939301312679,-23.65806511335863],[-46.60943913303065,-23.65806511335863],[-46.60939301312679,-23.658130274000268],[-46.60943913303065,-23.658130274000268],[-46.60943913303065,-23.658195434641904],[-46.609485252934505,-23.658195434641904],[-46.60953137283836,-23.658195434641904],[-46.60957749274222,-23.658195434641904],[-46.609623612646075,-23.658195434641904],[-46.60966973254993,-23.658195434641904],[-46.609715852453796,-23.658195434641904],[-46.60976197235765,-23.658195434641904],[-46.60980809226151,-23.658195434641904],[-46.60980809226151,-23.658260595283537],[-46.60985421216537,-23.658260595283537],[-46.60985421216537,-23.658325755925173],[-46.60990033206922,-23.658325755925173],[-46.60994645197308,-23.658325755925173],[-46.60994645197308,-23.65839091656681],[-46.60999257187694,-23.65839091656681],[-46.610038691780794,-23.65839091656681],[-46.61008481168466,-23.65839091656681],[-46.610130931588515,-23.658456077208445],[-46.61017705149237,-23.658456077208445],[-46.61017705149237,-23.65852123785008],[-46.61022317139623,-23.65852123785008],[-46.610269291300085,-23.65852123785008],[-46.610269291300085,-23.658586398491718],[-46.61031541120394,-23.658586398491718],[-46.6103615311078,-23.658586398491718],[-46.6103615311078,-23.658651559133354],[-46.610407651011656,-23.658651559133354],[-46.61045377091552,-23.658651559133354],[-46.610499890819376,-23.65871671977499],[-46.61054601072323,-23.65871671977499],[-46.61059213062709,-23.65871671977499],[-46.61063825053095,-23.65871671977499],[-46.61063825053095,-23.658781880416626],[-46.610684370434804,-23.658781880416626],[-46.61073049033866,-23.658781880416626],[-46.61077661024252,-23.658781880416626],[-46.61082273014638,-23.658781880416626],[-46.61086885005024,-23.658781880416626],[-46.610914969954095,-23.658781880416626],[-46.61096108985795,-23.658781880416626],[-46.61100720976181,-23.658781880416626],[-46.611053329665666,-23.658781880416626],[-46.61109944956952,-23.658781880416626],[-46.61114556947338,-23.658781880416626],[-46.61119168937724,-23.658847041058262],[-46.6112378092811,-23.658847041058262],[-46.61128392918496,-23.658847041058262],[-46.611330049088814,-23.658847041058262],[-46.61137616899267,-23.658912201699895],[-46.61142228889653,-23.658912201699895],[-46.611468408800384,-23.658912201699895],[-46.611468408800384,-23.65897736234153],[-46.61151452870424,-23.65897736234153],[-46.611560648608105,-23.65897736234153],[-46.61160676851196,-23.65897736234153],[-46.61165288841582,-23.65897736234153],[-46.61165288841582,-23.659042522983167],[-46.611699008319675,-23.659042522983167],[-46.61174512822353,-23.659042522983167],[-46.61179124812739,-23.659042522983167],[-46.611837368031246,-23.659042522983167],[-46.611837368031246,-23.659107683624804],[-46.6118834879351,-23.659107683624804],[-46.61192960783897,-23.659107683624804],[-46.61197572774282,-23.659107683624804],[-46.61202184764668,-23.65917284426644],[-46.61206796755054,-23.65917284426644],[-46.612114087454394,-23.65917284426644],[-46.61216020735825,-23.65917284426644],[-46.61220632726211,-23.65917284426644],[-46.61220632726211,-23.659238004908076],[-46.612252447165964,-23.659238004908076],[-46.61229856706983,-23.659238004908076],[-46.612344686973685,-23.659303165549712],[-46.61239080687754,-23.659303165549712],[-46.6124369267814,-23.659303165549712],[-46.612483046685256,-23.65936832619135],[-46.61252916658911,-23.65936832619135],[-46.61257528649297,-23.65936832619135],[-46.61257528649297,-23.659433486832985],[-46.612621406396826,-23.659433486832985],[-46.61266752630069,-23.659433486832985],[-46.61271364620455,-23.659433486832985],[-46.61271364620455,-23.65949864747462],[-46.612759766108404,-23.65949864747462],[-46.61280588601226,-23.65949864747462],[-46.61280588601226,-23.659563808116253],[-46.61285200591612,-23.659563808116253],[-46.612898125819974,-23.659563808116253],[-46.61294424572383,-23.65962896875789],[-46.61299036562769,-23.65962896875789],[-46.61303648553155,-23.65962896875789],[-46.61308260543541,-23.65962896875789],[-46.61308260543541,-23.659694129399526],[-46.613128725339266,-23.659694129399526],[-46.61317484524312,-23.659694129399526],[-46.61322096514698,-23.659694129399526],[-46.61322096514698,-23.659759290041162],[-46.613267085050836,-23.659759290041162],[-46.61331320495469,-23.659759290041162],[-46.61335932485855,-23.659759290041162],[-46.613405444762414,-23.659759290041162],[-46.61345156466627,-23.659824450682798],[-46.61349768457013,-23.659824450682798],[-46.613543804473984,-23.659824450682798],[-46.613543804473984,-23.659889611324434],[-46.61358992437784,-23.659889611324434],[-46.6136360442817,-23.659889611324434],[-46.6136360442817,-23.65995477196607],[-46.613682164185555,-23.65995477196607],[-46.61372828408941,-23.65995477196607],[-46.613774403993276,-23.660019932607707],[-46.61382052389713,-23.660019932607707],[-46.61386664380099,-23.660019932607707],[-46.61386664380099,-23.660085093249343],[-46.613912763704846,-23.660085093249343],[-46.6139588836087,-23.660085093249343],[-46.61400500351256,-23.660085093249343],[-46.61400500351256,-23.66015025389098],[-46.61405112341642,-23.66015025389098],[-46.61409724332028,-23.66015025389098],[-46.61409724332028,-23.660215414532615],[-46.61414336322414,-23.660215414532615],[-46.614189483127994,-23.660215414532615],[-46.61423560303185,-23.660280575174248],[-46.61437396274342,-23.660280575174248],[-46.61474292197428,-23.660215414532615],[-46.615158001109,-23.659759290041162],[-46.61529636082058,-23.659238004908076],[-46.61538860062829,-23.658847041058262],[-46.61584979966687,-23.65852123785008],[-46.615895919570725,-23.65852123785008],[-46.61594203947459,-23.65852123785008],[-46.615988159378446,-23.658456077208445],[-46.61612651909002,-23.65852123785008],[-46.61621875889773,-23.65839091656681],[-46.61626487880159,-23.658260595283537],[-46.616403238513165,-23.658130274000268],[-46.61644935841702,-23.65806511335863],[-46.616541598224735,-23.65806511335863],[-46.61658771812859,-23.65806511335863],[-46.61663383803245,-23.65806511335863],[-46.61672607784017,-23.657999952716995],[-46.61681831764788,-23.65793479207536],[-46.61686443755174,-23.65793479207536],[-46.616956677359454,-23.657869631433723],[-46.617187276878745,-23.657674149508814],[-46.6172333967826,-23.657608988867178],[-46.61727951668646,-23.657608988867178],[-46.617325636590316,-23.657674149508814],[-46.61769459582118,-23.65773931015045],[-46.61787907543661,-23.65773931015045],[-46.617971315244326,-23.657804470792087],[-46.61820191476362,-23.657804470792087],[-46.618248034667474,-23.657804470792087],[-46.61829415457133,-23.657804470792087],[-46.61834027447519,-23.657804470792087],[-46.618386394379044,-23.657869631433723],[-46.61847863418676,-23.65793479207536],[-46.61866311380219,-23.65806511335863],[-46.618893713321484,-23.658195434641904],[-46.61893983322534,-23.658195434641904],[-46.6189859531292,-23.658260595283537],[-46.61921655264849,-23.658325755925173],[-46.61944715216777,-23.65839091656681],[-46.61986223130249,-23.658586398491718],[-46.620046710917926,-23.658651559133354],[-46.62009283082178,-23.65871671977499],[-46.620185070629496,-23.658781880416626],[-46.62023119053335,-23.658781880416626],[-46.62027731043721,-23.658847041058262],[-46.620323430341074,-23.658847041058262],[-46.620323430341074,-23.658912201699895],[-46.62036955024493,-23.65897736234153],[-46.62055402986036,-23.659303165549712],[-46.62064626966807,-23.659433486832985],[-46.620692389571936,-23.65949864747462],[-46.62078462937965,-23.659563808116253],[-46.620830749283506,-23.659563808116253],[-46.62096910899508,-23.65962896875789],[-46.621107468706654,-23.659694129399526],[-46.62115358861051,-23.659694129399526],[-46.62115358861051,-23.65962896875789],[-46.62133806822594,-23.659694129399526],[-46.62143030803366,-23.659694129399526],[-46.62143030803366,-23.659759290041162],[-46.621476427937516,-23.659759290041162],[-46.621476427937516,-23.659824450682798],[-46.62152254784137,-23.659824450682798],[-46.62156866774523,-23.659889611324434],[-46.62152254784137,-23.659889611324434],[-46.62156866774523,-23.65995477196607],[-46.62156866774523,-23.660019932607707],[-46.62161478764909,-23.660085093249343],[-46.6217070274568,-23.660215414532615],[-46.6217070274568,-23.660280575174248],[-46.62179926726452,-23.660476057099157],[-46.62184538716838,-23.660541217740793],[-46.62179926726452,-23.660541217740793],[-46.62179926726452,-23.660671539024065],[-46.62179926726452,-23.6607366996657],[-46.62184538716838,-23.6607366996657],[-46.62184538716838,-23.660801860307338],[-46.62184538716838,-23.660867020948974],[-46.62179926726452,-23.660867020948974],[-46.62179926726452,-23.660932181590606],[-46.62184538716838,-23.660932181590606],[-46.62184538716838,-23.660997342232243],[-46.62193762697609,-23.660997342232243],[-46.62184538716838,-23.660997342232243],[-46.62184538716838,-23.66106250287388],[-46.621891507072235,-23.66106250287388],[-46.621891507072235,-23.661127663515515],[-46.62193762697609,-23.66119282415715],[-46.62198374687995,-23.66119282415715],[-46.62207598668766,-23.66138830608206],[-46.62212210659152,-23.661518627365332],[-46.62216822649538,-23.661714109290237],[-46.622260466303096,-23.66184443057351],[-46.622260466303096,-23.661974751856782],[-46.62249106582238,-23.661974751856782],[-46.6225833056301,-23.661974751856782],[-46.62262942553396,-23.661974751856782],[-46.622906144957106,-23.661909591215146],[-46.62299838476482,-23.661909591215146],[-46.62304450466868,-23.661909591215146],[-46.62313674447639,-23.66184443057351],[-46.62350570370725,-23.661583788006965],[-46.623597943514966,-23.661518627365332],[-46.62364406341883,-23.661453466723696],[-46.62373630322654,-23.661453466723696],[-46.6237824231304,-23.661453466723696],[-46.6237824231304,-23.661518627365332],[-46.62382854303426,-23.661518627365332],[-46.62405914255355,-23.661518627365332],[-46.6243358619767,-23.661518627365332],[-46.62447422168827,-23.661518627365332],[-46.624658701303694,-23.661518627365332],[-46.62484318091913,-23.661518627365332],[-46.62507378043842,-23.661518627365332],[-46.62511990034228,-23.661518627365332],[-46.625166020246134,-23.661518627365332],[-46.62525826005385,-23.661453466723696],[-46.62544273966928,-23.661453466723696],[-46.625534979476996,-23.661453466723696],[-46.62558109938085,-23.661518627365332],[-46.625673339188566,-23.661453466723696],[-46.62571945909242,-23.661453466723696],[-46.62576557899628,-23.661453466723696],[-46.625857818804,-23.661453466723696],[-46.62604229841943,-23.661453466723696],[-46.626180658131005,-23.661453466723696],[-46.626319017842576,-23.661453466723696],[-46.626457377554146,-23.661453466723696],[-46.62654961736187,-23.661453466723696],[-46.62664185716958,-23.66138830608206],[-46.62668797707344,-23.661453466723696],[-46.62668797707344,-23.661518627365332],[-46.62668797707344,-23.661583788006965],[-46.62668797707344,-23.6616489486486],[-46.62664185716958,-23.661714109290237],[-46.62668797707344,-23.661909591215146],[-46.62668797707344,-23.661974751856782],[-46.626734096977295,-23.66217023378169],[-46.62678021688115,-23.662365715706596],[-46.62678021688115,-23.662496036989868],[-46.62678021688115,-23.66262635827314],[-46.62682633678501,-23.662756679556413],[-46.626872456688865,-23.66282184019805],[-46.62691857659273,-23.662887000839685],[-46.62691857659273,-23.663017322122954],[-46.62691857659273,-23.66308248276459],[-46.626964696496586,-23.663147643406226],[-46.626964696496586,-23.663212804047863],[-46.626964696496586,-23.6632779646895],[-46.626964696496586,-23.663343125331135],[-46.626964696496586,-23.66340828597277],[-46.626964696496586,-23.663538607256044],[-46.62691857659273,-23.66373408918095],[-46.62691857659273,-23.66386441046422],[-46.62691857659273,-23.663929571105857],[-46.62691857659273,-23.66405989238913],[-46.626964696496586,-23.664581177522216],[-46.626964696496586,-23.66497214137203],[-46.626964696496586,-23.665167623296938],[-46.626964696496586,-23.665363105221846],[-46.626964696496586,-23.66549342650512],[-46.626964696496586,-23.665558587146755],[-46.626964696496586,-23.665688908430024],[-46.62691857659273,-23.66575406907166],[-46.62691857659273,-23.665819229713296],[-46.626872456688865,-23.665884390354933],[-46.626872456688865,-23.66594955099657],[-46.626872456688865,-23.666014711638205],[-46.62691857659273,-23.666210193563114],[-46.62691857659273,-23.666340514846382],[-46.62691857659273,-23.66653599677129],[-46.626964696496586,-23.666601157412927],[-46.626964696496586,-23.666926960621108],[-46.62701081640044,-23.66718760318765],[-46.62701081640044,-23.667252763829286],[-46.62701081640044,-23.667383085112558],[-46.62714917611201,-23.667708888320735],[-46.62714917611201,-23.667839209604008],[-46.627103056208156,-23.668034691528916],[-46.62714917611201,-23.668555976662002],[-46.62733365572745,-23.66875145858691],[-46.62779485476602,-23.66920758307836],[-46.62807157418917,-23.669598546928178],[-46.6282560538046,-23.66985918949472],[-46.62834829361231,-23.66998951077799],[-46.628394413516176,-23.6701849927029],[-46.62848665332389,-23.67031531398617],[-46.62848665332389,-23.670510795911078],[-46.6285788931316,-23.67083659911926],[-46.62867113293932,-23.67096692040253],[-46.628809492650895,-23.671162402327436],[-46.62890173245861,-23.671227562969072],[-46.62899397226632,-23.67129272361071],[-46.62904009217018,-23.671357884252345],[-46.62917845188176,-23.67142304489398],[-46.6294551713049,-23.671488205535617],[-46.62968577082419,-23.671553366177253],[-46.629824130535766,-23.67161852681889],[-46.62996249024734,-23.671683687460522],[-46.63010084995891,-23.671814008743794],[-46.630239209670485,-23.671944330027067],[-46.630377569382055,-23.672139811951975],[-46.630515929093626,-23.672400454518517],[-46.63056204899749,-23.672465615160153],[-46.63070040870906,-23.672400454518517],[-46.63120772765149,-23.67161852681889],[-46.6315305669785,-23.670901759760895],[-46.631807286401646,-23.670250153344536],[-46.632084005824794,-23.669337904361633],[-46.63217624563251,-23.669012101153452],[-46.63231460534408,-23.668490816020366],[-46.63249908495951,-23.667383085112558],[-46.632084005824794,-23.667122442546013],[-46.631807286401646,-23.666861799979472],[-46.631576686882354,-23.666470836129655],[-46.63097712813221,-23.66594955099657],[-46.6303314494782,-23.665623747788388],[-46.62987025043962,-23.66549342650512],[-46.629824130535766,-23.665232783938574],[-46.62987025043962,-23.66497214137203],[-46.63005473005505,-23.66451601688058],[-46.63028532957434,-23.66425537431404],[-46.63046980918977,-23.66405989238913],[-46.63097712813221,-23.6632779646895],[-46.631161607747636,-23.66282184019805],[-46.63171504659393,-23.662039912498418],[-46.631945646113216,-23.661779269931873],[-46.63203788592094,-23.661714109290237],[-46.63213012572865,-23.6616489486486],[-46.63217624563251,-23.661518627365332],[-46.63226848544022,-23.661453466723696],[-46.632360725247935,-23.661323145440424],[-46.6324068451518,-23.661257984798787],[-46.63249908495951,-23.661127663515515],[-46.63254520486337,-23.661127663515515],[-46.63263744467108,-23.66106250287388],[-46.63268356457494,-23.660997342232243],[-46.6327296844788,-23.660997342232243],[-46.63277580438266,-23.660997342232243],[-46.63282192428652,-23.660997342232243],[-46.632868044190374,-23.66060637838243],[-46.63291416409423,-23.660476057099157],[-46.63291416409423,-23.660345735815884],[-46.63291416409423,-23.660280575174248],[-46.63291416409423,-23.660215414532615],[-46.63296028399809,-23.66015025389098],[-46.633006403901945,-23.660085093249343],[-46.6330525238058,-23.660019932607707],[-46.63309864370966,-23.660019932607707],[-46.63314476361352,-23.65995477196607],[-46.63319088351738,-23.65995477196607],[-46.633237003421236,-23.65995477196607],[-46.63328312332509,-23.65995477196607],[-46.63337536313281,-23.660019932607707],[-46.63342148303666,-23.660019932607707],[-46.63346760294052,-23.65995477196607],[-46.63342148303666,-23.65995477196607],[-46.63342148303666,-23.659889611324434],[-46.63346760294052,-23.659889611324434],[-46.633513722844384,-23.65949864747462],[-46.63355984274824,-23.65897736234153],[-46.63355984274824,-23.658781880416626],[-46.6336059626521,-23.65852123785008],[-46.6336059626521,-23.658260595283537],[-46.633652082555955,-23.65806511335863],[-46.633652082555955,-23.657804470792087],[-46.63369820245981,-23.65747866758391],[-46.63374432236367,-23.657218025017364],[-46.63374432236367,-23.657022543092456],[-46.633790442267525,-23.65682706116755],[-46.633790442267525,-23.656566418601006],[-46.63383656217138,-23.65630577603446],[-46.633882682075246,-23.65604513346792],[-46.633882682075246,-23.65571933025974],[-46.6339288019791,-23.655458687693198],[-46.6339288019791,-23.65526320576829],[-46.63397492188296,-23.655132884485017],[-46.63397492188296,-23.654872241918472],[-46.634021041786816,-23.65415547486048],[-46.634021041786816,-23.6538296716523],[-46.634021041786816,-23.65350386844412],[-46.63397492188296,-23.653243225877578],[-46.6339288019791,-23.652982583311033],[-46.63342148303666,-23.653112904594305],[-46.63263744467108,-23.653308386519214],[-46.63199176601707,-23.653438707802486],[-46.6315305669785,-23.653569029085755],[-46.63139220726693,-23.653569029085755],[-46.63125384755535,-23.65350386844412],[-46.63111548784378,-23.65337354716085],[-46.63106936793992,-23.653243225877578],[-46.631023248036065,-23.65304774395267],[-46.63093100822835,-23.65272194074449],[-46.63083876842063,-23.651288406628503],[-46.63074652861292,-23.65115808534523],[-46.63070040870906,-23.651092924703594],[-46.630654288805204,-23.650897442778685],[-46.63060816890135,-23.650441318287236],[-46.63056204899749,-23.649203266096155],[-46.629824130535766,-23.649203266096155],[-46.628947852362465,-23.649203266096155],[-46.62890173245861,-23.649203266096155],[-46.628809492650895,-23.649333587379427],[-46.62862501303546,-23.649463908662696],[-46.62844053342003,-23.649463908662696],[-46.62834829361231,-23.649463908662696],[-46.6282560538046,-23.649463908662696],[-46.62797933438145,-23.649463908662696],[-46.62756425524673,-23.649463908662696],[-46.626872456688865,-23.649529069304332],[-46.626734096977295,-23.649529069304332],[-46.626734096977295,-23.649659390587605],[-46.62641125765029,-23.64972455122924],[-46.626457377554146,-23.649854872512513],[-46.626180658131005,-23.64992003315415],[-46.62590393870786,-23.649985193795786],[-46.625673339188566,-23.64972455122924],[-46.625673339188566,-23.649463908662696],[-46.625673339188566,-23.64926842673779],[-46.62525826005385,-23.648616820321433],[-46.62484318091913,-23.64868198096307],[-46.62484318091913,-23.64770457133853],[-46.62484318091913,-23.64750908941362],[-46.6249815406307,-23.64724844684708],[-46.625166020246134,-23.646857482997262],[-46.62535049986156,-23.64659684043072],[-46.62562721928471,-23.646205876580904],[-46.625811698900144,-23.645945234014363],[-46.62599617851557,-23.645684591447818],[-46.62604229841943,-23.645619430806182],[-46.626088418323285,-23.645554270164546],[-46.626180658131005,-23.645423948881277],[-46.62622677803486,-23.645423948881277],[-46.62627289793872,-23.64535878823964],[-46.62627289793872,-23.645293627598004],[-46.626319017842576,-23.645293627598004],[-46.626319017842576,-23.645228466956368],[-46.626319017842576,-23.645163306314732],[-46.626319017842576,-23.645098145673096],[-46.626319017842576,-23.64503298503146],[-46.626319017842576,-23.644967824389823],[-46.626319017842576,-23.644902663748187],[-46.62636513774643,-23.644772342464915],[-46.62636513774643,-23.644707181823282],[-46.62641125765029,-23.64457686054001],[-46.626457377554146,-23.644511699898374],[-46.62654961736187,-23.644316217973465],[-46.62664185716958,-23.644055575406924],[-46.62668797707344,-23.643860093482015],[-46.62678021688115,-23.643729772198743],[-46.626872456688865,-23.643469129632198],[-46.62691857659273,-23.643403968990565],[-46.62691857659273,-23.64333880834893],[-46.626964696496586,-23.643273647707293],[-46.626964696496586,-23.643208487065657],[-46.626964696496586,-23.64314332642402],[-46.626964696496586,-23.643078165782384],[-46.626964696496586,-23.64281752321584],[-46.626964696496586,-23.642622041290934],[-46.626964696496586,-23.6425568806493],[-46.62701081640044,-23.642491720007662],[-46.62701081640044,-23.642426559366026],[-46.62701081640044,-23.64236139872439],[-46.6270569363043,-23.642296238082753],[-46.627103056208156,-23.64216591679948],[-46.62724141591973,-23.641970434874576],[-46.62733365572745,-23.64170979230803],[-46.62747201543902,-23.641383989099854],[-46.62756425524673,-23.641188507174945],[-46.62761037515059,-23.64112334653331],[-46.62761037515059,-23.641058185891673],[-46.62761037515059,-23.640993025250037],[-46.62761037515059,-23.6409278646084],[-46.62761037515059,-23.640797543325128],[-46.62761037515059,-23.640536900758587],[-46.62761037515059,-23.64034141883368],[-46.62756425524673,-23.639298848567506],[-46.62761037515059,-23.63923368792587],[-46.62756425524673,-23.63890788471769],[-46.62756425524673,-23.638842724076053],[-46.62756425524673,-23.638712402792784],[-46.627518135342875,-23.638516920867875],[-46.62756425524673,-23.638516920867875],[-46.62811769409303,-23.638777563434417],[-46.62844053342003,-23.63890788471769],[-46.628809492650895,-23.638777563434417],[-46.62899397226632,-23.638777563434417],[-46.629362931497184,-23.638712402792784],[-46.629593531016475,-23.63858208150951],[-46.630008610151194,-23.638647242151148],[-46.6303314494782,-23.638842724076053],[-46.630377569382055,-23.638842724076053],[-46.6303314494782,-23.638516920867875],[-46.6303314494782,-23.638060796376422],[-46.63028532957434,-23.63766983252661],[-46.63028532957434,-23.637278868676795],[-46.630239209670485,-23.63701822611025],[-46.630239209670485,-23.636887904826978],[-46.630239209670485,-23.636692422902073],[-46.630239209670485,-23.63636661969389],[-46.630239209670485,-23.636301459052255],[-46.63019308976663,-23.636301459052255],[-46.63019308976663,-23.63623629841062],[-46.63019308976663,-23.636171137768983],[-46.63019308976663,-23.636105977127347],[-46.63019308976663,-23.63604081648571],[-46.63019308976663,-23.635975655844078],[-46.63019308976663,-23.635649852635897],[-46.63019308976663,-23.63558469199426],[-46.630146969862764,-23.635519531352625],[-46.630146969862764,-23.63545437071099],[-46.630146969862764,-23.635193728144447],[-46.630146969862764,-23.63499824621954],[-46.63010084995891,-23.634933085577902],[-46.63010084995891,-23.63480276429463],[-46.63010084995891,-23.63467244301136],[-46.63010084995891,-23.634607282369725],[-46.63010084995891,-23.634476961086452],[-46.63010084995891,-23.63434663980318],[-46.63010084995891,-23.633955675953366],[-46.630008610151194,-23.632717623762282],[-46.630008610151194,-23.63265246312065],[-46.630008610151194,-23.632391820554105],[-46.62996249024734,-23.63213117798756],[-46.62996249024734,-23.63187053542102],[-46.62996249024734,-23.631609892854474],[-46.62996249024734,-23.631414410929565],[-46.62991637034348,-23.63089312579648],[-46.62991637034348,-23.630762804513207],[-46.62991637034348,-23.63069764387157],[-46.62987025043962,-23.630502161946666],[-46.62987025043962,-23.630306680021757],[-46.62987025043962,-23.63011119809685],[-46.6297780106319,-23.629394431038854],[-46.6297780106319,-23.629264109755585],[-46.6297780106319,-23.62919894911395],[-46.629731890728046,-23.62900346718904],[-46.629731890728046,-23.628938306547404],[-46.62968577082419,-23.62867766398086],[-46.62963965092033,-23.628351860772682],[-46.629593531016475,-23.628156378847773],[-46.62954741111262,-23.627895736281232],[-46.62950129120876,-23.627700254356323],[-46.629362931497184,-23.6271138085816],[-46.62931681159333,-23.62698348729833],[-46.62927069168947,-23.626853166015056],[-46.62922457178561,-23.626657684090148],[-46.62917845188176,-23.62652736280688],[-46.6291323319779,-23.62633188088197],[-46.629086212074036,-23.626266720240334],[-46.62904009217018,-23.626136398957062],[-46.62899397226632,-23.625940917032153],[-46.62890173245861,-23.62554995318234],[-46.628809492650895,-23.62535447125743],[-46.628809492650895,-23.625224149974162],[-46.628717252843174,-23.625028668049254],[-46.62862501303546,-23.62476802548271],[-46.6285788931316,-23.624507382916168],[-46.62853277322775,-23.624377061632895],[-46.62844053342003,-23.62411641906635],[-46.628394413516176,-23.623920937141442],[-46.6282560538046,-23.623529973291628],[-46.62820993390074,-23.623269330725083],[-46.62811769409303,-23.62307384880018],[-46.62807157418917,-23.622813206233634],[-46.628025454285314,-23.622617724308725],[-46.62797933438145,-23.622487403025456],[-46.62793321447759,-23.62222676045891],[-46.62793321447759,-23.62209643917564],[-46.62788709457374,-23.62190095725073],[-46.62788709457374,-23.621705475325825],[-46.62788709457374,-23.62144483275928],[-46.62788709457374,-23.621249350834372],[-46.62784097466988,-23.621053868909467],[-46.62784097466988,-23.620923547626195],[-46.62784097466988,-23.62040226249311],[-46.62784097466988,-23.62001129864329],[-46.62784097466988,-23.619946138001655],[-46.62779485476602,-23.61975065607675],[-46.62779485476602,-23.619620334793478],[-46.62779485476602,-23.61942485286857],[-46.62779485476602,-23.619294531585297],[-46.62779485476602,-23.61922937094366],[-46.62779485476602,-23.619164210302028],[-46.627748734862166,-23.619033889018755],[-46.62770261495831,-23.61877324645221],[-46.62770261495831,-23.618708085810574],[-46.62765649505445,-23.618577764527302],[-46.62761037515059,-23.618447443244033],[-46.62756425524673,-23.61831712196076],[-46.627518135342875,-23.61818680067749],[-46.62742589553516,-23.61773067618604],[-46.62747201543902,-23.617600354902766],[-46.62747201543902,-23.61753519426113],[-46.62742589553516,-23.617470033619494],[-46.627379775631304,-23.617274551694585],[-46.62733365572745,-23.61707906976968],[-46.62728753582359,-23.61688358784477],[-46.62719529601587,-23.616492623994958],[-46.62719529601587,-23.616362302711686],[-46.62714917611201,-23.61610166014514],[-46.6270569363043,-23.615906178220232],[-46.626964696496586,-23.61531973244551],[-46.62691857659273,-23.615189411162238],[-46.62691857659273,-23.615124250520605],[-46.62691857659273,-23.614993929237333],[-46.62691857659273,-23.614928768595696],[-46.62691857659273,-23.614798447312424],[-46.626964696496586,-23.614602965387515],[-46.626964696496586,-23.614472644104247],[-46.6270569363043,-23.614016519612793],[-46.6270569363043,-23.61388619832952],[-46.627103056208156,-23.613821037687888],[-46.627103056208156,-23.613755877046252],[-46.627103056208156,-23.613690716404616],[-46.62714917611201,-23.61362555576298],[-46.62719529601587,-23.61343007383807],[-46.62719529601587,-23.613364913196435],[-46.62724141591973,-23.6132997525548],[-46.62724141591973,-23.613234591913162],[-46.62733365572745,-23.613039109988257],[-46.627379775631304,-23.612908788704985],[-46.62747201543902,-23.612582985496804],[-46.627518135342875,-23.612582985496804],[-46.62756425524673,-23.6123875035719],[-46.62765649505445,-23.61219202164699],[-46.62770261495831,-23.612061700363718],[-46.627748734862166,-23.611931379080445],[-46.62779485476602,-23.611801057797177],[-46.62784097466988,-23.611670736513904],[-46.62788709457374,-23.611540415230632],[-46.62788709457374,-23.61141009394736],[-46.62793321447759,-23.611344933305723],[-46.628025454285314,-23.611019130097546],[-46.628025454285314,-23.610823648172637],[-46.62807157418917,-23.610693326889365],[-46.62807157418917,-23.610563005606092],[-46.62807157418917,-23.610497844964456],[-46.62807157418917,-23.610432684322824],[-46.62807157418917,-23.61030236303955],[-46.62807157418917,-23.610237202397915],[-46.62807157418917,-23.61017204175628],[-46.62807157418917,-23.610041720473006],[-46.62807157418917,-23.60997655983137],[-46.628025454285314,-23.609846238548098],[-46.628025454285314,-23.609650756623193],[-46.628025454285314,-23.609585595981557],[-46.62797933438145,-23.60952043533992],[-46.62797933438145,-23.609455274698284],[-46.62793321447759,-23.609390114056648],[-46.62788709457374,-23.609259792773376],[-46.62784097466988,-23.60906431084847],[-46.62779485476602,-23.608999150206834],[-46.627748734862166,-23.608868828923562],[-46.62770261495831,-23.60873850764029],[-46.62765649505445,-23.60854302571538],[-46.62761037515059,-23.608477865073745],[-46.627518135342875,-23.608347543790476],[-46.62747201543902,-23.60828238314884],[-46.627379775631304,-23.60808690122393],[-46.62733365572745,-23.60795657994066],[-46.62724141591973,-23.607761098015754],[-46.62719529601587,-23.607695937374118],[-46.62714917611201,-23.607565616090845],[-46.627103056208156,-23.60750045544921],[-46.6270569363043,-23.607370134165937],[-46.626964696496586,-23.607109491599395],[-46.626872456688865,-23.606914009674487],[-46.626872456688865,-23.60684884903285],[-46.62682633678501,-23.606783688391214],[-46.62678021688115,-23.606718527749578],[-46.626734096977295,-23.606588206466306],[-46.62668797707344,-23.606457885183033],[-46.62664185716958,-23.6063927245414],[-46.626595737265724,-23.60626240325813],[-46.62654961736187,-23.606197242616492],[-46.626503497458,-23.60606692133322],[-46.626457377554146,-23.605936600049947],[-46.62641125765029,-23.60587143940831],[-46.62636513774643,-23.605741118125042],[-46.626319017842576,-23.60561079684177],[-46.62627289793872,-23.605545636200134],[-46.62622677803486,-23.605480475558497],[-46.62622677803486,-23.605350154275225],[-46.62613453822714,-23.605219832991953],[-46.62613453822714,-23.605154672350317],[-46.62604229841943,-23.605024351067048],[-46.62599617851557,-23.604894029783775],[-46.625950058611714,-23.604763708500503],[-46.62590393870786,-23.604698547858867],[-46.62590393870786,-23.60463338721723],[-46.625857818804,-23.604568226575594],[-46.625811698900144,-23.604437905292322],[-46.625811698900144,-23.60437274465069],[-46.62576557899628,-23.60437274465069],[-46.62571945909242,-23.604242423367417],[-46.625673339188566,-23.604112102084144],[-46.62558109938085,-23.603916620159236],[-46.625534979476996,-23.603786298875963],[-46.62544273966928,-23.60359081695106],[-46.62539661976542,-23.603460495667786],[-46.62535049986156,-23.603330174384514],[-46.625304379957704,-23.603265013742877],[-46.62525826005385,-23.60319985310124],[-46.62521214014999,-23.603004371176336],[-46.62507378043842,-23.602678567968155],[-46.625027660534556,-23.602548246684883],[-46.62484318091913,-23.60215728283507],[-46.624750941111415,-23.602026961551797],[-46.62470482120756,-23.601896640268524],[-46.62470482120756,-23.601831479626888],[-46.62461258139984,-23.60170115834362],[-46.62447422168827,-23.601440515777075],[-46.6243358619767,-23.60104955192726],[-46.62428974207283,-23.60091923064399],[-46.624243622168976,-23.600854070002352],[-46.62419750226512,-23.60072374871908],[-46.62405914255355,-23.60052826679417],[-46.623874662938114,-23.600137302944358],[-46.62373630322654,-23.599876660377813],[-46.62364406341883,-23.59974633909454],[-46.623597943514966,-23.59961601781127],[-46.62355182361111,-23.599550857169636],[-46.62350570370725,-23.599420535886363],[-46.623459583803395,-23.599420535886363],[-46.62341346389954,-23.599225053961455],[-46.623228984284104,-23.598899250753277],[-46.623090624572534,-23.598638608186732],[-46.62295226486096,-23.598443126261824],[-46.62286002505324,-23.598182483695282],[-46.62272166534167,-23.597987001770374],[-46.6225833056301,-23.59772635920383],[-46.622444945918524,-23.597530877278924],[-46.62230658620695,-23.597205074070743],[-46.62221434639924,-23.597009592145838],[-46.62207598668766,-23.59681411022093],[-46.62198374687995,-23.59661862829602],[-46.62184538716838,-23.596357985729476],[-46.62175314736066,-23.596227664446207],[-46.62166090755294,-23.5960321825213],[-46.62156866774523,-23.59583670059639],[-46.621476427937516,-23.595641218671485],[-46.62143030803366,-23.595510897388213],[-46.62133806822594,-23.59538057610494],[-46.621245828418225,-23.595119933538395],[-46.621107468706654,-23.594859290971854],[-46.6210613488028,-23.594663809046946],[-46.62096910899508,-23.594272845197132],[-46.62092298909122,-23.59414252391386],[-46.62087686918736,-23.593881881347315],[-46.620830749283506,-23.593686399422406],[-46.62073850947579,-23.593230274930956],[-46.620692389571936,-23.59290447172278],[-46.62064626966807,-23.592774150439507],[-46.620600149764215,-23.59270898979787],[-46.620600149764215,-23.592578668514598],[-46.620600149764215,-23.592448347231326],[-46.62055402986036,-23.59225286530642],[-46.6205079099565,-23.592057383381512],[-46.620461790052644,-23.591861901456603],[-46.62041567014879,-23.591666419531695],[-46.62036955024493,-23.59147093760679],[-46.62036955024493,-23.59127545568188],[-46.620323430341074,-23.59114513439861],[-46.62027731043721,-23.590949652473704],[-46.62023119053335,-23.590754170548795],[-46.620185070629496,-23.590558688623886],[-46.62013895072564,-23.59029804605734],[-46.620046710917926,-23.589841921565892],[-46.62000059101407,-23.58958127899935],[-46.61990835120635,-23.58905999386626],[-46.61990835120635,-23.588994833224625],[-46.61986223130249,-23.588734190658084],[-46.61976999149478,-23.588538708733175],[-46.61972387159092,-23.588343226808266],[-46.619677751687064,-23.588212905524998],[-46.61963163178321,-23.588082584241725],[-46.61958551187935,-23.587952262958453],[-46.619539391975486,-23.58782194167518],[-46.61949327207163,-23.587691620391908],[-46.61944715216777,-23.587626459750272],[-46.619401032263916,-23.587430977825367],[-46.6193087924562,-23.587235495900458],[-46.619170432744625,-23.58704001397555],[-46.619032073033054,-23.58677937140901],[-46.61893983322534,-23.5865838894841],[-46.618755353609906,-23.586323246917555],[-46.61857087399448,-23.585997443709378],[-46.618386394379044,-23.585671640501197],[-46.61834027447519,-23.585541319217928],[-46.61820191476362,-23.58534583729302],[-46.61801743514818,-23.585020034084838],[-46.61792519534047,-23.584824552159933],[-46.617740715725034,-23.58456390959339],[-46.61769459582118,-23.584498748951752],[-46.61764847591732,-23.584433588310116],[-46.617602356013464,-23.584303267026844],[-46.61755623610961,-23.584303267026844],[-46.61751011620575,-23.58423810638521],[-46.61746399630189,-23.584172945743575],[-46.617325636590316,-23.58410778510194],[-46.61727951668646,-23.584042624460302],[-46.617187276878745,-23.583977463818666],[-46.61709503707103,-23.58391230317703],[-46.616956677359454,-23.583847142535394],[-46.61681831764788,-23.583781981893758],[-46.61667995793631,-23.583781981893758],[-46.616541598224735,-23.58371682125212],[-46.616403238513165,-23.58371682125212],[-46.61626487880159,-23.58371682125212],[-46.61612651909002,-23.583651660610485],[-46.615988159378446,-23.583651660610485],[-46.61584979966687,-23.58358649996885],[-46.615757559859155,-23.58358649996885],[-46.61548084043601,-23.58345617868558],[-46.61538860062829,-23.583391018043944],[-46.61529636082058,-23.583391018043944],[-46.61525024091672,-23.583325857402308],[-46.615111881205145,-23.58326069676067],[-46.61506576130129,-23.58326069676067],[-46.61506576130129,-23.583195536119035],[-46.614973521493575,-23.5831303754774],[-46.61492740158972,-23.583065214835763],[-46.61488128168586,-23.583000054194127],[-46.614835161782004,-23.58293489355249],[-46.61478904187814,-23.582869732910858],[-46.61474292197428,-23.58280457226922],[-46.61474292197428,-23.582739411627585],[-46.614696802070426,-23.58267425098595],[-46.61460456226271,-23.582543929702677],[-46.61442008264728,-23.582283287136132],[-46.614327842839565,-23.582087805211227],[-46.61423560303185,-23.581957483927955],[-46.614327842839565,-23.581957483927955],[-46.61446620255114,-23.581827162644682],[-46.614558442358856,-23.581762002003046],[-46.61474292197428,-23.581631680719774],[-46.61506576130129,-23.58143619879487],[-46.615158001109,-23.581371038153232],[-46.615158001109,-23.581305877511596],[-46.615204121012866,-23.581305877511596],[-46.61529636082058,-23.58124071686996],[-46.61543472053215,-23.581175556228324],[-46.61543472053215,-23.581110395586688],[-46.61548084043601,-23.581110395586688],[-46.61557308024373,-23.58104523494505],[-46.6157114399553,-23.58091491366178],[-46.615757559859155,-23.58091491366178],[-46.61580367976301,-23.580849753020146],[-46.61584979966687,-23.580849753020146],[-46.615895919570725,-23.58078459237851],[-46.61594203947459,-23.58078459237851],[-46.615988159378446,-23.580719431736874],[-46.61608039918616,-23.580654271095238],[-46.61612651909002,-23.580654271095238],[-46.61617263899387,-23.5805891104536],[-46.61626487880159,-23.580523949811965],[-46.61649547832088,-23.580328467887057],[-46.616541598224735,-23.580328467887057],[-46.61658771812859,-23.58026330724542],[-46.61667995793631,-23.580198146603788],[-46.61672607784017,-23.580198146603788],[-46.61700279726331,-23.579937504037243],[-46.61727951668646,-23.579742022112335],[-46.61741787639804,-23.5796768614707],[-46.61751011620575,-23.579611700829062],[-46.61755623610961,-23.579611700829062],[-46.61764847591732,-23.579481379545793],[-46.6177868356289,-23.579416218904157],[-46.617832955532755,-23.57935105826252],[-46.61792519534047,-23.579285897620885],[-46.61801743514818,-23.57922073697925],[-46.61806355505204,-23.57922073697925],[-46.618109674955896,-23.579155576337612],[-46.61815579485976,-23.579155576337612],[-46.61815579485976,-23.579090415695976],[-46.61820191476362,-23.579090415695976]]]}}]}