{"type":"FeatureCollection","features":[{"type":"Feature","properties":{"DATA_ULT_A":"2009/10/09","DATA_CRIAC":"2009/10/09","id":24,"name":"Itaim Paulista","area":21.7,"pop_2010":373127,"pop_density_2010":17195,"budget_2015":41970635},"geometry":{"type":"Polygon","coordinates":[[[-46.43072450558194,-23.52422515543859],[-46.43072450558194,-23.524094834155317],[-46.43072450558194,-23.52389935223041],[-46.430816745389656,-23.523378067097322],[-46.43095510510123,-23.522856781964236],[-46.43095510510123,-23.5227916213226],[-46.43095510510123,-23.522661300039328],[-46.43095510510123,-23.522530978756055],[-46.43095510510123,-23.52233549683115],[-46.43095510510123,-23.522205175547878],[-46.43090898519738,-23.522074854264606],[-46.430816745389656,-23.52181421169806],[-46.4307706254858,-23.521683890414792],[-46.43063226577423,-23.52135808720661],[-46.43063226577423,-23.521292926564975],[-46.430678385678085,-23.521162605281702],[-46.4307706254858,-23.520967123356797],[-46.4307706254858,-23.52090196271516],[-46.430816745389656,-23.520836802073525],[-46.4307706254858,-23.52077164143189],[-46.4307706254858,-23.520706480790253],[-46.430678385678085,-23.52057615950698],[-46.43063226577423,-23.520445838223708],[-46.43063226577423,-23.52031551694044],[-46.43058614587037,-23.520250356298803],[-46.430540025966515,-23.52012003501553],[-46.43040166625494,-23.51979423180735],[-46.43035554635108,-23.51966391052408],[-46.43035554635108,-23.519598749882444],[-46.43035554635108,-23.519468428599172],[-46.43035554635108,-23.519403267957536],[-46.43040166625494,-23.5193381073159],[-46.430540025966515,-23.519207786032627],[-46.43072450558194,-23.51888198282445],[-46.4307706254858,-23.518816822182814],[-46.4307706254858,-23.518751661541177],[-46.4307706254858,-23.51868650089954],[-46.4307706254858,-23.518621340257905],[-46.43072450558194,-23.518491018974633],[-46.43063226577423,-23.51836069769136],[-46.430540025966515,-23.51823037640809],[-46.430447786158794,-23.518165215766455],[-46.430309426447224,-23.517969733841547],[-46.43021718663951,-23.517774251916638],[-46.43012494683179,-23.517578769991733],[-46.42998658712022,-23.517383288066824],[-46.42994046721636,-23.517318127425188],[-46.42994046721636,-23.517252966783552],[-46.42994046721636,-23.517187806141916],[-46.42994046721636,-23.517057484858643],[-46.429894347312505,-23.51699232421701],[-46.429894347312505,-23.516927163575374],[-46.429894347312505,-23.51686200293374],[-46.429894347312505,-23.516796842292102],[-46.42994046721636,-23.516731681650466],[-46.42998658712022,-23.516601360367194],[-46.430032707024075,-23.516536199725557],[-46.43012494683179,-23.51647103908392],[-46.43021718663951,-23.516340717800652],[-46.43026330654337,-23.516275557159016],[-46.430309426447224,-23.516145235875744],[-46.43035554635108,-23.516080075234107],[-46.43035554635108,-23.51601491459247],[-46.43035554635108,-23.515949753950835],[-46.43040166625494,-23.5158845933092],[-46.43040166625494,-23.515754272025926],[-46.43040166625494,-23.51568911138429],[-46.430447786158794,-23.515623950742658],[-46.430447786158794,-23.51555879010102],[-46.430447786158794,-23.515493629459385],[-46.43049390606265,-23.515363308176113],[-46.430447786158794,-23.515298147534477],[-46.430447786158794,-23.51523298689284],[-46.430447786158794,-23.515167826251204],[-46.430447786158794,-23.515102665609568],[-46.43049390606265,-23.515037504967932],[-46.430447786158794,-23.514907183684663],[-46.430447786158794,-23.514842023043027],[-46.43049390606265,-23.514711701759754],[-46.43049390606265,-23.514581380476482],[-46.43049390606265,-23.51445105919321],[-46.43049390606265,-23.51432073790994],[-46.430540025966515,-23.514125255985032],[-46.430540025966515,-23.514060095343396],[-46.430540025966515,-23.51399493470176],[-46.43058614587037,-23.513864613418487],[-46.43063226577423,-23.51379945277685],[-46.430678385678085,-23.513734292135215],[-46.4307706254858,-23.513603970851946],[-46.430816745389656,-23.513603970851946],[-46.43086286529351,-23.513473649568674],[-46.43090898519738,-23.513408488927038],[-46.43095510510123,-23.5133433282854],[-46.43100122500509,-23.5133433282854],[-46.43104734490895,-23.51321300700213],[-46.431093464812804,-23.513147846360493],[-46.43113958471666,-23.513082685718857],[-46.43113958471666,-23.512952364435588],[-46.43113958471666,-23.51288720379395],[-46.43113958471666,-23.512822043152315],[-46.43118570462052,-23.512691721869043],[-46.431231824524374,-23.51256140058577],[-46.431231824524374,-23.512431079302498],[-46.43127794442824,-23.51230075801923],[-46.43137018423595,-23.512235597377593],[-46.43141630413981,-23.51210527609432],[-46.431462424043666,-23.51197495481105],[-46.43155466385138,-23.511844633527776],[-46.4316469036591,-23.51177947288614],[-46.43169302356296,-23.511714312244504],[-46.431739143466814,-23.511649151602867],[-46.43178526337067,-23.511583990961235],[-46.431877503178384,-23.511388509036326],[-46.431877503178384,-23.51132334839469],[-46.43192362308224,-23.511258187753054],[-46.43206198279382,-23.510932384544876],[-46.432246462409246,-23.510606581336695],[-46.432384822120824,-23.51021561748688],[-46.43243094202468,-23.51008529620361],[-46.43247706192854,-23.50975949299543],[-46.43247706192854,-23.509564011070523],[-46.43243094202468,-23.50943368978725],[-46.43243094202468,-23.509238207862342],[-46.43233870221697,-23.509042725937434],[-46.4322925823131,-23.508977565295798],[-46.43220034250539,-23.508716922729256],[-46.4319697429861,-23.508391119521075],[-46.43178526337067,-23.508065316312898],[-46.4316469036591,-23.507804673746353],[-46.43150854394752,-23.507609191821444],[-46.43141630413981,-23.507478870538176],[-46.431324064332095,-23.507283388613267],[-46.431231824524374,-23.50708790668836],[-46.43104734490895,-23.506827264121817],[-46.43086286529351,-23.506501460913636],[-46.43072450558194,-23.506240818347095],[-46.430540025966515,-23.506045336422186],[-46.43040166625494,-23.505849854497278],[-46.430309426447224,-23.505719533214005],[-46.43012494683179,-23.505458890647464],[-46.429894347312505,-23.505133087439283],[-46.42975598760093,-23.504872444872742],[-46.429663747793214,-23.504611802306197],[-46.429479268177786,-23.504285999098016],[-46.429387028370066,-23.50396019588984],[-46.429248668658495,-23.503634392681658],[-46.42920254875464,-23.503438910756753],[-46.42915642885078,-23.503373750115117],[-46.42915642885078,-23.50330858947348],[-46.42887970942763,-23.502591822415486],[-46.428602990004485,-23.501940215999127],[-46.42841851038906,-23.501484091507677],[-46.4283723904852,-23.501223448941133],[-46.428326270581344,-23.50109312765786],[-46.42823403077362,-23.500571842524774],[-46.42823403077362,-23.500506681883138],[-46.42823403077362,-23.50031119995823],[-46.42823403077362,-23.499789914825143],[-46.42823403077362,-23.499333790333694],[-46.42823403077362,-23.499138308408785],[-46.42828015067748,-23.498812505200608],[-46.428326270581344,-23.49842154135079],[-46.4283723904852,-23.498095738142613],[-46.42841851038906,-23.497704774292796],[-46.428464630292915,-23.497444131726255],[-46.42864910990834,-23.496922846593165],[-46.42874134971606,-23.49672736466826],[-46.42883358952378,-23.496466722101715],[-46.429018069139204,-23.495880276326993],[-46.429110308946925,-23.495684794402084],[-46.429248668658495,-23.495358991193907],[-46.429248668658495,-23.495228669910635],[-46.42929478856235,-23.495163509269],[-46.42934090846621,-23.495098348627362],[-46.429387028370066,-23.495098348627362],[-46.42952538808164,-23.495033187985726],[-46.4295715079855,-23.49496802734409],[-46.4295715079855,-23.494902866702454],[-46.4295715079855,-23.494772545419185],[-46.42961762788936,-23.494642224135912],[-46.42961762788936,-23.49451190285264],[-46.42961762788936,-23.494446742211004],[-46.429663747793214,-23.49431642092773],[-46.429663747793214,-23.494251260286095],[-46.429663747793214,-23.494120939002826],[-46.42970986769707,-23.49405577836119],[-46.42975598760093,-23.493925457077918],[-46.42980210750479,-23.49386029643628],[-46.429894347312505,-23.49372997515301],[-46.42994046721636,-23.493664814511373],[-46.42998658712022,-23.493664814511373],[-46.43012494683179,-23.4935344932281],[-46.430309426447224,-23.49340417194483],[-46.43040166625494,-23.493339011303195],[-46.430447786158794,-23.49327385066156],[-46.43049390606265,-23.49327385066156],[-46.43058614587037,-23.493208690019923],[-46.430678385678085,-23.493143529378287],[-46.43072450558194,-23.493143529378287],[-46.430816745389656,-23.49307836873665],[-46.43090898519738,-23.49307836873665],[-46.43100122500509,-23.493143529378287],[-46.43113958471666,-23.493143529378287],[-46.431231824524374,-23.493143529378287],[-46.431324064332095,-23.493143529378287],[-46.43141630413981,-23.493143529378287],[-46.43150854394752,-23.49307836873665],[-46.43155466385138,-23.49307836873665],[-46.4316469036591,-23.493013208095014],[-46.4316469036591,-23.49294804745338],[-46.431739143466814,-23.492882886811742],[-46.431877503178384,-23.492817726170106],[-46.43201586288996,-23.492752565528473],[-46.432246462409246,-23.492687404886837],[-46.43243094202468,-23.492687404886837],[-46.43261542164011,-23.4926222442452],[-46.43270766144783,-23.492557083603565],[-46.432753781351686,-23.49249192296193],[-46.432892141063256,-23.49249192296193],[-46.43298438087097,-23.49249192296193],[-46.433168860486404,-23.492426762320292],[-46.43335334010183,-23.492426762320292],[-46.43358393962112,-23.492361601678656],[-46.43386065904427,-23.492361601678656],[-46.43427573817899,-23.492361601678656],[-46.43455245760214,-23.492361601678656],[-46.43478305712142,-23.492361601678656],[-46.43501365664071,-23.49229644103702],[-46.43519813625614,-23.49229644103702],[-46.43533649596772,-23.492231280395384],[-46.43542873577543,-23.492166119753747],[-46.435567095487,-23.492100959112115],[-46.43570545519858,-23.491970637828842],[-46.43584381491015,-23.491775155903934],[-46.43598217462172,-23.491579673979025],[-46.436028294525585,-23.49138419205412],[-46.43441409789056,-23.491579673979025],[-46.43349169981341,-23.491709995262298],[-46.43312274058255,-23.491709995262298],[-46.43293826096711,-23.491775155903934],[-46.432753781351686,-23.491775155903934],[-46.43261542164011,-23.491775155903934],[-46.43256930173625,-23.491775155903934],[-46.432523181832394,-23.491775155903934],[-46.43243094202468,-23.491775155903934],[-46.432246462409246,-23.49184031654557],[-46.43215422260153,-23.49184031654557],[-46.43206198279382,-23.49184031654557],[-46.431877503178384,-23.49184031654557],[-46.43183138327453,-23.49184031654557],[-46.43169302356296,-23.49184031654557],[-46.43155466385138,-23.49184031654557],[-46.43155466385138,-23.491905477187206],[-46.43141630413981,-23.491905477187206],[-46.43127794442824,-23.491905477187206],[-46.43113958471666,-23.491905477187206],[-46.43104734490895,-23.491905477187206],[-46.43095510510123,-23.491970637828842],[-46.43086286529351,-23.491970637828842],[-46.430678385678085,-23.491970637828842],[-46.43049390606265,-23.491970637828842],[-46.43035554635108,-23.49203579847048],[-46.430309426447224,-23.49203579847048],[-46.43007882692793,-23.49203579847048],[-46.430032707024075,-23.49203579847048],[-46.42998658712022,-23.49203579847048],[-46.42994046721636,-23.49203579847048],[-46.42961762788936,-23.492100959112115],[-46.42952538808164,-23.492100959112115],[-46.42943314827393,-23.492100959112115],[-46.42929478856235,-23.492100959112115],[-46.429110308946925,-23.492100959112115],[-46.42906418904307,-23.492100959112115],[-46.42897194923535,-23.492100959112115],[-46.42892582933149,-23.492100959112115],[-46.42887970942763,-23.492100959112115],[-46.42883358952378,-23.492100959112115],[-46.42874134971606,-23.492100959112115],[-46.42864910990834,-23.492100959112115],[-46.42864910990834,-23.492166119753747],[-46.42855687010063,-23.492166119753747],[-46.428464630292915,-23.492166119753747],[-46.42814179096591,-23.492166119753747],[-46.42795731135048,-23.492231280395384],[-46.42786507154276,-23.492231280395384],[-46.42777283173505,-23.492231280395384],[-46.427680591927334,-23.492231280395384],[-46.42763447202348,-23.492231280395384],[-46.42754223221576,-23.49229644103702],[-46.42721939288876,-23.49229644103702],[-46.42712715308104,-23.49229644103702],[-46.427034913273324,-23.49229644103702],[-46.42698879336947,-23.49229644103702],[-46.42694267346561,-23.49229644103702],[-46.42685043365789,-23.492361601678656],[-46.42671207394632,-23.492361601678656],[-46.426619834138606,-23.492361601678656],[-46.42652759433089,-23.492361601678656],[-46.42648147442703,-23.492361601678656],[-46.42643535452317,-23.492361601678656],[-46.426250874907744,-23.492361601678656],[-46.425974155484596,-23.492426762320292],[-46.425835795773025,-23.492426762320292],[-46.42565131615759,-23.492426762320292],[-46.425466836542164,-23.49249192296193],[-46.425328476830586,-23.49249192296193],[-46.42514399721516,-23.49249192296193],[-46.42500563750358,-23.49249192296193],[-46.42486727779201,-23.492557083603565],[-46.42472891808044,-23.492557083603565],[-46.42463667827272,-23.492557083603565],[-46.42459055836886,-23.492557083603565],[-46.42449831856115,-23.492557083603565],[-46.424406078753435,-23.492557083603565],[-46.42435995884958,-23.492557083603565],[-46.42426771904186,-23.492557083603565],[-46.424175479234144,-23.4926222442452],[-46.42408323942643,-23.4926222442452],[-46.42394487971486,-23.4926222442452],[-46.42385263990714,-23.4926222442452],[-46.423760400099425,-23.4926222442452],[-46.42366816029171,-23.4926222442452],[-46.423622040387855,-23.4926222442452],[-46.42334532096471,-23.492687404886837],[-46.42334532096471,-23.4926222442452],[-46.423114721445415,-23.492687404886837],[-46.42288412192613,-23.492687404886837],[-46.4226996423107,-23.492687404886837],[-46.42246904279141,-23.492752565528473],[-46.42210008356055,-23.492752565528473],[-46.42186948404126,-23.492817726170106],[-46.42126992529111,-23.492817726170106],[-46.420900966060245,-23.492882886811742],[-46.420762606348674,-23.492882886811742],[-46.420347527213956,-23.49294804745338],[-46.41979408836766,-23.493013208095014],[-46.419701848559946,-23.49307836873665],[-46.41951736894451,-23.49307836873665],[-46.419332889329084,-23.49307836873665],[-46.41896393009822,-23.493143529378287],[-46.41887169029051,-23.493143529378287],[-46.418548850963504,-23.493143529378287],[-46.418410491251926,-23.493208690019923],[-46.41808765192493,-23.493208690019923],[-46.41776481259792,-23.49327385066156],[-46.41721137375163,-23.493339011303195],[-46.41679629461691,-23.493339011303195],[-46.41642733538605,-23.49340417194483],[-46.4161506159629,-23.49340417194483],[-46.415643297020466,-23.493469332586464],[-46.41545881740503,-23.493469332586464],[-46.415274337789604,-23.493469332586464],[-46.41481313875103,-23.4935344932281],[-46.414351939712446,-23.493599653869737],[-46.41361402125072,-23.493664814511373],[-46.412876102789,-23.49372997515301],[-46.41246102365428,-23.493795135794645],[-46.41218430423113,-23.493795135794645],[-46.41204594451956,-23.493795135794645],[-46.411769225096414,-23.493795135794645],[-46.41158474548099,-23.493795135794645],[-46.41153862557713,-23.493795135794645],[-46.41144638576941,-23.493795135794645],[-46.41140026586555,-23.49386029643628],[-46.41130802605784,-23.49386029643628],[-46.41116966634627,-23.49386029643628],[-46.411123546442404,-23.49386029643628],[-46.41107742653855,-23.49386029643628],[-46.41103130663469,-23.49386029643628],[-46.41089294692312,-23.49386029643628],[-46.410800707115406,-23.493925457077918],[-46.41066234740383,-23.493925457077918],[-46.41038562798068,-23.493925457077918],[-46.41029338817297,-23.493925457077918],[-46.41010890855754,-23.493990617719554],[-46.40987830903825,-23.493990617719554],[-46.40983218913439,-23.493990617719554],[-46.409786069230535,-23.493990617719554],[-46.40964770951896,-23.493990617719554],[-46.40955546971124,-23.493990617719554],[-46.40946322990353,-23.49405577836119],[-46.40941710999967,-23.49405577836119],[-46.409370990095816,-23.49405577836119],[-46.409278750288095,-23.49405577836119],[-46.40923263038424,-23.49405577836119],[-46.40918651048038,-23.49405577836119],[-46.40918651048038,-23.494120939002826],[-46.409002030864954,-23.494120939002826],[-46.40886367115338,-23.494120939002826],[-46.408725311441806,-23.49418609964446],[-46.408586951730236,-23.49418609964446],[-46.40844859201866,-23.49418609964446],[-46.40831023230709,-23.49418609964446],[-46.40817187259551,-23.49418609964446],[-46.40798739298008,-23.494251260286095],[-46.40780291336465,-23.494251260286095],[-46.407572313845364,-23.494251260286095],[-46.407433954133786,-23.49431642092773],[-46.407295594422216,-23.49431642092773],[-46.407064994902925,-23.49431642092773],[-46.40697275509521,-23.49431642092773],[-46.40683439538364,-23.494381581569368],[-46.40683439538364,-23.49431642092773],[-46.40655767596049,-23.49431642092773],[-46.406280956537344,-23.49431642092773],[-46.40605035701806,-23.49431642092773],[-46.405865877402626,-23.49431642092773],[-46.40581975749877,-23.49431642092773],[-46.40577363759491,-23.49431642092773],[-46.4056813977872,-23.49431642092773],[-46.40558915797948,-23.49431642092773],[-46.40540467836405,-23.49431642092773],[-46.40535855846019,-23.49431642092773],[-46.40517407884476,-23.49431642092773],[-46.4051279589409,-23.49431642092773],[-46.40503571913319,-23.49431642092773],[-46.40489735942161,-23.49431642092773],[-46.404851239517754,-23.49431642092773],[-46.40471287980618,-23.49431642092773],[-46.40462063999847,-23.49431642092773],[-46.40457452009461,-23.49431642092773],[-46.404436160383035,-23.49431642092773],[-46.404436160383035,-23.494381581569368],[-46.402868083651875,-23.49431642092773],[-46.40277584384416,-23.49431642092773],[-46.4024068846133,-23.49431642092773],[-46.40236076470944,-23.494251260286095],[-46.40056208845899,-23.49418609964446],[-46.40056208845899,-23.494120939002826],[-46.40056208845899,-23.49405577836119],[-46.400008649612694,-23.493990617719554],[-46.39987028990112,-23.493990617719554],[-46.3997780500934,-23.493925457077918],[-46.39968581028569,-23.493925457077918],[-46.399593570477975,-23.493925457077918],[-46.39954745057412,-23.493925457077918],[-46.39950133067026,-23.493925457077918],[-46.39940909086254,-23.493925457077918],[-46.399362970958684,-23.493925457077918],[-46.39931685105483,-23.493925457077918],[-46.39927073115097,-23.493925457077918],[-46.39917849134326,-23.493925457077918],[-46.39908625153554,-23.493925457077918],[-46.39904013163168,-23.493925457077918],[-46.39899401172782,-23.493925457077918],[-46.398947891823966,-23.49386029643628],[-46.39890177192011,-23.49386029643628],[-46.398809532112395,-23.49386029643628],[-46.39876341220854,-23.49386029643628],[-46.39871729230468,-23.49386029643628],[-46.39867117240082,-23.49386029643628],[-46.398578932593104,-23.49386029643628],[-46.39848669278539,-23.49386029643628],[-46.39844057288153,-23.49386029643628],[-46.398394452977676,-23.49386029643628],[-46.39834833307382,-23.49386029643628],[-46.398302213169956,-23.49386029643628],[-46.3982560932661,-23.49386029643628],[-46.39820997336224,-23.49386029643628],[-46.398163853458385,-23.49386029643628],[-46.39811773355453,-23.49386029643628],[-46.39807161365067,-23.49386029643628],[-46.39797937384296,-23.49386029643628],[-46.39788713403524,-23.493795135794645],[-46.39779489422752,-23.493795135794645],[-46.39770265441981,-23.493795135794645],[-46.39765653451595,-23.493795135794645],[-46.39756429470823,-23.493795135794645],[-46.39747205490052,-23.493795135794645],[-46.39733369518895,-23.493795135794645],[-46.397241455381234,-23.49372997515301],[-46.39714921557351,-23.49372997515301],[-46.3970569757658,-23.49372997515301],[-46.39691861605423,-23.493664814511373],[-46.39687249615037,-23.493664814511373],[-46.39678025634265,-23.493664814511373],[-46.396734136438795,-23.493599653869737],[-46.39668801653494,-23.493599653869737],[-46.39664189663108,-23.493599653869737],[-46.396595776727224,-23.493599653869737],[-46.39650353691951,-23.4935344932281],[-46.39641129711179,-23.4935344932281],[-46.39627293740022,-23.493469332586464],[-46.396180697592506,-23.49340417194483],[-46.396088457784785,-23.493339011303195],[-46.39599621797707,-23.493339011303195],[-46.395950098073214,-23.49327385066156],[-46.3958578582655,-23.493208690019923],[-46.395811738361644,-23.493208690019923],[-46.395811738361644,-23.493143529378287],[-46.39576561845778,-23.493143529378287],[-46.395673378650066,-23.49307836873665],[-46.39562725874621,-23.49307836873665],[-46.39558113884235,-23.493013208095014],[-46.395535018938496,-23.493013208095014],[-46.39548889903464,-23.49294804745338],[-46.39539665922692,-23.492882886811742],[-46.39535053932306,-23.492817726170106],[-46.395304419419205,-23.492817726170106],[-46.39525829951535,-23.492752565528473],[-46.39521217961149,-23.492752565528473],[-46.395166059707634,-23.492687404886837],[-46.39507381989992,-23.492557083603565],[-46.3949815800922,-23.49249192296193],[-46.39493546018834,-23.492426762320292],[-46.394889340284486,-23.492361601678656],[-46.39484322038063,-23.49229644103702],[-46.394750980572915,-23.492231280395384],[-46.39470486066906,-23.492166119753747],[-46.39461262086134,-23.492100959112115],[-46.394520381053624,-23.49203579847048],[-46.394520381053624,-23.491970637828842],[-46.39447426114977,-23.491970637828842],[-46.39442814124591,-23.491905477187206],[-46.394382021342054,-23.49184031654557],[-46.3943359014382,-23.491775155903934],[-46.39428978153433,-23.491709995262298],[-46.394243661630476,-23.491709995262298],[-46.39419754172662,-23.49164483462066],[-46.39415142182276,-23.491579673979025],[-46.394105301918906,-23.491579673979025],[-46.394105301918906,-23.49151451333739],[-46.39405918201505,-23.49151451333739],[-46.39401306211119,-23.49151451333739],[-46.393966942207335,-23.49151451333739],[-46.393966942207335,-23.491449352695753],[-46.39392082230347,-23.49138419205412],[-46.393874702399614,-23.49138419205412],[-46.39382858249576,-23.491319031412484],[-46.39382858249576,-23.491253870770848],[-46.3937824625919,-23.491253870770848],[-46.393736342688044,-23.49118871012921],[-46.39369022278419,-23.491123549487575],[-46.39364410288033,-23.491123549487575],[-46.39318290384175,-23.490667424996126],[-46.39304454413018,-23.490471943071217],[-46.39295230432246,-23.490341621787945],[-46.392813944610886,-23.490211300504672],[-46.39272170480317,-23.490146139863036],[-46.392675584899315,-23.490080979221403],[-46.39262946499546,-23.490015818579767],[-46.3925833450916,-23.48995065793813],[-46.392537225187745,-23.489885497296495],[-46.392444985380024,-23.48982033665486],[-46.39239886547617,-23.489755176013222],[-46.39235274557231,-23.489690015371586],[-46.39230662566845,-23.489690015371586],[-46.3922605057646,-23.48962485472995],[-46.39221438586074,-23.489559694088314],[-46.392122146053026,-23.489494533446678],[-46.39207602614916,-23.489429372805045],[-46.392029906245305,-23.48936421216341],[-46.39193766643759,-23.489299051521773],[-46.391891546533735,-23.489233890880136],[-46.391891546533735,-23.4891687302385],[-46.39184542662988,-23.4891687302385],[-46.39179930672602,-23.489103569596864],[-46.3917070669183,-23.489038408955228],[-46.391660947014444,-23.48897324831359],[-46.3917070669183,-23.48897324831359],[-46.39156870720673,-23.48884292703032],[-46.39152258730287,-23.48884292703032],[-46.391476467399016,-23.48871260574705],[-46.39133810768744,-23.488647445105414],[-46.391245867879725,-23.48851712382214],[-46.39115362807201,-23.48838680253887],[-46.391107508168155,-23.48838680253887],[-46.3910613882643,-23.488321641897233],[-46.391015268360434,-23.488321641897233],[-46.39096914845658,-23.48819132061396],[-46.39092302855272,-23.488126159972325],[-46.39087690864886,-23.488126159972325],[-46.39073854893729,-23.487995838689056],[-46.39064630912957,-23.48793067804742],[-46.390600189225715,-23.487865517405783],[-46.39055406932186,-23.487800356764147],[-46.390507949418,-23.487800356764147],[-46.390507949418,-23.48773519612251],[-46.39041570961029,-23.487670035480875],[-46.39027734989871,-23.48760487483924],[-46.39023122999485,-23.487539714197602],[-46.390185110091,-23.48760487483924],[-46.39000063047557,-23.487474553555966],[-46.390046750379426,-23.487409392914333],[-46.39000063047557,-23.487344232272697],[-46.38986227076399,-23.48727907163106],[-46.38977003095628,-23.487213910989425],[-46.389677791148564,-23.48714875034779],[-46.38958555134085,-23.487083589706153],[-46.38953943143699,-23.487018429064516],[-46.38944719162927,-23.48695326842288],[-46.38935495182156,-23.48695326842288],[-46.389262712013846,-23.486888107781244],[-46.389170472206125,-23.486822947139608],[-46.38907823239841,-23.486757786497975],[-46.38893987268684,-23.48669262585634],[-46.38884763287913,-23.486627465214703],[-46.388755393071406,-23.486627465214703],[-46.38866315326369,-23.486562304573066],[-46.388617033359836,-23.486562304573066],[-46.38857091345598,-23.48649714393143],[-46.38852479355212,-23.48649714393143],[-46.388386433840544,-23.486431983289794],[-46.38834031393669,-23.486431983289794],[-46.38829419403283,-23.486431983289794],[-46.388248074128974,-23.486431983289794],[-46.3881097144174,-23.486366822648158],[-46.387971354705826,-23.48630166200652],[-46.387832994994255,-23.486236501364885],[-46.38769463528268,-23.48617134072325],[-46.387602395474964,-23.486106180081613],[-46.38741791585954,-23.48604101943998],[-46.38727955614796,-23.485975858798344],[-46.38714119643639,-23.485845537515072],[-46.38700283672482,-23.485780376873436],[-46.386818357109384,-23.485780376873436],[-46.386633877493956,-23.485650055590163],[-46.38649551778238,-23.485584894948527],[-46.386403277974665,-23.48551973430689],[-46.386172678455374,-23.485389413023622],[-46.3860343187438,-23.485324252381986],[-46.38598819883995,-23.485324252381986],[-46.385757599320655,-23.485193931098713],[-46.38538864008979,-23.484998449173805],[-46.385204160474366,-23.484868127890532],[-46.385111920666645,-23.484802967248896],[-46.38501968085893,-23.484802967248896],[-46.38506580076279,-23.484737806607264],[-46.38469684153193,-23.484542324682355],[-46.38437400220492,-23.484346842757446],[-46.38405116287792,-23.484216521474174],[-46.383774443454776,-23.4840862001909],[-46.38349772403163,-23.483955878907633],[-46.38322100460848,-23.483760396982724],[-46.382898165281475,-23.483630075699452],[-46.382621445858334,-23.48349975441618],[-46.38229860653133,-23.483304272491274],[-46.381975767204324,-23.483173951208002],[-46.381699047781176,-23.482978469283093],[-46.38142232835803,-23.48284814799982],[-46.3812378487426,-23.482782987358185],[-46.380776649704025,-23.48258750543328],[-46.38059217008859,-23.482457184150007],[-46.38054605018473,-23.482522344791644],[-46.38017709095387,-23.482326862866735],[-46.379715891915296,-23.482196541583463],[-46.379162453069,-23.482001059658558],[-46.37851677441499,-23.481870738375285],[-46.37847065451113,-23.481870738375285],[-46.37842453460728,-23.48193589901692],[-46.37837841470342,-23.482001059658558],[-46.37833229479956,-23.48206622030019],[-46.37833229479956,-23.482131380941826],[-46.378286174895706,-23.482196541583463],[-46.37824005499185,-23.4822617022251],[-46.37824005499185,-23.48239202350837],[-46.378193935087985,-23.48239202350837],[-46.37814781518413,-23.482522344791644],[-46.37810169528027,-23.48258750543328],[-46.37800945547256,-23.482782987358185],[-46.37800945547256,-23.48284814799982],[-46.3779633355687,-23.482913308641457],[-46.3779633355687,-23.482978469283093],[-46.377917215664844,-23.482978469283093],[-46.377917215664844,-23.48304362992473],[-46.37787109576099,-23.483108790566366],[-46.37787109576099,-23.483173951208002],[-46.37782497585712,-23.483173951208002],[-46.37777885595327,-23.483304272491274],[-46.37777885595327,-23.48336943313291],[-46.37768661614555,-23.483434593774543],[-46.377640496241696,-23.483564915057816],[-46.37759437633784,-23.483760396982724],[-46.37754825643398,-23.483890718265997],[-46.377502136530126,-23.483955878907633],[-46.377502136530126,-23.48402103954927],[-46.377409896722405,-23.484216521474174],[-46.377409896722405,-23.48428168211581],[-46.37736377681855,-23.484346842757446],[-46.377271537010834,-23.484412003399083],[-46.37722541710698,-23.48447716404072],[-46.37717929720312,-23.484542324682355],[-46.377133177299264,-23.484672645965627],[-46.3770870573954,-23.484802967248896],[-46.37704093749154,-23.484868127890532],[-46.376994817587686,-23.484998449173805],[-46.37694869768383,-23.48506360981544],[-46.37690257777997,-23.485128770457077],[-46.376856457876116,-23.485193931098713],[-46.37681033797226,-23.485193931098713],[-46.3767642180684,-23.48525909174035],[-46.37671809816454,-23.485324252381986],[-46.37671809816454,-23.485389413023622],[-46.37667197826068,-23.485454573665255],[-46.376625858356824,-23.48551973430689],[-46.37657973845297,-23.485584894948527],[-46.37653361854911,-23.485650055590163],[-46.376487498645254,-23.4857152162318],[-46.3764413787414,-23.485780376873436],[-46.37639525883754,-23.485845537515072],[-46.37630301902982,-23.485975858798344],[-46.37625689912596,-23.48604101943998],[-46.376210779222106,-23.486106180081613],[-46.37616465931825,-23.48617134072325],[-46.37611853941439,-23.486236501364885],[-46.376072419510535,-23.48630166200652],[-46.37602629960668,-23.486366822648158],[-46.375980179702815,-23.48649714393143],[-46.3758879398951,-23.486562304573066],[-46.3758879398951,-23.486627465214703],[-46.375841819991244,-23.486627465214703],[-46.37574958018353,-23.486822947139608],[-46.37561122047195,-23.487018429064516],[-46.375565100568096,-23.48714875034779],[-46.37547286076038,-23.487213910989425],[-46.375426740856525,-23.48727907163106],[-46.37538062095267,-23.487344232272697],[-46.37538062095267,-23.487409392914333],[-46.37533450104881,-23.487539714197602],[-46.37524226124109,-23.48760487483924],[-46.37524226124109,-23.487670035480875],[-46.375196141337234,-23.48773519612251],[-46.37510390152952,-23.487800356764147],[-46.375057781625664,-23.487865517405783],[-46.37501166172181,-23.487865517405783],[-46.37496554181795,-23.48793067804742],[-46.37487330201023,-23.488060999330692],[-46.37482718210637,-23.488126159972325],[-46.374781062202516,-23.48819132061396],[-46.37473494229866,-23.488256481255597],[-46.374642702490945,-23.488451963180506],[-46.37459658258709,-23.48851712382214],[-46.374550462683224,-23.488582284463778],[-46.37445822287551,-23.488777766388687],[-46.374412102971654,-23.488777766388687],[-46.374412102971654,-23.48884292703032],[-46.3743659830678,-23.488908087671955],[-46.37431986316394,-23.489038408955228],[-46.37427374326008,-23.489103569596864],[-46.37422762335623,-23.4891687302385],[-46.37418150345236,-23.489233890880136],[-46.374135383548506,-23.489299051521773],[-46.37404314374079,-23.489429372805045],[-46.37404314374079,-23.489494533446678],[-46.373997023836935,-23.489559694088314],[-46.37395090393308,-23.48962485472995],[-46.37395090393308,-23.489690015371586],[-46.37390478402922,-23.489755176013222],[-46.373858664125365,-23.489885497296495],[-46.373766424317644,-23.48995065793813],[-46.37372030441379,-23.490080979221403],[-46.37362806460607,-23.490146139863036],[-46.37358194470222,-23.490211300504672],[-46.37353582479836,-23.49027646114631],[-46.37344358499064,-23.490341621787945],[-46.37325910537521,-23.49060226435449],[-46.3731668655675,-23.490732585637762],[-46.37312074566364,-23.490797746279394],[-46.37302850585592,-23.49086290692103],[-46.372982385952064,-23.490928067562667],[-46.37293626604821,-23.490993228204303],[-46.37289014614435,-23.490993228204303],[-46.372797906336636,-23.491123549487575],[-46.37275178643278,-23.491319031412484],[-46.37265954662506,-23.49138419205412],[-46.372567306817345,-23.49151451333739],[-46.37247506700963,-23.491579673979025],[-46.37238282720192,-23.491709995262298],[-46.372336707298054,-23.491775155903934],[-46.37224446749034,-23.49184031654557],[-46.372152227682626,-23.491905477187206],[-46.37205998787491,-23.491970637828842],[-46.372013867971056,-23.49203579847048],[-46.371921628163335,-23.492100959112115],[-46.37187550825948,-23.492166119753747],[-46.37182938835562,-23.492231280395384],[-46.371783268451765,-23.49229644103702],[-46.37173714854791,-23.492426762320292],[-46.37173714854791,-23.49249192296193],[-46.37169102864405,-23.492557083603565],[-46.371644908740194,-23.492687404886837],[-46.371644908740194,-23.492817726170106],[-46.371644908740194,-23.492882886811742],[-46.37159878883633,-23.49294804745338],[-46.37159878883633,-23.493013208095014],[-46.37155266893247,-23.49307836873665],[-46.37155266893247,-23.493143529378287],[-46.37155266893247,-23.493208690019923],[-46.37150654902862,-23.49327385066156],[-46.37150654902862,-23.493339011303195],[-46.37146042912476,-23.493469332586464],[-46.3714143092209,-23.4935344932281],[-46.37132206941319,-23.4935344932281],[-46.37127594950933,-23.493599653869737],[-46.37122982960547,-23.493664814511373],[-46.37118370970161,-23.49372997515301],[-46.371137589797755,-23.493795135794645],[-46.3710914698939,-23.49386029643628],[-46.37104534999004,-23.49386029643628],[-46.370999230086184,-23.49386029643628],[-46.370999230086184,-23.493925457077918],[-46.37095311018233,-23.493925457077918],[-46.37090699027847,-23.493990617719554],[-46.37086087037461,-23.49405577836119],[-46.37081475047075,-23.494120939002826],[-46.37076863056689,-23.49418609964446],[-46.370722510663036,-23.494251260286095],[-46.37067639075918,-23.494251260286095],[-46.37063027085532,-23.494381581569368],[-46.370584150951466,-23.494446742211004],[-46.37053803104761,-23.49451190285264],[-46.37039967133603,-23.494642224135912],[-46.370353551432174,-23.49470738477755],[-46.37030743152832,-23.494772545419185],[-46.37026131162446,-23.494772545419185],[-46.37026131162446,-23.494837706060817],[-46.370215191720604,-23.494837706060817],[-46.370215191720604,-23.494902866702454],[-46.37016907181675,-23.494902866702454],[-46.37016907181675,-23.49496802734409],[-46.37012295191288,-23.49496802734409],[-46.370076832009026,-23.495033187985726],[-46.370076832009026,-23.495098348627362],[-46.37003071210517,-23.495098348627362],[-46.37003071210517,-23.495163509269],[-46.37003071210517,-23.495228669910635],[-46.37003071210517,-23.49529383055227],[-46.36998459220131,-23.49529383055227],[-46.36998459220131,-23.495358991193907],[-46.36998459220131,-23.495424151835543],[-46.369938472297456,-23.495489312477176],[-46.369938472297456,-23.495554473118812],[-46.369938472297456,-23.495619633760448],[-46.369938472297456,-23.495684794402084],[-46.3698923523936,-23.495684794402084],[-46.3698923523936,-23.49574995504372],[-46.3698923523936,-23.495815115685357],[-46.36984623248974,-23.495880276326993],[-46.36984623248974,-23.49594543696863],[-46.36984623248974,-23.496010597610265],[-46.36980011258588,-23.4960757582519],[-46.36980011258588,-23.496140918893538],[-46.36980011258588,-23.49620607953517],[-46.36975399268202,-23.49620607953517],[-46.36975399268202,-23.496271240176807],[-46.36975399268202,-23.496336400818443],[-46.36975399268202,-23.49640156146008],[-46.36975399268202,-23.496466722101715],[-46.36975399268202,-23.49653188274335],[-46.36975399268202,-23.496597043384988],[-46.36975399268202,-23.496662204026624],[-46.36975399268202,-23.49672736466826],[-46.36975399268202,-23.496792525309896],[-46.36975399268202,-23.496922846593165],[-46.36975399268202,-23.4969880072348],[-46.36975399268202,-23.497053167876437],[-46.369707872778164,-23.497118328518074],[-46.369707872778164,-23.49718348915971],[-46.36966175287431,-23.497248649801346],[-46.36961563297045,-23.497248649801346],[-46.36961563297045,-23.497313810442982],[-46.36961563297045,-23.49737897108462],[-46.369569513066594,-23.49737897108462],[-46.36952339316274,-23.497444131726255],[-46.36947727325888,-23.497509292367887],[-46.36947727325888,-23.497574453009523],[-46.369431153355016,-23.49763961365116],[-46.3693389135473,-23.497704774292796],[-46.3693389135473,-23.497769934934432],[-46.36924667373959,-23.497769934934432],[-46.36920055383573,-23.497835095576068],[-46.369154433931875,-23.497900256217704],[-46.36910831402802,-23.497900256217704],[-46.369062194124155,-23.49796541685934],[-46.369062194124155,-23.498030577500977],[-46.3690160742203,-23.498095738142613],[-46.36896995431644,-23.49816089878425],[-46.368923834412584,-23.498226059425882],[-46.36883159460487,-23.498356380709154],[-46.36873935479716,-23.49842154135079],[-46.36869323489329,-23.498486701992427],[-46.368647114989436,-23.498551862634063],[-46.36860099508558,-23.4986170232757],[-46.36855487518172,-23.4986170232757],[-46.368508755277865,-23.498682183917335],[-46.36846263537401,-23.49874734455897],[-46.36790919652771,-23.4986170232757],[-46.36735575768142,-23.498486701992427],[-46.36712515816213,-23.4995292722586],[-46.36712515816213,-23.49965959354187],[-46.36717127806599,-23.49965959354187],[-46.36735575768142,-23.499724754183507],[-46.36740187758528,-23.499724754183507],[-46.36744799748914,-23.499724754183507],[-46.36754023729685,-23.499724754183507],[-46.36758635720071,-23.499789914825143],[-46.36763247710457,-23.499789914825143],[-46.36758635720071,-23.499789914825143],[-46.36754023729685,-23.49985507546678],[-46.367494117392994,-23.49985507546678],[-46.36744799748914,-23.499920236108416],[-46.36740187758528,-23.499985396750052],[-46.36740187758528,-23.50005055739169],[-46.36735575768142,-23.50005055739169],[-46.36735575768142,-23.500115718033324],[-46.367309637777566,-23.50018087867496],[-46.367309637777566,-23.500246039316593],[-46.36726351787371,-23.500246039316593],[-46.36726351787371,-23.50031119995823],[-46.36726351787371,-23.500376360599866],[-46.36726351787371,-23.500441521241502],[-46.367217397969846,-23.500506681883138],[-46.367217397969846,-23.500571842524774],[-46.367217397969846,-23.50063700316641],[-46.367217397969846,-23.500702163808047],[-46.36717127806599,-23.500702163808047],[-46.36717127806599,-23.500767324449683],[-46.36717127806599,-23.50083248509132],[-46.36712515816213,-23.50083248509132],[-46.36712515816213,-23.50089764573295],[-46.36712515816213,-23.500962806374588],[-46.367079038258275,-23.500962806374588],[-46.367079038258275,-23.501027967016224],[-46.36703291835442,-23.501027967016224],[-46.36703291835442,-23.50109312765786],[-46.36698679845056,-23.501158288299496],[-46.36698679845056,-23.501223448941133],[-46.366940678546705,-23.501223448941133],[-46.366940678546705,-23.50128860958277],[-46.36689455864285,-23.501353770224405],[-46.366848438738984,-23.50141893086604],[-46.366848438738984,-23.501484091507677],[-46.36680231883513,-23.50154925214931],[-46.36675619893127,-23.501614412790946],[-46.36671007902741,-23.501614412790946],[-46.36671007902741,-23.501679573432583],[-46.36666395912356,-23.501679573432583],[-46.36666395912356,-23.50174473407422],[-46.3666178392197,-23.50174473407422],[-46.36657171931584,-23.501809894715855],[-46.366525599411986,-23.50187505535749],[-46.366525599411986,-23.501940215999127],[-46.36647947950812,-23.501940215999127],[-46.366433359604265,-23.502005376640764],[-46.36638723970041,-23.5020705372824],[-46.36634111979655,-23.502135697924036],[-46.366294999892695,-23.502200858565672],[-46.36624887998884,-23.502200858565672],[-46.36620276008498,-23.50233117984894],[-46.366156640181124,-23.50233117984894],[-46.366156640181124,-23.502396340490577],[-46.36611052027726,-23.502396340490577],[-46.3660644003734,-23.502461501132213],[-46.36601828046955,-23.502461501132213],[-46.36597216056569,-23.50252666177385],[-46.36592604066183,-23.50252666177385],[-46.365879920757976,-23.502591822415486],[-46.36583380085412,-23.502591822415486],[-46.36578768095026,-23.502656983057122],[-46.3657415610464,-23.502656983057122],[-46.3657415610464,-23.502722143698758],[-46.3657415610464,-23.502787304340394],[-46.36569544114254,-23.502787304340394],[-46.36569544114254,-23.50285246498203],[-46.36569544114254,-23.502917625623663],[-46.365649321238685,-23.502917625623663],[-46.36560320133483,-23.5029827862653],[-46.36555708143097,-23.503047946906936],[-46.365510961527114,-23.503047946906936],[-46.365510961527114,-23.50311310754857],[-46.365510961527114,-23.503178268190208],[-46.36546484162326,-23.503243428831844],[-46.3654187217194,-23.50330858947348],[-46.3654187217194,-23.503373750115117],[-46.3654187217194,-23.50350407139839],[-46.36537260181554,-23.503634392681658],[-46.36532648191168,-23.503699553323294],[-46.36532648191168,-23.50376471396493],[-46.36528036200782,-23.503829874606566],[-46.365234242103966,-23.503895035248203],[-46.365234242103966,-23.50396019588984],[-46.365234242103966,-23.504025356531475],[-46.365234242103966,-23.50409051717311],[-46.365234242103966,-23.504155677814747],[-46.365234242103966,-23.504220838456384],[-46.365234242103966,-23.504285999098016],[-46.365234242103966,-23.504351159739652],[-46.365234242103966,-23.50441632038129],[-46.36528036200782,-23.504481481022925],[-46.36528036200782,-23.50454664166456],[-46.36528036200782,-23.504611802306197],[-46.365234242103966,-23.504676962947833],[-46.36528036200782,-23.504676962947833],[-46.36528036200782,-23.50474212358947],[-46.36528036200782,-23.504807284231106],[-46.36528036200782,-23.504872444872742],[-46.36528036200782,-23.504937605514375],[-46.36528036200782,-23.50500276615601],[-46.36532648191168,-23.50500276615601],[-46.36532648191168,-23.505067926797647],[-46.36532648191168,-23.505133087439283],[-46.36532648191168,-23.50519824808092],[-46.36532648191168,-23.505263408722556],[-46.36532648191168,-23.505328569364192],[-46.36532648191168,-23.505393730005828],[-46.36532648191168,-23.505458890647464],[-46.36537260181554,-23.505458890647464],[-46.36537260181554,-23.5055240512891],[-46.36537260181554,-23.505589211930733],[-46.3654187217194,-23.505589211930733],[-46.3654187217194,-23.50565437257237],[-46.36546484162326,-23.505719533214005],[-46.36546484162326,-23.50578469385564],[-46.36546484162326,-23.505849854497278],[-46.365510961527114,-23.505915015138914],[-46.365510961527114,-23.50598017578055],[-46.365510961527114,-23.506045336422186],[-46.365510961527114,-23.506110497063823],[-46.365510961527114,-23.50617565770546],[-46.365510961527114,-23.506240818347095],[-46.36555708143097,-23.506240818347095],[-46.36555708143097,-23.506305978988728],[-46.36555708143097,-23.506371139630364],[-46.36555708143097,-23.506436300272],[-46.36560320133483,-23.506501460913636],[-46.36560320133483,-23.506566621555272],[-46.365649321238685,-23.506566621555272],[-46.365649321238685,-23.50663178219691],[-46.365649321238685,-23.506696942838545],[-46.365649321238685,-23.50676210348018],[-46.36569544114254,-23.50676210348018],[-46.36569544114254,-23.506827264121817],[-46.36569544114254,-23.506892424763453],[-46.3657415610464,-23.506892424763453],[-46.36578768095026,-23.506957585405086],[-46.36578768095026,-23.507022746046722],[-46.36578768095026,-23.50708790668836],[-46.36578768095026,-23.507153067329995],[-46.36578768095026,-23.50721822797163],[-46.36583380085412,-23.507283388613267],[-46.36583380085412,-23.507348549254903],[-46.36583380085412,-23.50741370989654],[-46.36578768095026,-23.507478870538176],[-46.36583380085412,-23.507544031179812],[-46.36583380085412,-23.507609191821444],[-46.36583380085412,-23.50767435246308],[-46.365879920757976,-23.50767435246308],[-46.365879920757976,-23.507739513104717],[-46.36592604066183,-23.507739513104717],[-46.36592604066183,-23.507804673746353],[-46.36592604066183,-23.50786983438799],[-46.36592604066183,-23.507934995029625],[-46.365879920757976,-23.507934995029625],[-46.365879920757976,-23.50800015567126],[-46.36592604066183,-23.50800015567126],[-46.36592604066183,-23.508065316312898],[-46.36592604066183,-23.50819563759617],[-46.36592604066183,-23.508260798237806],[-46.36592604066183,-23.50832595887944],[-46.36592604066183,-23.508391119521075],[-46.36597216056569,-23.508391119521075],[-46.36597216056569,-23.50845628016271],[-46.36601828046955,-23.50845628016271],[-46.3660644003734,-23.50845628016271],[-46.3660644003734,-23.508521440804348],[-46.36611052027726,-23.508521440804348],[-46.36611052027726,-23.508586601445984],[-46.366156640181124,-23.508716922729256],[-46.36611052027726,-23.508782083370892],[-46.36611052027726,-23.50884724401253],[-46.36611052027726,-23.508912404654165],[-46.36611052027726,-23.508977565295798],[-46.36611052027726,-23.509042725937434],[-46.36611052027726,-23.50910788657907],[-46.36611052027726,-23.509173047220706],[-46.36611052027726,-23.509238207862342],[-46.36611052027726,-23.50930336850398],[-46.3660644003734,-23.509368529145615],[-46.3660644003734,-23.50943368978725],[-46.36601828046955,-23.50943368978725],[-46.36601828046955,-23.509498850428887],[-46.36601828046955,-23.509564011070523],[-46.36601828046955,-23.509629171712156],[-46.36597216056569,-23.509629171712156],[-46.36597216056569,-23.509694332353792],[-46.36597216056569,-23.50975949299543],[-46.36597216056569,-23.509824653637065],[-46.36597216056569,-23.5098898142787],[-46.36597216056569,-23.509954974920337],[-46.36597216056569,-23.510020135561973],[-46.36597216056569,-23.51008529620361],[-46.36597216056569,-23.510150456845246],[-46.36597216056569,-23.51021561748688],[-46.36601828046955,-23.51021561748688],[-46.36601828046955,-23.510280778128518],[-46.36601828046955,-23.51034593877015],[-46.3660644003734,-23.510411099411787],[-46.3660644003734,-23.510476260053423],[-46.3660644003734,-23.51054142069506],[-46.36611052027726,-23.51054142069506],[-46.36611052027726,-23.510606581336695],[-46.3660644003734,-23.510606581336695],[-46.3660644003734,-23.51067174197833],[-46.36611052027726,-23.510736902619968],[-46.36611052027726,-23.510802063261604],[-46.36611052027726,-23.51086722390324],[-46.36611052027726,-23.510932384544876],[-46.366156640181124,-23.510932384544876],[-46.366156640181124,-23.511062705828145],[-46.366156640181124,-23.511193027111418],[-46.366156640181124,-23.511258187753054],[-46.36620276008498,-23.511258187753054],[-46.36620276008498,-23.51132334839469],[-46.36620276008498,-23.511388509036326],[-46.36624887998884,-23.511453669677962],[-46.366294999892695,-23.5115188303196],[-46.366294999892695,-23.511583990961235],[-46.366294999892695,-23.511649151602867],[-46.36634111979655,-23.511714312244504],[-46.36634111979655,-23.51177947288614],[-46.36634111979655,-23.511844633527776],[-46.36634111979655,-23.511909794169412],[-46.36638723970041,-23.511909794169412],[-46.36638723970041,-23.51197495481105],[-46.366433359604265,-23.512040115452685],[-46.366433359604265,-23.51210527609432],[-46.36647947950812,-23.51210527609432],[-46.36647947950812,-23.512170436735957],[-46.366525599411986,-23.512170436735957],[-46.366525599411986,-23.512235597377593],[-46.3666178392197,-23.512170436735957],[-46.36675619893127,-23.512170436735957],[-46.366848438738984,-23.512170436735957],[-46.36698679845056,-23.51210527609432],[-46.367079038258275,-23.51210527609432],[-46.367217397969846,-23.51210527609432],[-46.36726351787371,-23.512040115452685],[-46.36735575768142,-23.512040115452685],[-46.36740187758528,-23.512040115452685],[-46.367494117392994,-23.512040115452685],[-46.36758635720071,-23.51197495481105],[-46.36767859700843,-23.51197495481105],[-46.36777083681614,-23.51197495481105],[-46.36800143633543,-23.511909794169412],[-46.36809367614315,-23.511909794169412],[-46.368278155758574,-23.511844633527776],[-46.36841651547015,-23.511844633527776],[-46.36860099508558,-23.51177947288614],[-46.36896995431644,-23.511714312244504],[-46.369154433931875,-23.511649151602867],[-46.36924667373959,-23.511649151602867],[-46.369569513066594,-23.511583990961235],[-46.36975399268202,-23.511583990961235],[-46.37003071210517,-23.5115188303196],[-46.37012295191288,-23.511453669677962],[-46.37016907181675,-23.511453669677962],[-46.370215191720604,-23.511453669677962],[-46.37030743152832,-23.511388509036326],[-46.37039967133603,-23.511388509036326],[-46.370491911143745,-23.511388509036326],[-46.37063027085532,-23.51132334839469],[-46.370722510663036,-23.511258187753054],[-46.37076863056689,-23.511258187753054],[-46.37081475047075,-23.511258187753054],[-46.37086087037461,-23.511258187753054],[-46.37090699027847,-23.511258187753054],[-46.37095311018233,-23.511258187753054],[-46.370999230086184,-23.511258187753054],[-46.37104534999004,-23.511258187753054],[-46.3710914698939,-23.511258187753054],[-46.371137589797755,-23.51132334839469],[-46.37118370970161,-23.51132334839469],[-46.37122982960547,-23.51132334839469],[-46.37146042912476,-23.51132334839469],[-46.37155266893247,-23.51132334839469],[-46.37169102864405,-23.51132334839469],[-46.37173714854791,-23.51132334839469],[-46.37219834758648,-23.511453669677962],[-46.3722905873942,-23.511453669677962],[-46.372336707298054,-23.5115188303196],[-46.37247506700963,-23.5115188303196],[-46.37252118691349,-23.5115188303196],[-46.372567306817345,-23.5115188303196],[-46.3726134267212,-23.5115188303196],[-46.37265954662506,-23.5115188303196],[-46.372705666528915,-23.5115188303196],[-46.37275178643278,-23.5115188303196],[-46.372797906336636,-23.5115188303196],[-46.37284402624049,-23.5115188303196],[-46.37289014614435,-23.5115188303196],[-46.37293626604821,-23.5115188303196],[-46.372982385952064,-23.5115188303196],[-46.37302850585592,-23.5115188303196],[-46.37307462575978,-23.511453669677962],[-46.37312074566364,-23.511453669677962],[-46.3731668655675,-23.511388509036326],[-46.373212985471355,-23.511388509036326],[-46.37325910537521,-23.51132334839469],[-46.37330522527907,-23.51132334839469],[-46.37353582479836,-23.5115188303196],[-46.37367418450993,-23.511583990961235],[-46.374135383548506,-23.512040115452685],[-46.37422762335623,-23.51210527609432],[-46.3746888223948,-23.512496239944134],[-46.374781062202516,-23.512496239944134],[-46.37482718210637,-23.512431079302498],[-46.37487330201023,-23.512431079302498],[-46.374919421914086,-23.512496239944134],[-46.37496554181795,-23.512496239944134],[-46.37501166172181,-23.51256140058577],[-46.37501166172181,-23.512626561227407],[-46.37533450104881,-23.51301752507722],[-46.37524226124109,-23.51301752507722],[-46.374781062202516,-23.513147846360493],[-46.37459658258709,-23.513278167643765],[-46.37445822287551,-23.5133433282854],[-46.37431986316394,-23.513408488927038],[-46.37390478402922,-23.51379945277685],[-46.37404314374079,-23.513864613418487],[-46.37450434277937,-23.51399493470176],[-46.374781062202516,-23.514060095343396],[-46.37473494229866,-23.514125255985032],[-46.37459658258709,-23.51432073790994],[-46.3743659830678,-23.514581380476482],[-46.37431986316394,-23.51464654111812],[-46.37427374326008,-23.514711701759754],[-46.37431986316394,-23.51477686240139],[-46.37431986316394,-23.514842023043027],[-46.3743659830678,-23.5149723443263],[-46.3743659830678,-23.515037504967932],[-46.37445822287551,-23.51523298689284],[-46.374550462683224,-23.515363308176113],[-46.37459658258709,-23.51555879010102],[-46.374642702490945,-23.51555879010102],[-46.37482718210637,-23.51568911138429],[-46.37487330201023,-23.51568911138429],[-46.37496554181795,-23.51568911138429],[-46.375057781625664,-23.515754272025926],[-46.37515002143338,-23.515754272025926],[-46.37551898066424,-23.51568911138429],[-46.375565100568096,-23.51568911138429],[-46.37561122047195,-23.51568911138429],[-46.3758879398951,-23.51568911138429],[-46.37602629960668,-23.51568911138429],[-46.37616465931825,-23.515819432667563],[-46.37639525883754,-23.515949753950835],[-46.376487498645254,-23.51601491459247],[-46.37667197826068,-23.516080075234107],[-46.376856457876116,-23.516145235875744],[-46.37694869768383,-23.516145235875744],[-46.3770870573954,-23.516145235875744],[-46.377133177299264,-23.51621039651738],[-46.37731765691469,-23.51621039651738],[-46.37759437633784,-23.51621039651738],[-46.37759437633784,-23.516275557159016],[-46.377640496241696,-23.516275557159016],[-46.37782497585712,-23.51621039651738],[-46.377917215664844,-23.51621039651738],[-46.37800945547256,-23.51621039651738],[-46.378055575376415,-23.516275557159016],[-46.37810169528027,-23.516275557159016],[-46.37814781518413,-23.516275557159016],[-46.378193935087985,-23.516275557159016],[-46.37824005499185,-23.516275557159016],[-46.378286174895706,-23.516275557159016],[-46.37833229479956,-23.516275557159016],[-46.37837841470342,-23.516275557159016],[-46.37842453460728,-23.516275557159016],[-46.37851677441499,-23.516275557159016],[-46.37860901422271,-23.516340717800652],[-46.378701254030425,-23.516340717800652],[-46.37874737393428,-23.516340717800652],[-46.378839613741995,-23.516340717800652],[-46.37893185354971,-23.516275557159016],[-46.37897797345357,-23.516340717800652],[-46.37902409335743,-23.516340717800652],[-46.379070213261286,-23.516340717800652],[-46.37911633316514,-23.516340717800652],[-46.379162453069,-23.516340717800652],[-46.37930081278057,-23.516275557159016],[-46.379346932684435,-23.516275557159016],[-46.37939305258829,-23.516275557159016],[-46.37943917249215,-23.516275557159016],[-46.37957753220372,-23.516275557159016],[-46.379715891915296,-23.516275557159016],[-46.37976201181915,-23.516275557159016],[-46.37980813172301,-23.516275557159016],[-46.379900371530724,-23.516340717800652],[-46.37994649143458,-23.516340717800652],[-46.380038731242294,-23.516405878442285],[-46.380130971050015,-23.516405878442285],[-46.38022321085773,-23.516405878442285],[-46.38031545066544,-23.51647103908392],[-46.38040769047316,-23.51647103908392],[-46.38045381037702,-23.516536199725557],[-46.38054605018473,-23.516601360367194],[-46.38059217008859,-23.516601360367194],[-46.38063828999245,-23.51666652100883],[-46.38073052980016,-23.51666652100883],[-46.380776649704025,-23.516731681650466],[-46.38086888951174,-23.516731681650466],[-46.380915009415595,-23.516796842292102],[-46.38096112931945,-23.51686200293374],[-46.38100724922331,-23.51686200293374],[-46.381053369127166,-23.51686200293374],[-46.38109948903102,-23.516927163575374],[-46.38114560893489,-23.51699232421701],[-46.38119172883874,-23.51699232421701],[-46.3812378487426,-23.51699232421701],[-46.38128396864646,-23.517057484858643],[-46.381330088550314,-23.51712264550028],[-46.38137620845417,-23.51712264550028],[-46.381468448261884,-23.517187806141916],[-46.38151456816575,-23.517252966783552],[-46.38165292787732,-23.517383288066824],[-46.381699047781176,-23.51744844870846],[-46.38179128758889,-23.517513609350097],[-46.381837407492746,-23.517513609350097],[-46.381837407492746,-23.517578769991733],[-46.38188352739661,-23.517578769991733],[-46.38202188710818,-23.51764393063337],[-46.38202188710818,-23.517709091275],[-46.38206800701204,-23.517709091275],[-46.382114126915894,-23.517774251916638],[-46.38225248662747,-23.51790457319991],[-46.38229860653133,-23.517969733841547],[-46.38229860653133,-23.518034894483183],[-46.382344726435186,-23.518034894483183],[-46.38239084633904,-23.51810005512482],[-46.3824369662429,-23.518165215766455],[-46.382483086146756,-23.51823037640809],[-46.38252920605061,-23.518295537049728],[-46.38252920605061,-23.51836069769136],[-46.38257532595447,-23.51836069769136],[-46.38257532595447,-23.518425858332996],[-46.382621445858334,-23.518425858332996],[-46.38266756576219,-23.518491018974633],[-46.38271368566605,-23.51855617961627],[-46.382759805569904,-23.51868650089954],[-46.38280592547376,-23.518751661541177],[-46.38285204537762,-23.518751661541177],[-46.38285204537762,-23.518816822182814],[-46.382898165281475,-23.51888198282445],[-46.382898165281475,-23.518947143466086],[-46.38294428518533,-23.518947143466086],[-46.382990405089195,-23.519012304107722],[-46.382990405089195,-23.519077464749355],[-46.382990405089195,-23.51914262539099],[-46.382990405089195,-23.519207786032627],[-46.382990405089195,-23.519272946674263],[-46.38303652499305,-23.5193381073159],[-46.38308264489691,-23.519403267957536],[-46.38303652499305,-23.519468428599172],[-46.38308264489691,-23.519533589240808],[-46.38358996383934,-23.519729071165713],[-46.383774443454776,-23.51979423180735],[-46.38386668326249,-23.519859392448986],[-46.38414340268564,-23.520054874373894],[-46.38423564249335,-23.52012003501553],[-46.38414340268564,-23.52012003501553],[-46.38405116287792,-23.520185195657167],[-46.38400504297406,-23.520250356298803],[-46.38400504297406,-23.52031551694044],[-46.38405116287792,-23.520445838223708],[-46.38414340268564,-23.520706480790253],[-46.38423564249335,-23.520967123356797],[-46.38428176239721,-23.52090196271516],[-46.38437400220492,-23.52090196271516],[-46.38442012210878,-23.52090196271516],[-46.38446624201264,-23.520836802073525],[-46.38446624201264,-23.52090196271516],[-46.3845123619165,-23.52090196271516],[-46.38465072162807,-23.520836802073525],[-46.38501968085893,-23.52077164143189],[-46.38506580076279,-23.520706480790253],[-46.385111920666645,-23.520706480790253],[-46.385204160474366,-23.520706480790253],[-46.38525028037822,-23.520706480790253],[-46.38529640028208,-23.520641320148616],[-46.38534252018594,-23.520641320148616],[-46.38543475999365,-23.520641320148616],[-46.38548087989751,-23.52057615950698],[-46.385526999801364,-23.52057615950698],[-46.38557311970523,-23.52057615950698],[-46.385619239609085,-23.52057615950698],[-46.3857114794168,-23.520510998865344],[-46.385757599320655,-23.520510998865344],[-46.38580371922451,-23.520510998865344],[-46.38584983912837,-23.520510998865344],[-46.38589595903223,-23.520445838223708],[-46.38598819883995,-23.520445838223708],[-46.3860343187438,-23.520445838223708],[-46.38608043864766,-23.520445838223708],[-46.38612655855152,-23.52038067758207],[-46.386172678455374,-23.52038067758207],[-46.386264918263095,-23.52038067758207],[-46.38631103816695,-23.52038067758207],[-46.38635715807081,-23.52031551694044],[-46.386403277974665,-23.52031551694044],[-46.38644939787852,-23.52031551694044],[-46.386541637686236,-23.52031551694044],[-46.38658775759009,-23.520250356298803],[-46.386633877493956,-23.520250356298803],[-46.38667999739781,-23.520250356298803],[-46.38672611730167,-23.520250356298803],[-46.38677223720553,-23.520185195657167],[-46.386818357109384,-23.520185195657167],[-46.38714119643639,-23.520054874373894],[-46.3872334362441,-23.520054874373894],[-46.38700283672482,-23.52090196271516],[-46.3869105969171,-23.521097444640066],[-46.3869105969171,-23.521162605281702],[-46.387048956628675,-23.521162605281702],[-46.387187316340246,-23.521162605281702],[-46.38737179595568,-23.52122776592334],[-46.38741791585954,-23.52122776592334],[-46.38769463528268,-23.521292926564975],[-46.38774075518654,-23.521292926564975],[-46.387832994994255,-23.521292926564975],[-46.38801747460968,-23.521292926564975],[-46.38806359451354,-23.52135808720661],[-46.38820195422512,-23.52135808720661],[-46.388248074128974,-23.52135808720661],[-46.38834031393669,-23.52135808720661],[-46.3884325537444,-23.52135808720661],[-46.388478673648265,-23.52135808720661],[-46.38866315326369,-23.52135808720661],[-46.38870927316755,-23.521292926564975],[-46.388755393071406,-23.521292926564975],[-46.38893987268684,-23.521162605281702],[-46.3889859925907,-23.521162605281702],[-46.38912435230227,-23.521032283998434],[-46.38912435230227,-23.520967123356797],[-46.389170472206125,-23.520967123356797],[-46.3893088319177,-23.520836802073525],[-46.38935495182156,-23.52077164143189],[-46.38949331153313,-23.520641320148616],[-46.38953943143699,-23.520641320148616],[-46.38958555134085,-23.520641320148616],[-46.38963167124471,-23.520641320148616],[-46.38977003095628,-23.52077164143189],[-46.389816150860135,-23.52077164143189],[-46.38986227076399,-23.52077164143189],[-46.38986227076399,-23.520836802073525],[-46.38986227076399,-23.52090196271516],[-46.38986227076399,-23.520967123356797],[-46.38990839066785,-23.521032283998434],[-46.38995451057171,-23.521032283998434],[-46.38995451057171,-23.521097444640066],[-46.39000063047557,-23.521162605281702],[-46.39009287028328,-23.521292926564975],[-46.390185110091,-23.52135808720661],[-46.39023122999485,-23.521423247848247],[-46.39027734989871,-23.521423247848247],[-46.39036958970643,-23.521423247848247],[-46.390461829514145,-23.521488408489883],[-46.390600189225715,-23.521488408489883],[-46.39064630912957,-23.52155356913152],[-46.39073854893729,-23.52155356913152],[-46.390830788745006,-23.521618729773156],[-46.391015268360434,-23.521683890414792],[-46.39115362807201,-23.521683890414792],[-46.39119974797587,-23.521683890414792],[-46.39129198778358,-23.521749051056425],[-46.39133810768744,-23.521749051056425],[-46.3913842275913,-23.521749051056425],[-46.391476467399016,-23.521749051056425],[-46.39152258730287,-23.521749051056425],[-46.391660947014444,-23.521749051056425],[-46.391753186822164,-23.521749051056425],[-46.39184542662988,-23.521749051056425],[-46.39207602614916,-23.521749051056425],[-46.392122146053026,-23.521749051056425],[-46.3922605057646,-23.521749051056425],[-46.39239886547617,-23.521749051056425],[-46.3925833450916,-23.521749051056425],[-46.392675584899315,-23.521749051056425],[-46.39286006451475,-23.521749051056425],[-46.39304454413018,-23.521749051056425],[-46.39313678393789,-23.521749051056425],[-46.393321263553325,-23.521749051056425],[-46.39350574316875,-23.521683890414792],[-46.39364410288033,-23.521683890414792],[-46.39369022278419,-23.521683890414792],[-46.393736342688044,-23.521683890414792],[-46.39392082230347,-23.521683890414792],[-46.39401306211119,-23.521683890414792],[-46.394105301918906,-23.521683890414792],[-46.394243661630476,-23.521683890414792],[-46.394382021342054,-23.521683890414792],[-46.39442814124591,-23.521683890414792],[-46.394520381053624,-23.521683890414792],[-46.394658740765195,-23.521683890414792],[-46.394750980572915,-23.521683890414792],[-46.39479710047677,-23.521683890414792],[-46.39484322038063,-23.521618729773156],[-46.394889340284486,-23.521618729773156],[-46.3949815800922,-23.521618729773156],[-46.39507381989992,-23.521618729773156],[-46.39511993980378,-23.521618729773156],[-46.395166059707634,-23.521618729773156],[-46.395304419419205,-23.521618729773156],[-46.39535053932306,-23.521683890414792],[-46.39539665922692,-23.521683890414792],[-46.39544277913078,-23.521683890414792],[-46.39548889903464,-23.521749051056425],[-46.395535018938496,-23.521749051056425],[-46.39562725874621,-23.521749051056425],[-46.395673378650066,-23.52181421169806],[-46.39576561845778,-23.52181421169806],[-46.3958578582655,-23.521879372339697],[-46.395950098073214,-23.521944532981333],[-46.39604233788093,-23.52200969362297],[-46.396088457784785,-23.52200969362297],[-46.39613457768864,-23.52200969362297],[-46.396180697592506,-23.522074854264606],[-46.396319057304076,-23.522074854264606],[-46.396319057304076,-23.522140014906242],[-46.39641129711179,-23.522140014906242],[-46.39645741701565,-23.522140014906242],[-46.39645741701565,-23.522205175547878],[-46.39654965682337,-23.522205175547878],[-46.39654965682337,-23.522270336189514],[-46.396595776727224,-23.522270336189514],[-46.39664189663108,-23.522270336189514],[-46.39664189663108,-23.52233549683115],[-46.39668801653494,-23.522400657472783],[-46.39668801653494,-23.52246581811442],[-46.396734136438795,-23.522530978756055],[-46.396734136438795,-23.52259613939769],[-46.396734136438795,-23.522661300039328],[-46.396734136438795,-23.522726460680964],[-46.396734136438795,-23.5227916213226],[-46.396734136438795,-23.522856781964236],[-46.396734136438795,-23.522921942605873],[-46.396734136438795,-23.52298710324751],[-46.39668801653494,-23.523117424530778],[-46.39668801653494,-23.523182585172414],[-46.39664189663108,-23.52324774581405],[-46.39664189663108,-23.523312906455686],[-46.396595776727224,-23.523378067097322],[-46.396595776727224,-23.52344322773896],[-46.396595776727224,-23.523508388380595],[-46.39654965682337,-23.523638709663867],[-46.39654965682337,-23.523703870305503],[-46.39650353691951,-23.523769030947136],[-46.39650353691951,-23.52389935223041],[-46.39645741701565,-23.52389935223041],[-46.39645741701565,-23.523964512872045],[-46.39641129711179,-23.524094834155317],[-46.39641129711179,-23.52422515543859],[-46.39636517720793,-23.524290316080226],[-46.39636517720793,-23.524355476721862],[-46.396319057304076,-23.524550958646767],[-46.39641129711179,-23.524550958646767],[-46.39641129711179,-23.524616119288403],[-46.396595776727224,-23.524616119288403],[-46.39664189663108,-23.524616119288403],[-46.39678025634265,-23.52468127993004],[-46.39682637624651,-23.52468127993004],[-46.396964735958086,-23.524746440571676],[-46.39701085586194,-23.524746440571676],[-46.39710309566966,-23.524746440571676],[-46.39714921557351,-23.52481160121331],[-46.39719533547737,-23.52481160121331],[-46.39719533547737,-23.524876761854948],[-46.39719533547737,-23.524941922496584],[-46.39719533547737,-23.525072243779857],[-46.397241455381234,-23.52526772570476],[-46.397241455381234,-23.525398046988034],[-46.397241455381234,-23.52546320762967],[-46.39728757528509,-23.525593528912943],[-46.39733369518895,-23.52565868955458],[-46.39733369518895,-23.525789010837848],[-46.397379815092805,-23.52591933212112],[-46.397379815092805,-23.525984492762756],[-46.39742593499666,-23.525984492762756],[-46.39747205490052,-23.526179974687665],[-46.397518174804375,-23.526310295970937],[-46.39756429470823,-23.526440617254206],[-46.39756429470823,-23.526505777895842],[-46.39756429470823,-23.52657093853748],[-46.397610414612096,-23.52657093853748],[-46.397610414612096,-23.526636099179115],[-46.39765653451595,-23.526636099179115],[-46.39770265441981,-23.52657093853748],[-46.39774877432367,-23.52657093853748],[-46.39779489422752,-23.526440617254206],[-46.39784101413138,-23.526375456612573],[-46.39788713403524,-23.526310295970937],[-46.397933253939094,-23.526310295970937],[-46.398025493746815,-23.526179974687665],[-46.39811773355453,-23.526049653404392],[-46.398163853458385,-23.526049653404392],[-46.39834833307382,-23.526179974687665],[-46.398394452977676,-23.526179974687665],[-46.398394452977676,-23.5262451353293],[-46.39844057288153,-23.5262451353293],[-46.39848669278539,-23.5262451353293],[-46.39853281268925,-23.526310295970937],[-46.39862505249696,-23.526310295970937],[-46.39867117240082,-23.526310295970937],[-46.39871729230468,-23.526310295970937],[-46.39871729230468,-23.526375456612573],[-46.39876341220854,-23.526375456612573],[-46.398809532112395,-23.526440617254206],[-46.39885565201625,-23.526440617254206],[-46.39890177192011,-23.526440617254206],[-46.398947891823966,-23.526440617254206],[-46.39899401172782,-23.526505777895842],[-46.39904013163168,-23.526505777895842],[-46.39908625153554,-23.526505777895842],[-46.39917849134326,-23.526505777895842],[-46.399224611247114,-23.526505777895842],[-46.39927073115097,-23.526505777895842],[-46.39927073115097,-23.52657093853748],[-46.39931685105483,-23.52657093853748],[-46.399362970958684,-23.52657093853748],[-46.39940909086254,-23.526636099179115],[-46.399455210766405,-23.526636099179115],[-46.39954745057412,-23.526636099179115],[-46.39954745057412,-23.52670125982075],[-46.399593570477975,-23.52670125982075],[-46.39963969038183,-23.52670125982075],[-46.39968581028569,-23.52670125982075],[-46.399731930189546,-23.52670125982075],[-46.3997780500934,-23.52670125982075],[-46.39982416999727,-23.526766420462387],[-46.39987028990112,-23.526766420462387],[-46.39991640980498,-23.526831581104023],[-46.400008649612694,-23.52689674174566],[-46.40005476951655,-23.526961902387296],[-46.40010088942041,-23.526961902387296],[-46.400147009324265,-23.526961902387296],[-46.400147009324265,-23.52702706302893],[-46.40019312922813,-23.52702706302893],[-46.400239249131985,-23.52702706302893],[-46.400239249131985,-23.527092223670564],[-46.40028536903584,-23.527092223670564],[-46.4003314889397,-23.527092223670564],[-46.400377608843556,-23.527092223670564],[-46.400377608843556,-23.5271573843122],[-46.40042372874741,-23.527222544953837],[-46.40046984865127,-23.527222544953837],[-46.40046984865127,-23.527287705595473],[-46.400515968555126,-23.527287705595473],[-46.40056208845899,-23.527287705595473],[-46.40056208845899,-23.527222544953837],[-46.40060820836285,-23.527222544953837],[-46.400654328266704,-23.527222544953837],[-46.40070044817056,-23.527222544953837],[-46.40074656807442,-23.527222544953837],[-46.400792687978274,-23.5271573843122],[-46.40083880788213,-23.5271573843122],[-46.40083880788213,-23.527092223670564],[-46.40088492778599,-23.527092223670564],[-46.40093104768985,-23.527092223670564],[-46.40097716759371,-23.527092223670564],[-46.401023287497566,-23.527092223670564],[-46.40106940740142,-23.527092223670564],[-46.40106940740142,-23.5271573843122],[-46.40111552730528,-23.5271573843122],[-46.401161647209136,-23.5271573843122],[-46.40120776711299,-23.5271573843122],[-46.40125388701685,-23.527222544953837],[-46.401300006920714,-23.527222544953837],[-46.40134612682457,-23.527287705595473],[-46.40139224672843,-23.527287705595473],[-46.401438366632284,-23.52735286623711],[-46.40148448653614,-23.52735286623711],[-46.40148448653614,-23.527418026878745],[-46.40153060644,-23.527418026878745],[-46.401576726343855,-23.52748318752038],[-46.40162284624772,-23.52748318752038],[-46.401668966151576,-23.52748318752038],[-46.40171508605543,-23.527548348162018],[-46.40176120595929,-23.527548348162018],[-46.401807325863146,-23.527613508803654],[-46.401853445767,-23.527613508803654],[-46.40189956567086,-23.527613508803654],[-46.40189956567086,-23.52767866944529],[-46.40194568557472,-23.52767866944529],[-46.40194568557472,-23.527743830086926],[-46.40199180547858,-23.52780899072856],[-46.40199180547858,-23.527874151370195],[-46.40203792538244,-23.527874151370195],[-46.402084045286294,-23.527874151370195],[-46.40213016519015,-23.527874151370195],[-46.40213016519015,-23.52793931201183],[-46.40217628509401,-23.52793931201183],[-46.402222404997865,-23.528004472653468],[-46.40226852490172,-23.528004472653468],[-46.40226852490172,-23.528069633295104],[-46.40231464480558,-23.528069633295104],[-46.40236076470944,-23.528069633295104],[-46.40236076470944,-23.52813479393674],[-46.4024068846133,-23.52813479393674],[-46.402453004517156,-23.52813479393674],[-46.40249912442101,-23.52813479393674],[-46.40254524432487,-23.528199954578376],[-46.402591364228726,-23.528199954578376],[-46.40263748413258,-23.528199954578376],[-46.40263748413258,-23.528265115220012],[-46.40268360403644,-23.528265115220012],[-46.402729723940304,-23.528265115220012],[-46.40277584384416,-23.528265115220012],[-46.40282196374802,-23.528265115220012],[-46.402868083651875,-23.528265115220012],[-46.40291420355573,-23.528265115220012],[-46.40296032345959,-23.528265115220012],[-46.403006443363445,-23.528265115220012],[-46.4030525632673,-23.528265115220012],[-46.403098683171166,-23.528265115220012],[-46.40314480307502,-23.528265115220012],[-46.40319092297888,-23.528265115220012],[-46.403237042882736,-23.528265115220012],[-46.403237042882736,-23.52833027586165],[-46.40328316278659,-23.52833027586165],[-46.40332928269045,-23.52833027586165],[-46.40332928269045,-23.528395436503285],[-46.40337540259431,-23.528395436503285],[-46.403421522498164,-23.528460597144917],[-46.40346764240203,-23.528460597144917],[-46.403513762305884,-23.528460597144917],[-46.40355988220974,-23.528525757786554],[-46.4036060021136,-23.528525757786554],[-46.403652122017455,-23.528525757786554],[-46.403652122017455,-23.52859091842819],[-46.40369824192131,-23.52859091842819],[-46.40374436182517,-23.52859091842819],[-46.403790481729025,-23.52859091842819],[-46.40383660163289,-23.52859091842819],[-46.403882721536746,-23.52859091842819],[-46.403882721536746,-23.528656079069826],[-46.4039288414406,-23.528656079069826],[-46.40397496134446,-23.528656079069826],[-46.40402108124832,-23.528656079069826],[-46.40406720115217,-23.528656079069826],[-46.40411332105603,-23.528656079069826],[-46.40415944095989,-23.528656079069826],[-46.40420556086375,-23.528656079069826],[-46.40425168076761,-23.528656079069826],[-46.404297800671465,-23.528721239711462],[-46.404297800671465,-23.528656079069826],[-46.40434392057532,-23.528656079069826],[-46.40439004047918,-23.528656079069826],[-46.404436160383035,-23.528656079069826],[-46.404436160383035,-23.528721239711462],[-46.40439004047918,-23.528721239711462],[-46.40439004047918,-23.5287864003531],[-46.404436160383035,-23.5287864003531],[-46.40448228028689,-23.5287864003531],[-46.40452840019075,-23.5287864003531],[-46.40457452009461,-23.5287864003531],[-46.40462063999847,-23.5287864003531],[-46.40462063999847,-23.528851560994735],[-46.40466675990233,-23.528851560994735],[-46.40471287980618,-23.528851560994735],[-46.40475899971004,-23.528851560994735],[-46.4048051196139,-23.528851560994735],[-46.4048051196139,-23.5287864003531],[-46.404851239517754,-23.5287864003531],[-46.404851239517754,-23.528851560994735],[-46.40489735942161,-23.528851560994735],[-46.404943479325475,-23.528851560994735],[-46.40498959922933,-23.528851560994735],[-46.40498959922933,-23.52891672163637],[-46.40503571913319,-23.52891672163637],[-46.405081839037045,-23.52891672163637],[-46.405081839037045,-23.528981882278007],[-46.4051279589409,-23.528981882278007],[-46.40517407884476,-23.528981882278007],[-46.40517407884476,-23.529047042919643],[-46.405220198748616,-23.529047042919643],[-46.40526631865247,-23.529047042919643],[-46.40531243855634,-23.529047042919643],[-46.40535855846019,-23.528981882278007],[-46.40540467836405,-23.528981882278007],[-46.40545079826791,-23.528981882278007],[-46.405496918171764,-23.528981882278007],[-46.40554303807562,-23.528981882278007],[-46.40558915797948,-23.528981882278007],[-46.405635277883334,-23.528981882278007],[-46.4056813977872,-23.52891672163637],[-46.405727517691055,-23.52891672163637],[-46.40581975749877,-23.528981882278007],[-46.40605035701806,-23.529047042919643],[-46.40623483663349,-23.529047042919643],[-46.40637319634506,-23.529112203561276],[-46.40641931624892,-23.529112203561276],[-46.406511556056635,-23.529047042919643],[-46.40660379586435,-23.528981882278007],[-46.40660379586435,-23.52891672163637],[-46.406649915768206,-23.52891672163637],[-46.40669603567206,-23.528851560994735],[-46.40683439538364,-23.5287864003531],[-46.40683439538364,-23.528721239711462],[-46.4068805152875,-23.528721239711462],[-46.406926635191354,-23.528721239711462],[-46.406926635191354,-23.528656079069826],[-46.40697275509521,-23.528656079069826],[-46.407064994902925,-23.52859091842819],[-46.407157234710645,-23.528525757786554],[-46.40724947451836,-23.528460597144917],[-46.407295594422216,-23.528460597144917],[-46.407295594422216,-23.528395436503285],[-46.40734171432607,-23.528395436503285],[-46.407433954133786,-23.52833027586165],[-46.40748007403765,-23.52833027586165],[-46.407572313845364,-23.528265115220012],[-46.40775679346079,-23.52813479393674],[-46.40789515317237,-23.528069633295104],[-46.40789515317237,-23.528004472653468],[-46.408079632787796,-23.52793931201183],[-46.40826411240323,-23.52780899072856],[-46.4084024721148,-23.527743830086926],[-46.40854083182637,-23.52767866944529],[-46.40863307163409,-23.527613508803654],[-46.40886367115338,-23.527548348162018],[-46.409002030864954,-23.52748318752038],[-46.409140390576525,-23.52735286623711],[-46.409278750288095,-23.52735286623711],[-46.40950934980739,-23.527222544953837],[-46.40964770951896,-23.5271573843122],[-46.409786069230535,-23.527092223670564],[-46.409924428942105,-23.52702706302893],[-46.41001666874982,-23.526961902387296],[-46.41006278865368,-23.526961902387296],[-46.41020114836525,-23.526831581104023],[-46.41024726826911,-23.526831581104023],[-46.410339508076824,-23.526766420462387],[-46.410431747884545,-23.52670125982075],[-46.41052398769226,-23.526636099179115],[-46.41052398769226,-23.52657093853748],[-46.410570107596115,-23.52657093853748],[-46.41075458721154,-23.526440617254206],[-46.410800707115406,-23.526375456612573],[-46.41093906682698,-23.526310295970937],[-46.410985186730834,-23.5262451353293],[-46.411123546442404,-23.52611481404603],[-46.411215786250125,-23.526049653404392],[-46.41130802605784,-23.525984492762756],[-46.411492505673266,-23.525854171479484],[-46.411492505673266,-23.525789010837848],[-46.41158474548099,-23.525789010837848],[-46.41163086538484,-23.525723850196215],[-46.411769225096414,-23.525593528912943],[-46.41190758480799,-23.525528368271306],[-46.41204594451956,-23.525398046988034],[-46.41209206442342,-23.525398046988034],[-46.412138184327276,-23.525332886346398],[-46.412230424135,-23.52526772570476],[-46.41236878384657,-23.525202565063125],[-46.41246102365428,-23.52513740442149],[-46.41246102365428,-23.525072243779857],[-46.41259938336586,-23.524941922496584],[-46.41269162317357,-23.524876761854948],[-46.41273774307743,-23.52481160121331],[-46.412922222692856,-23.524746440571676],[-46.41296834259672,-23.52468127993004],[-46.41301446250058,-23.52468127993004],[-46.413198942116004,-23.524616119288403],[-46.41329118192372,-23.524550958646767],[-46.41347566153915,-23.524550958646767],[-46.41361402125072,-23.52448579800513],[-46.41366014115458,-23.52448579800513],[-46.4137523809623,-23.524420637363495],[-46.41379850086616,-23.524420637363495],[-46.413844620770014,-23.524420637363495],[-46.413982980481585,-23.524420637363495],[-46.41416746009702,-23.524355476721862],[-46.414213580000876,-23.524355476721862],[-46.4143980596163,-23.524290316080226],[-46.41444417952017,-23.524290316080226],[-46.41458253923174,-23.524290316080226],[-46.41481313875103,-23.52422515543859],[-46.414859258654886,-23.52422515543859],[-46.414997618366456,-23.52422515543859],[-46.41504373827031,-23.52422515543859],[-46.415274337789604,-23.524159994796953],[-46.41536657759732,-23.524159994796953],[-46.41545881740503,-23.524159994796953],[-46.415643297020466,-23.524094834155317],[-46.41568941692432,-23.524094834155317],[-46.41578165673204,-23.524094834155317],[-46.41596613634747,-23.52402967351368],[-46.41601225625133,-23.52402967351368],[-46.416196735866755,-23.52402967351368],[-46.41624285577061,-23.52402967351368],[-46.41638121548219,-23.523964512872045],[-46.4164734552899,-23.523964512872045],[-46.416704054809195,-23.52389935223041],[-46.41675017471305,-23.52389935223041],[-46.41698077423234,-23.52389935223041],[-46.41716525384777,-23.523834191588772],[-46.41721137375163,-23.523834191588772],[-46.417257493655484,-23.523834191588772],[-46.417349733463205,-23.523834191588772],[-46.41753421307863,-23.523769030947136],[-46.4176725727902,-23.523769030947136],[-46.41781093250178,-23.523703870305503],[-46.41799541211721,-23.523703870305503],[-46.41808765192493,-23.523703870305503],[-46.418272131540355,-23.523638709663867],[-46.418548850963504,-23.523638709663867],[-46.418548850963504,-23.52344322773896],[-46.41850273105965,-23.523378067097322],[-46.41850273105965,-23.523312906455686],[-46.41850273105965,-23.52324774581405],[-46.41850273105965,-23.52298710324751],[-46.41850273105965,-23.522921942605873],[-46.41850273105965,-23.522856781964236],[-46.418548850963504,-23.522726460680964],[-46.418548850963504,-23.522661300039328],[-46.418548850963504,-23.52259613939769],[-46.418548850963504,-23.522530978756055],[-46.41859497086736,-23.52246581811442],[-46.41864109077122,-23.52233549683115],[-46.418687210675074,-23.522205175547878],[-46.418687210675074,-23.522140014906242],[-46.41877945048279,-23.52200969362297],[-46.41887169029051,-23.52181421169806],[-46.418917810194365,-23.521683890414792],[-46.41901005000208,-23.521488408489883],[-46.419056169905936,-23.52135808720661],[-46.419056169905936,-23.521292926564975],[-46.41914840971365,-23.521097444640066],[-46.41924064952137,-23.52090196271516],[-46.41928676942523,-23.520836802073525],[-46.41928676942523,-23.520706480790253],[-46.419332889329084,-23.520641320148616],[-46.41937900923294,-23.52057615950698],[-46.41937900923294,-23.520510998865344],[-46.4194251291368,-23.520510998865344],[-46.4194251291368,-23.520445838223708],[-46.419471249040654,-23.52038067758207],[-46.41951736894451,-23.52038067758207],[-46.41951736894451,-23.52031551694044],[-46.419563488848375,-23.52031551694044],[-46.41960960875223,-23.52038067758207],[-46.41979408836766,-23.520445838223708],[-46.419978567983094,-23.52057615950698],[-46.42002468788695,-23.52057615950698],[-46.42020916750238,-23.520641320148616],[-46.420255287406235,-23.520706480790253],[-46.42043976702167,-23.52077164143189],[-46.42053200682938,-23.52077164143189],[-46.42057812673324,-23.520836802073525],[-46.42071648644482,-23.52090196271516],[-46.42080872625253,-23.520967123356797],[-46.4209470859641,-23.521032283998434],[-46.421131565579536,-23.521097444640066],[-46.42122380538725,-23.521162605281702],[-46.42136216509882,-23.52122776592334],[-46.421408285002684,-23.52122776592334],[-46.42159276461811,-23.52135808720661],[-46.42163888452197,-23.52135808720661],[-46.421685004425825,-23.52135808720661],[-46.4218233641374,-23.521488408489883],[-46.42186948404126,-23.521488408489883],[-46.421915603945116,-23.521488408489883],[-46.42200784375283,-23.521488408489883],[-46.42200784375283,-23.521423247848247],[-46.42205396365669,-23.521423247848247],[-46.42214620346441,-23.521423247848247],[-46.42223844327212,-23.52135808720661],[-46.42242292288755,-23.521292926564975],[-46.42246904279141,-23.521292926564975],[-46.42260740250298,-23.52122776592334],[-46.422838002022274,-23.521162605281702],[-46.4230224816377,-23.521097444640066],[-46.423206961253136,-23.521032283998434],[-46.42329920106085,-23.520967123356797],[-46.42343756077242,-23.52090196271516],[-46.42366816029171,-23.520836802073525],[-46.42371428019557,-23.520836802073525],[-46.42380652000328,-23.520836802073525],[-46.42385263990714,-23.52077164143189],[-46.423898759810996,-23.52077164143189],[-46.42394487971486,-23.520706480790253],[-46.42399099961872,-23.520706480790253],[-46.42403711952257,-23.520706480790253],[-46.42412935933029,-23.520641320148616],[-46.424175479234144,-23.520641320148616],[-46.424406078753435,-23.520510998865344],[-46.42445219865729,-23.520510998865344],[-46.42459055836886,-23.52038067758207],[-46.4247750379843,-23.52031551694044],[-46.42491339769587,-23.520250356298803],[-46.42514399721516,-23.52012003501553],[-46.425190117119016,-23.52012003501553],[-46.42528235692673,-23.520054874373894],[-46.42537459673444,-23.519989713732258],[-46.425466836542164,-23.519989713732258],[-46.42551295644602,-23.519924553090622],[-46.42555907634988,-23.519924553090622],[-46.42555907634988,-23.519859392448986],[-46.425743555965305,-23.51979423180735],[-46.425835795773025,-23.519729071165713],[-46.425974155484596,-23.51966391052408],[-46.42615863510003,-23.519598749882444],[-46.42620475500389,-23.519533589240808],[-46.4262969948116,-23.519533589240808],[-46.426389234619315,-23.519533589240808],[-46.4274961123119,-23.519468428599172],[-46.42758835211962,-23.519468428599172],[-46.427680591927334,-23.519468428599172],[-46.42786507154276,-23.519468428599172],[-46.42800343125434,-23.519468428599172],[-46.428049551158196,-23.519468428599172],[-46.42828015067748,-23.519468428599172],[-46.428464630292915,-23.519468428599172],[-46.428602990004485,-23.519468428599172],[-46.42883358952378,-23.519468428599172],[-46.429018069139204,-23.519468428599172],[-46.429110308946925,-23.519468428599172],[-46.42915642885078,-23.519468428599172],[-46.42920254875464,-23.519533589240808],[-46.429248668658495,-23.519533589240808],[-46.42929478856235,-23.519533589240808],[-46.42934090846621,-23.519598749882444],[-46.429387028370066,-23.519598749882444],[-46.42943314827393,-23.51966391052408],[-46.429479268177786,-23.51966391052408],[-46.42952538808164,-23.519729071165713],[-46.4295715079855,-23.519729071165713],[-46.429663747793214,-23.519924553090622],[-46.42970986769707,-23.519989713732258],[-46.42984822740865,-23.52012003501553],[-46.42994046721636,-23.520250356298803],[-46.430032707024075,-23.52038067758207],[-46.43012494683179,-23.520510998865344],[-46.43021718663951,-23.520641320148616],[-46.43021718663951,-23.520706480790253],[-46.43026330654337,-23.52077164143189],[-46.43026330654337,-23.520836802073525],[-46.43026330654337,-23.52090196271516],[-46.43026330654337,-23.520967123356797],[-46.430309426447224,-23.521162605281702],[-46.430309426447224,-23.52135808720661],[-46.430309426447224,-23.521488408489883],[-46.430309426447224,-23.521683890414792],[-46.43035554635108,-23.52181421169806],[-46.43035554635108,-23.521944532981333],[-46.43035554635108,-23.522140014906242],[-46.43040166625494,-23.52233549683115],[-46.43040166625494,-23.522400657472783],[-46.43040166625494,-23.52246581811442],[-46.43040166625494,-23.52259613939769],[-46.43040166625494,-23.522726460680964],[-46.43040166625494,-23.522921942605873],[-46.43040166625494,-23.523052263889145],[-46.430447786158794,-23.52324774581405],[-46.430447786158794,-23.523378067097322],[-46.430447786158794,-23.523508388380595],[-46.430447786158794,-23.523638709663867],[-46.430447786158794,-23.523769030947136],[-46.430447786158794,-23.523834191588772],[-46.430447786158794,-23.52389935223041],[-46.430447786158794,-23.523964512872045],[-46.43049390606265,-23.523964512872045],[-46.43049390606265,-23.52402967351368],[-46.430540025966515,-23.524094834155317],[-46.430540025966515,-23.524159994796953],[-46.43058614587037,-23.524159994796953],[-46.43063226577423,-23.52422515543859],[-46.430678385678085,-23.52422515543859],[-46.43072450558194,-23.52422515543859]]]}}]}