{"type":"FeatureCollection","features":[{"type":"Feature","properties":{"DATA_ULT_A":"2009/10/09","DATA_CRIAC":"2009/10/09","id":15,"name":"Jabaquara","area":14.1,"pop_2010":223780,"pop_density_2010":15871,"budget_2015":30512818},"geometry":{"type":"Polygon","coordinates":[[[-46.64776477313642,-23.630502161946666],[-46.64771865323256,-23.630502161946666],[-46.64776477313642,-23.63024151938012],[-46.64771865323256,-23.63024151938012],[-46.6476725333287,-23.630306680021757],[-46.6476725333287,-23.630371840663393],[-46.64744193380942,-23.630567322588302],[-46.6473496940017,-23.63069764387157],[-46.64730357409784,-23.630762804513207],[-46.64725745419398,-23.630827965154843],[-46.64716521438627,-23.630958286438116],[-46.64711909448241,-23.63102344707975],[-46.647072974578556,-23.631088607721388],[-46.647072974578556,-23.631153768363024],[-46.6470268546747,-23.63121892900466],[-46.6470268546747,-23.631284089646297],[-46.646980734770835,-23.631414410929565],[-46.646980734770835,-23.6314795715712],[-46.64688849496312,-23.63167505349611],[-46.646842375059265,-23.631805374779383],[-46.64679625515541,-23.63187053542102],[-46.64675013525155,-23.631935696062655],[-46.64656565563612,-23.632000856704288],[-46.6464734158284,-23.63187053542102],[-46.645781617270536,-23.631088607721388],[-46.64568937746282,-23.630958286438116],[-46.645643257558966,-23.63102344707975],[-46.64550489784739,-23.63089312579648],[-46.64518205852039,-23.630958286438116],[-46.64513593861653,-23.630958286438116],[-46.644997578904956,-23.63102344707975],[-46.64490533909724,-23.63102344707975],[-46.644859219193386,-23.63102344707975],[-46.644766979385665,-23.63102344707975],[-46.644628619674094,-23.63102344707975],[-46.644490259962524,-23.630958286438116],[-46.64425966044323,-23.63089312579648],[-46.64416742063552,-23.63089312579648],[-46.64402906092394,-23.630827965154843],[-46.643429502173795,-23.63043700130503],[-46.64324502255836,-23.63024151938012],[-46.643198902654504,-23.630176358738485],[-46.64310666284679,-23.63011119809685],[-46.64306054294293,-23.630046037455212],[-46.64296830313521,-23.630046037455212],[-46.64282994342364,-23.629915716171944],[-46.642783823519785,-23.629915716171944],[-46.64273770361593,-23.629850555530307],[-46.64269158371207,-23.629850555530307],[-46.642645463808215,-23.629850555530307],[-46.64250710409664,-23.62978539488867],[-46.642414864288924,-23.629720234247035],[-46.64227650457735,-23.6296550736054],[-46.64223038467349,-23.6296550736054],[-46.64204590505806,-23.629589912963763],[-46.64195366525035,-23.629524752322126],[-46.64190754534649,-23.629524752322126],[-46.64181530553877,-23.629524752322126],[-46.6416769458272,-23.62945959168049],[-46.641584706019486,-23.62945959168049],[-46.64153858611563,-23.62945959168049],[-46.641492466211766,-23.62945959168049],[-46.64130798659634,-23.62945959168049],[-46.64126186669248,-23.629394431038854],[-46.641215746788625,-23.629394431038854],[-46.64116962688477,-23.629394431038854],[-46.64098514726933,-23.629394431038854],[-46.64084678755776,-23.629394431038854],[-46.64075454775004,-23.629394431038854],[-46.640570068134615,-23.629394431038854],[-46.640431708423044,-23.629394431038854],[-46.64038558851918,-23.629394431038854],[-46.64029334871147,-23.629394431038854],[-46.6396015501536,-23.62945959168049],[-46.63909423121117,-23.629524752322126],[-46.63854079236487,-23.629589912963763],[-46.63766451419158,-23.6296550736054],[-46.63734167486457,-23.629720234247035],[-46.63674211611442,-23.62978539488867],[-46.636649876306706,-23.629850555530307],[-46.636511516595135,-23.629850555530307],[-46.6363270369797,-23.629850555530307],[-46.63605031755656,-23.629850555530307],[-46.636004197652696,-23.629850555530307],[-46.63540463890255,-23.629915716171944],[-46.634436120921535,-23.629915716171944],[-46.63415940149839,-23.629915716171944],[-46.63374432236367,-23.629915716171944],[-46.633652082555955,-23.629915716171944],[-46.633513722844384,-23.629915716171944],[-46.63332924322895,-23.629850555530307],[-46.6330525238058,-23.629850555530307],[-46.6327296844788,-23.62978539488867],[-46.632222365536364,-23.629720234247035],[-46.63189952620936,-23.6296550736054],[-46.6315305669785,-23.629589912963763],[-46.63125384755535,-23.629589912963763],[-46.630792648516774,-23.629524752322126],[-46.630515929093626,-23.62945959168049],[-46.63019308976663,-23.62945959168049],[-46.630008610151194,-23.629394431038854],[-46.629824130535766,-23.629394431038854],[-46.6297780106319,-23.629394431038854],[-46.62987025043962,-23.63011119809685],[-46.62987025043962,-23.630306680021757],[-46.62987025043962,-23.630502161946666],[-46.62991637034348,-23.63069764387157],[-46.62991637034348,-23.630762804513207],[-46.62991637034348,-23.63089312579648],[-46.62996249024734,-23.631414410929565],[-46.62996249024734,-23.631609892854474],[-46.62996249024734,-23.63187053542102],[-46.62996249024734,-23.63213117798756],[-46.630008610151194,-23.632391820554105],[-46.630008610151194,-23.63265246312065],[-46.630008610151194,-23.632717623762282],[-46.63010084995891,-23.633955675953366],[-46.63010084995891,-23.63434663980318],[-46.63010084995891,-23.634476961086452],[-46.63010084995891,-23.634607282369725],[-46.63010084995891,-23.63467244301136],[-46.63010084995891,-23.63480276429463],[-46.63010084995891,-23.634933085577902],[-46.630146969862764,-23.63499824621954],[-46.630146969862764,-23.635193728144447],[-46.630146969862764,-23.63545437071099],[-46.630146969862764,-23.635519531352625],[-46.63019308976663,-23.63558469199426],[-46.63019308976663,-23.635649852635897],[-46.63019308976663,-23.635975655844078],[-46.63019308976663,-23.63604081648571],[-46.63019308976663,-23.636105977127347],[-46.63019308976663,-23.636171137768983],[-46.63019308976663,-23.63623629841062],[-46.63019308976663,-23.636301459052255],[-46.630239209670485,-23.636301459052255],[-46.630239209670485,-23.63636661969389],[-46.630239209670485,-23.636692422902073],[-46.630239209670485,-23.636887904826978],[-46.630239209670485,-23.63701822611025],[-46.63028532957434,-23.637278868676795],[-46.63028532957434,-23.63766983252661],[-46.6303314494782,-23.638060796376422],[-46.6303314494782,-23.638516920867875],[-46.630377569382055,-23.638842724076053],[-46.6303314494782,-23.638842724076053],[-46.630008610151194,-23.638647242151148],[-46.629593531016475,-23.63858208150951],[-46.629362931497184,-23.638712402792784],[-46.62899397226632,-23.638777563434417],[-46.628809492650895,-23.638777563434417],[-46.62844053342003,-23.63890788471769],[-46.62811769409303,-23.638777563434417],[-46.62756425524673,-23.638516920867875],[-46.627518135342875,-23.638516920867875],[-46.62756425524673,-23.638712402792784],[-46.62756425524673,-23.638842724076053],[-46.62756425524673,-23.63890788471769],[-46.62761037515059,-23.63923368792587],[-46.62756425524673,-23.639298848567506],[-46.62761037515059,-23.64034141883368],[-46.62761037515059,-23.640536900758587],[-46.62761037515059,-23.640797543325128],[-46.62761037515059,-23.6409278646084],[-46.62761037515059,-23.640993025250037],[-46.62761037515059,-23.641058185891673],[-46.62761037515059,-23.64112334653331],[-46.62756425524673,-23.641188507174945],[-46.62747201543902,-23.641383989099854],[-46.62733365572745,-23.64170979230803],[-46.62724141591973,-23.641970434874576],[-46.627103056208156,-23.64216591679948],[-46.6270569363043,-23.642296238082753],[-46.62701081640044,-23.64236139872439],[-46.62701081640044,-23.642426559366026],[-46.62701081640044,-23.642491720007662],[-46.626964696496586,-23.6425568806493],[-46.626964696496586,-23.642622041290934],[-46.626964696496586,-23.64281752321584],[-46.626964696496586,-23.643078165782384],[-46.626964696496586,-23.64314332642402],[-46.626964696496586,-23.643208487065657],[-46.626964696496586,-23.643273647707293],[-46.62691857659273,-23.64333880834893],[-46.62691857659273,-23.643403968990565],[-46.626872456688865,-23.643469129632198],[-46.62678021688115,-23.643729772198743],[-46.62668797707344,-23.643860093482015],[-46.62664185716958,-23.644055575406924],[-46.62654961736187,-23.644316217973465],[-46.626457377554146,-23.644511699898374],[-46.62641125765029,-23.64457686054001],[-46.62636513774643,-23.644707181823282],[-46.62636513774643,-23.644772342464915],[-46.626319017842576,-23.644902663748187],[-46.626319017842576,-23.644967824389823],[-46.626319017842576,-23.64503298503146],[-46.626319017842576,-23.645098145673096],[-46.626319017842576,-23.645163306314732],[-46.626319017842576,-23.645228466956368],[-46.626319017842576,-23.645293627598004],[-46.62627289793872,-23.645293627598004],[-46.62627289793872,-23.64535878823964],[-46.62622677803486,-23.645423948881277],[-46.626180658131005,-23.645423948881277],[-46.626088418323285,-23.645554270164546],[-46.62604229841943,-23.645619430806182],[-46.62599617851557,-23.645684591447818],[-46.625811698900144,-23.645945234014363],[-46.62562721928471,-23.646205876580904],[-46.62535049986156,-23.64659684043072],[-46.625166020246134,-23.646857482997262],[-46.6249815406307,-23.64724844684708],[-46.62484318091913,-23.64750908941362],[-46.62484318091913,-23.64770457133853],[-46.62484318091913,-23.64868198096307],[-46.62525826005385,-23.648616820321433],[-46.625673339188566,-23.64926842673779],[-46.625673339188566,-23.649463908662696],[-46.625673339188566,-23.64972455122924],[-46.62590393870786,-23.649985193795786],[-46.626180658131005,-23.64992003315415],[-46.626457377554146,-23.649854872512513],[-46.62641125765029,-23.64972455122924],[-46.626734096977295,-23.649659390587605],[-46.626734096977295,-23.649529069304332],[-46.626872456688865,-23.649529069304332],[-46.62756425524673,-23.649463908662696],[-46.62797933438145,-23.649463908662696],[-46.6282560538046,-23.649463908662696],[-46.62834829361231,-23.649463908662696],[-46.62844053342003,-23.649463908662696],[-46.62862501303546,-23.649463908662696],[-46.628809492650895,-23.649333587379427],[-46.62890173245861,-23.649203266096155],[-46.628947852362465,-23.649203266096155],[-46.629824130535766,-23.649203266096155],[-46.63056204899749,-23.649203266096155],[-46.63060816890135,-23.650441318287236],[-46.630654288805204,-23.650897442778685],[-46.63070040870906,-23.651092924703594],[-46.63074652861292,-23.65115808534523],[-46.63083876842063,-23.651288406628503],[-46.63093100822835,-23.65272194074449],[-46.631023248036065,-23.65304774395267],[-46.63106936793992,-23.653243225877578],[-46.63111548784378,-23.65337354716085],[-46.63125384755535,-23.65350386844412],[-46.63139220726693,-23.653569029085755],[-46.6315305669785,-23.653569029085755],[-46.63199176601707,-23.653438707802486],[-46.63263744467108,-23.653308386519214],[-46.63342148303666,-23.653112904594305],[-46.6339288019791,-23.652982583311033],[-46.63397492188296,-23.653243225877578],[-46.634021041786816,-23.65350386844412],[-46.634021041786816,-23.6538296716523],[-46.634021041786816,-23.65415547486048],[-46.63397492188296,-23.654872241918472],[-46.63397492188296,-23.655132884485017],[-46.6339288019791,-23.65526320576829],[-46.6339288019791,-23.655458687693198],[-46.633882682075246,-23.65571933025974],[-46.633882682075246,-23.65604513346792],[-46.63383656217138,-23.65630577603446],[-46.633790442267525,-23.656566418601006],[-46.633790442267525,-23.65682706116755],[-46.63374432236367,-23.657022543092456],[-46.63374432236367,-23.657218025017364],[-46.63369820245981,-23.65747866758391],[-46.633652082555955,-23.657804470792087],[-46.633652082555955,-23.65806511335863],[-46.6336059626521,-23.658260595283537],[-46.6336059626521,-23.65852123785008],[-46.63355984274824,-23.658781880416626],[-46.63355984274824,-23.65897736234153],[-46.633513722844384,-23.65949864747462],[-46.63346760294052,-23.659889611324434],[-46.63342148303666,-23.659889611324434],[-46.63342148303666,-23.65995477196607],[-46.63346760294052,-23.65995477196607],[-46.63342148303666,-23.660019932607707],[-46.63337536313281,-23.660019932607707],[-46.63328312332509,-23.65995477196607],[-46.633237003421236,-23.65995477196607],[-46.63319088351738,-23.65995477196607],[-46.63314476361352,-23.65995477196607],[-46.63309864370966,-23.660019932607707],[-46.6330525238058,-23.660019932607707],[-46.633006403901945,-23.660085093249343],[-46.63296028399809,-23.66015025389098],[-46.63291416409423,-23.660215414532615],[-46.63291416409423,-23.660280575174248],[-46.63291416409423,-23.660345735815884],[-46.63291416409423,-23.660476057099157],[-46.632868044190374,-23.66060637838243],[-46.63282192428652,-23.660997342232243],[-46.63277580438266,-23.660997342232243],[-46.6327296844788,-23.660997342232243],[-46.63268356457494,-23.660997342232243],[-46.63263744467108,-23.66106250287388],[-46.63254520486337,-23.661127663515515],[-46.63249908495951,-23.661127663515515],[-46.6324068451518,-23.661257984798787],[-46.632360725247935,-23.661323145440424],[-46.63226848544022,-23.661453466723696],[-46.63217624563251,-23.661518627365332],[-46.63213012572865,-23.6616489486486],[-46.63203788592094,-23.661714109290237],[-46.631945646113216,-23.661779269931873],[-46.63171504659393,-23.662039912498418],[-46.631161607747636,-23.66282184019805],[-46.63097712813221,-23.6632779646895],[-46.63046980918977,-23.66405989238913],[-46.63028532957434,-23.66425537431404],[-46.63005473005505,-23.66451601688058],[-46.62987025043962,-23.66497214137203],[-46.629824130535766,-23.665232783938574],[-46.62987025043962,-23.66549342650512],[-46.6303314494782,-23.665623747788388],[-46.63097712813221,-23.66594955099657],[-46.631576686882354,-23.666470836129655],[-46.631807286401646,-23.666861799979472],[-46.632084005824794,-23.667122442546013],[-46.63249908495951,-23.667383085112558],[-46.63231460534408,-23.668490816020366],[-46.63217624563251,-23.669012101153452],[-46.632084005824794,-23.669337904361633],[-46.631807286401646,-23.670250153344536],[-46.6315305669785,-23.670901759760895],[-46.63120772765149,-23.67161852681889],[-46.63070040870906,-23.672400454518517],[-46.63056204899749,-23.672465615160153],[-46.63056204899749,-23.67253077580179],[-46.63060816890135,-23.672595936443425],[-46.630792648516774,-23.672921739651606],[-46.63088488832449,-23.672986900293242],[-46.63111548784378,-23.673182382218148],[-46.631161607747636,-23.673182382218148],[-46.63125384755535,-23.673247542859784],[-46.63139220726693,-23.673377864143056],[-46.63148444707464,-23.67350818542633],[-46.6315305669785,-23.673573346067965],[-46.631668926690075,-23.673703667351234],[-46.63171504659393,-23.67376882799287],[-46.63189952620936,-23.67376882799287],[-46.63199176601707,-23.673703667351234],[-46.632084005824794,-23.673703667351234],[-46.63217624563251,-23.6736385067096],[-46.63226848544022,-23.6736385067096],[-46.63231460534408,-23.6736385067096],[-46.632360725247935,-23.6736385067096],[-46.6324068451518,-23.6736385067096],[-46.632591324767226,-23.673703667351234],[-46.63263744467108,-23.673703667351234],[-46.63268356457494,-23.67376882799287],[-46.6327296844788,-23.67376882799287],[-46.63277580438266,-23.67376882799287],[-46.63277580438266,-23.673833988634506],[-46.63282192428652,-23.673833988634506],[-46.63282192428652,-23.673899149276142],[-46.63282192428652,-23.67396430991778],[-46.63282192428652,-23.674029470559415],[-46.63277580438266,-23.67409463120105],[-46.6327296844788,-23.674159791842687],[-46.6327296844788,-23.674224952484323],[-46.6327296844788,-23.67429011312596],[-46.6327296844788,-23.674355273767592],[-46.63277580438266,-23.674420434409228],[-46.63282192428652,-23.674420434409228],[-46.63282192428652,-23.674485595050864],[-46.632868044190374,-23.6745507556925],[-46.63291416409423,-23.674615916334137],[-46.633006403901945,-23.674615916334137],[-46.63309864370966,-23.674681076975773],[-46.63314476361352,-23.674681076975773],[-46.63319088351738,-23.67474623761741],[-46.633237003421236,-23.67474623761741],[-46.63328312332509,-23.674811398259045],[-46.63332924322895,-23.67487655890068],[-46.63337536313281,-23.67487655890068],[-46.63346760294052,-23.674941719542318],[-46.633513722844384,-23.675006880183954],[-46.6336059626521,-23.675072040825587],[-46.63369820245981,-23.675137201467223],[-46.63374432236367,-23.675137201467223],[-46.633790442267525,-23.675137201467223],[-46.63383656217138,-23.67520236210886],[-46.633882682075246,-23.67520236210886],[-46.634205521402244,-23.675006880183954],[-46.63425164130611,-23.675006880183954],[-46.63439000101768,-23.67487655890068],[-46.634574480633106,-23.674811398259045],[-46.634666720440826,-23.674681076975773],[-46.63475896024854,-23.674681076975773],[-46.6348050801524,-23.674615916334137],[-46.634851200056254,-23.6745507556925],[-46.634943439863974,-23.674485595050864],[-46.63503567967169,-23.674355273767592],[-46.6351279194794,-23.67429011312596],[-46.63517403938326,-23.674159791842687],[-46.635220159287115,-23.67409463120105],[-46.63526627919097,-23.674029470559415],[-46.63535851899869,-23.673899149276142],[-46.63540463890255,-23.673833988634506],[-46.63545075880641,-23.673703667351234],[-46.63549687871026,-23.6736385067096],[-46.63554299861412,-23.673573346067965],[-46.63558911851798,-23.673573346067965],[-46.635635238421834,-23.673573346067965],[-46.6356813583257,-23.67350818542633],[-46.63577359813341,-23.67350818542633],[-46.635865837941125,-23.673443024784692],[-46.63595807774884,-23.673377864143056],[-46.636004197652696,-23.673377864143056],[-46.63605031755656,-23.67331270350142],[-46.63614255736427,-23.67331270350142],[-46.63614255736427,-23.673247542859784],[-46.63618867726813,-23.673247542859784],[-46.63637315688356,-23.67311722157651],[-46.636511516595135,-23.673052060934875],[-46.63655763649899,-23.673052060934875],[-46.63655763649899,-23.672986900293242],[-46.63660375640285,-23.672986900293242],[-46.636649876306706,-23.672986900293242],[-46.63674211611442,-23.672921739651606],[-46.63701883553757,-23.67285657900997],[-46.637295554960716,-23.672726257726698],[-46.637572274383864,-23.67266109708506],[-46.63766451419158,-23.672595936443425],[-46.637710634095434,-23.67253077580179],[-46.63780287390315,-23.67253077580179],[-46.63789511371087,-23.672465615160153],[-46.63803347342244,-23.672400454518517],[-46.63812571323015,-23.672400454518517],[-46.638217953037866,-23.67233529387688],[-46.63831019284559,-23.67233529387688],[-46.63844855255716,-23.672270133235248],[-46.63858691226873,-23.672270133235248],[-46.638725271980306,-23.67220497259361],[-46.63890975159573,-23.672139811951975],[-46.63909423121117,-23.672139811951975],[-46.63923259092274,-23.67207465131034],[-46.63955543024974,-23.672009490668703],[-46.63983214967289,-23.67187916938543],[-46.64006274919218,-23.67187916938543],[-46.640154988999896,-23.671814008743794],[-46.64052394823076,-23.671683687460522],[-46.640800667653906,-23.67161852681889],[-46.641123506980904,-23.671553366177253],[-46.641215746788625,-23.671553366177253],[-46.64130798659634,-23.671488205535617],[-46.64140022640405,-23.671488205535617],[-46.641492466211766,-23.671488205535617],[-46.64153858611563,-23.671488205535617],[-46.641584706019486,-23.671488205535617],[-46.64163082592334,-23.671488205535617],[-46.6416769458272,-23.671488205535617],[-46.64172306573106,-23.671488205535617],[-46.641769185634914,-23.671553366177253],[-46.64186142544263,-23.671553366177253],[-46.641999785154205,-23.67161852681889],[-46.64223038467349,-23.67174884810216],[-46.64246098419278,-23.671814008743794],[-46.64250710409664,-23.671814008743794],[-46.64259934390435,-23.671814008743794],[-46.642645463808215,-23.671814008743794],[-46.64273770361593,-23.671814008743794],[-46.642783823519785,-23.671814008743794],[-46.6428760633275,-23.67174884810216],[-46.64296830313521,-23.671683687460522],[-46.64301442303908,-23.67161852681889],[-46.64301442303908,-23.671553366177253],[-46.64306054294293,-23.671553366177253],[-46.64310666284679,-23.671488205535617],[-46.64315278275065,-23.671357884252345],[-46.64338338226994,-23.671162402327436],[-46.64352174198151,-23.671032081044164],[-46.64352174198151,-23.67096692040253],[-46.643567861885366,-23.671032081044164],[-46.64379846140466,-23.671162402327436],[-46.643982941020084,-23.671357884252345],[-46.64416742063552,-23.671488205535617],[-46.64430578034709,-23.67161852681889],[-46.6443980201548,-23.67161852681889],[-46.64444414005866,-23.671553366177253],[-46.644490259962524,-23.67142304489398],[-46.64458249977024,-23.67129272361071],[-46.64481309928952,-23.670901759760895],[-46.64508981871267,-23.670510795911078],[-46.645274298328104,-23.6701849927029],[-46.64555101775125,-23.669794028853083],[-46.64573549736668,-23.669533386286542],[-46.64582773717439,-23.669337904361633],[-46.64582773717439,-23.669272743719997],[-46.64587385707825,-23.669272743719997],[-46.646058336693685,-23.66920758307836],[-46.64633505611683,-23.669012101153452],[-46.646427295924546,-23.66894694051182],[-46.64675013525155,-23.66875145858691],[-46.646842375059265,-23.668686297945275],[-46.64716521438627,-23.668490816020366],[-46.64725745419398,-23.66842565537873],[-46.647626413424845,-23.66816501281219],[-46.64771865323256,-23.66816501281219],[-46.64785701294414,-23.668034691528916],[-46.648041492559564,-23.667904370245644],[-46.648225972175,-23.667839209604008],[-46.64836433188657,-23.667708888320735],[-46.648548811502,-23.6676437276791],[-46.64873329111743,-23.667578567037467],[-46.648825530925144,-23.66751340639583],[-46.64887165082901,-23.66751340639583],[-46.648917770732865,-23.66751340639583],[-46.64901001054058,-23.66751340639583],[-46.649056130444436,-23.66751340639583],[-46.64914837025215,-23.66751340639583],[-46.649194490156006,-23.66751340639583],[-46.64924061005987,-23.667578567037467],[-46.64928672996373,-23.667578567037467],[-46.649332849867584,-23.6676437276791],[-46.64937896977144,-23.667708888320735],[-46.6494250896753,-23.66777404896237],[-46.649471209579154,-23.667839209604008],[-46.64951732948301,-23.667904370245644],[-46.64956344938687,-23.667904370245644],[-46.64965568919459,-23.667904370245644],[-46.64979404890616,-23.667839209604008],[-46.65002464842545,-23.667708888320735],[-46.650255247944735,-23.6676437276791],[-46.650255247944735,-23.667578567037467],[-46.6503013678486,-23.667578567037467],[-46.650347487752455,-23.667578567037467],[-46.65039360765631,-23.667578567037467],[-46.65043972756017,-23.667578567037467],[-46.650485847464026,-23.667578567037467],[-46.65067032707946,-23.667578567037467],[-46.650900926598744,-23.6676437276791],[-46.651131526118036,-23.667578567037467],[-46.65117764602189,-23.667578567037467],[-46.65131600573346,-23.667578567037467],[-46.65136212563732,-23.667578567037467],[-46.651408245541184,-23.66751340639583],[-46.65145436544504,-23.66751340639583],[-46.6515004853489,-23.667448245754194],[-46.651546605252754,-23.667383085112558],[-46.6518233246759,-23.667122442546013],[-46.651915564483616,-23.667057281904377],[-46.65200780429133,-23.666926960621108],[-46.65205392419519,-23.666861799979472],[-46.65210004409904,-23.666796639337836],[-46.65214616400291,-23.6667314786962],[-46.652192283906764,-23.6667314786962],[-46.65223840381062,-23.6667314786962],[-46.65228452371448,-23.666666318054563],[-46.65237676352219,-23.666666318054563],[-46.65242288342605,-23.666601157412927],[-46.65260736304148,-23.66653599677129],[-46.65274572275305,-23.666470836129655],[-46.65279184265691,-23.66640567548802],[-46.652976322272345,-23.666340514846382],[-46.65316080188777,-23.666340514846382],[-46.65339140140706,-23.666210193563114],[-46.65343752131092,-23.666210193563114],[-46.65348364121478,-23.666210193563114],[-46.65348364121478,-23.666145032921477],[-46.653529761118634,-23.666145032921477],[-46.65357588102249,-23.666145032921477],[-46.65357588102249,-23.66607987227984],[-46.653622000926354,-23.66607987227984],[-46.653898720349495,-23.66575406907166],[-46.65403708006107,-23.665623747788388],[-46.654175439772644,-23.66549342650512],[-46.65426767958036,-23.665428265863483],[-46.654406039291935,-23.665363105221846],[-46.65449827909965,-23.665232783938574],[-46.654682758715076,-23.6651024626553],[-46.65472887861894,-23.665037302013666],[-46.6547749985228,-23.665037302013666],[-46.65482111842665,-23.66497214137203],[-46.65486723833051,-23.66497214137203],[-46.65491335823437,-23.664906980730397],[-46.65500559804208,-23.664906980730397],[-46.655190077657515,-23.66484182008876],[-46.655328437369086,-23.664711498805488],[-46.65555903688838,-23.664646338163852],[-46.655743516503804,-23.664581177522216],[-46.656250835446244,-23.66432053495567],[-46.65652755486939,-23.664190213672402],[-46.656758154388676,-23.66405989238913],[-46.656896514100254,-23.663994731747493],[-46.65721935342725,-23.66386441046422],[-46.65735771313883,-23.663799249822585],[-46.657818912177405,-23.663538607256044],[-46.657957271888975,-23.663473446614407],[-46.658187871408266,-23.663343125331135],[-46.65841847092756,-23.663212804047863],[-46.658464590831414,-23.663212804047863],[-46.65874131025456,-23.663147643406226],[-46.65897190977385,-23.663147643406226],[-46.659248629196995,-23.663147643406226],[-46.65943310881242,-23.66308248276459],[-46.659479228716286,-23.663147643406226],[-46.659479228716286,-23.663343125331135],[-46.659479228716286,-23.663538607256044],[-46.659479228716286,-23.663668928539312],[-46.659479228716286,-23.66373408918095],[-46.65952534862014,-23.66386441046422],[-46.65952534862014,-23.663929571105857],[-46.65952534862014,-23.663994731747493],[-46.659571468524,-23.664125053030766],[-46.65975594813943,-23.664385695597307],[-46.65975594813943,-23.664450856238943],[-46.65994042775486,-23.664385695597307],[-46.65998654765872,-23.66432053495567],[-46.660171027274146,-23.66425537431404],[-46.66035550688958,-23.664125053030766],[-46.66049386660115,-23.66405989238913],[-46.66063222631273,-23.663929571105857],[-46.6607705860243,-23.663799249822585],[-46.66100118554359,-23.663603767897676],[-46.66113954525516,-23.66340828597277],[-46.66127790496674,-23.6632779646895],[-46.66141626467831,-23.66308248276459],[-46.6616468641976,-23.66282184019805],[-46.66183134381303,-23.662561197631504],[-46.6619697035246,-23.662365715706596],[-46.66206194333232,-23.662235394423327],[-46.662246422947746,-23.661974751856782],[-46.66238478265932,-23.66184443057351],[-46.662523142370894,-23.6616489486486],[-46.662661502082464,-23.661453466723696],[-46.662661502082464,-23.66138830608206],[-46.6628459816979,-23.66119282415715],[-46.66298434140947,-23.660997342232243],[-46.66307658121718,-23.660867020948974],[-46.663168821024904,-23.660541217740793],[-46.663168821024904,-23.660345735815884],[-46.66321494092876,-23.660345735815884],[-46.66321494092876,-23.660280575174248],[-46.66321494092876,-23.660019932607707],[-46.66321494092876,-23.65962896875789],[-46.66321494092876,-23.659563808116253],[-46.66326106083262,-23.65936832619135],[-46.66326106083262,-23.659303165549712],[-46.66326106083262,-23.659238004908076],[-46.663307180736474,-23.659107683624804],[-46.66335330064033,-23.659042522983167],[-46.66339942054419,-23.658912201699895],[-46.66339942054419,-23.658847041058262],[-46.663445540448045,-23.658781880416626],[-46.663537780255766,-23.658651559133354],[-46.66358390015962,-23.658586398491718],[-46.663676139967336,-23.658456077208445],[-46.66376837977505,-23.65839091656681],[-46.66386061958277,-23.658260595283537],[-46.663952859390484,-23.658195434641904],[-46.6640450991982,-23.65806511335863],[-46.66427569871749,-23.657804470792087],[-46.66441405842906,-23.657674149508814],[-46.66478301765992,-23.657348346300637],[-46.66482913756378,-23.657218025017364],[-46.664875257467635,-23.657218025017364],[-46.66492137737149,-23.65715286437573],[-46.66501361717921,-23.657087703734092],[-46.6652442166985,-23.65682706116755],[-46.665290336602354,-23.656761900525915],[-46.665520936121645,-23.656566418601006],[-46.66570541573708,-23.65630577603446],[-46.66588989535251,-23.656175454751192],[-46.66598213516022,-23.65604513346792],[-46.666166614775655,-23.65584965154301],[-46.66635109439108,-23.655654169618103],[-46.666397214294946,-23.655654169618103],[-46.66648945410266,-23.65552384833483],[-46.66653557400652,-23.655458687693198],[-46.66676617352581,-23.655198045126653],[-46.666812293429665,-23.655132884485017],[-46.66685841333352,-23.65506772384338],[-46.66690453323738,-23.655002563201744],[-46.66722737256438,-23.65461159935193],[-46.66727349246824,-23.654546438710295],[-46.6673196123721,-23.65448127806866],[-46.66750409198753,-23.654350956785386],[-46.66755021189139,-23.654350956785386],[-46.667734691506816,-23.65415547486048],[-46.668242010449255,-23.6538296716523],[-46.66833425025697,-23.653699350369028],[-46.668380370160826,-23.653699350369028],[-46.668518729872396,-23.653569029085755],[-46.668657089583974,-23.65337354716085],[-46.668795449295544,-23.653243225877578],[-46.66888768910326,-23.65304774395267],[-46.66897992891098,-23.652917422669397],[-46.66907216871869,-23.65272194074449],[-46.66911828862255,-23.652656780102856],[-46.66921052843026,-23.65239613753631],[-46.66934888814184,-23.651874852403225],[-46.6693950080457,-23.65180969176159],[-46.6693950080457,-23.651744531119952],[-46.6693950080457,-23.651418727911775],[-46.669441127949554,-23.65115808534523],[-46.66953336775727,-23.65070196085378],[-46.66962560756498,-23.650571639570508],[-46.66967172746884,-23.650571639570508],[-46.6697178473727,-23.650571639570508],[-46.669810087180416,-23.65050647892887],[-46.669810087180416,-23.650441318287236],[-46.66985620708427,-23.650310997003963],[-46.669948446891986,-23.649985193795786],[-46.66999456679584,-23.649854872512513],[-46.6700406866997,-23.649789711870877],[-46.670086806603564,-23.64959422994597],[-46.67013292650742,-23.649529069304332],[-46.67013292650742,-23.649463908662696],[-46.67013292650742,-23.649398748021063],[-46.67013292650742,-23.649203266096155],[-46.67013292650742,-23.64913810545452],[-46.67013292650742,-23.649072944812882],[-46.67017904641128,-23.648877462887974],[-46.670225166315134,-23.648812302246338],[-46.67027128621899,-23.648616820321433],[-46.67031740612285,-23.64848649903816],[-46.67031740612285,-23.648421338396524],[-46.670363526026705,-23.648421338396524],[-46.670363526026705,-23.648356177754888],[-46.67040964593056,-23.64829101711325],[-46.670455765834426,-23.648225856471615],[-46.67050188573828,-23.64816069582998],[-46.67050188573828,-23.648095535188347],[-46.67054800564214,-23.648095535188347],[-46.67054800564214,-23.64803037454671],[-46.670594125545996,-23.647834892621802],[-46.67064024544985,-23.64770457133853],[-46.67068636535371,-23.647574250055257],[-46.67073248525757,-23.647378768130352],[-46.67077860516143,-23.64724844684708],[-46.67077860516143,-23.647183286205443],[-46.67082472506529,-23.647118125563807],[-46.670870844969144,-23.64705296492217],[-46.670916964873,-23.646987804280535],[-46.671009204680715,-23.646792322355626],[-46.671009204680715,-23.646727161713994],[-46.67110144448843,-23.64659684043072],[-46.67114756439229,-23.64646651914745],[-46.671239804200006,-23.646401358505813],[-46.67128592410386,-23.646336197864176],[-46.67133204400772,-23.646205876580904],[-46.67142428381543,-23.646075555297635],[-46.67160876343087,-23.645749752089454],[-46.671654883334725,-23.645619430806182],[-46.67170100323858,-23.645554270164546],[-46.67174712314244,-23.645423948881277],[-46.67183936295015,-23.64535878823964],[-46.671885482854016,-23.645163306314732],[-46.67197772266173,-23.64503298503146],[-46.67202384256559,-23.644967824389823],[-46.67202384256559,-23.64483750310655],[-46.67193160275787,-23.64483750310655],[-46.67183936295015,-23.644772342464915],[-46.671654883334725,-23.644772342464915],[-46.67156264352701,-23.644707181823282],[-46.67142428381543,-23.644707181823282],[-46.67128592410386,-23.644642021181646],[-46.67119368429615,-23.644642021181646],[-46.67119368429615,-23.64457686054001],[-46.67114756439229,-23.644511699898374],[-46.67110144448843,-23.644446539256737],[-46.67110144448843,-23.644316217973465],[-46.67105532458457,-23.64425105733183],[-46.671009204680715,-23.64425105733183],[-46.671009204680715,-23.644185896690193],[-46.67096308477686,-23.644120736048556],[-46.670916964873,-23.644120736048556],[-46.670870844969144,-23.644055575406924],[-46.67082472506529,-23.644055575406924],[-46.67077860516143,-23.643990414765288],[-46.67068636535371,-23.64392525412365],[-46.67064024544985,-23.643860093482015],[-46.67054800564214,-23.64379493284038],[-46.670455765834426,-23.643729772198743],[-46.67040964593056,-23.643729772198743],[-46.670363526026705,-23.643664611557107],[-46.67031740612285,-23.643664611557107],[-46.67027128621899,-23.64359945091547],[-46.670225166315134,-23.64359945091547],[-46.67017904641128,-23.64359945091547],[-46.67013292650742,-23.643534290273834],[-46.6700406866997,-23.643534290273834],[-46.66999456679584,-23.643534290273834],[-46.669948446891986,-23.643469129632198],[-46.669579487661125,-23.643403968990565],[-46.6693950080457,-23.643403968990565],[-46.669164408526406,-23.64333880834893],[-46.668933809007115,-23.643273647707293],[-46.66874932939169,-23.643273647707293],[-46.66856484977625,-23.643208487065657],[-46.66819589054539,-23.64314332642402],[-46.66787305121839,-23.643078165782384],[-46.66787305121839,-23.643013005140748],[-46.66782693131453,-23.643013005140748],[-46.66787305121839,-23.642947844499112],[-46.66791917112225,-23.64281752321584],[-46.66796529102611,-23.642622041290934],[-46.668011410929964,-23.642491720007662],[-46.66791917112225,-23.642426559366026],[-46.66778081141067,-23.64236139872439],[-46.66755021189139,-23.642296238082753],[-46.66727349246824,-23.642231077441117],[-46.66718125266053,-23.642231077441117],[-46.666950653141235,-23.64216591679948],[-46.66667393371809,-23.642100756157845],[-46.66653557400652,-23.642035595516212],[-46.66648945410266,-23.642035595516212],[-46.666397214294946,-23.641970434874576],[-46.666397214294946,-23.64190527423294],[-46.66635109439108,-23.641840113591304],[-46.666304974487225,-23.641840113591304],[-46.66625885458337,-23.641774952949667],[-46.666166614775655,-23.64170979230803],[-46.66607437496794,-23.64157947102476],[-46.66598213516022,-23.64157947102476],[-46.66588989535251,-23.641449149741486],[-46.665751535640936,-23.641318828458218],[-46.66565929583322,-23.64125366781658],[-46.665520936121645,-23.641188507174945],[-46.66547481621779,-23.64112334653331],[-46.665382576410074,-23.641058185891673],[-46.6652442166985,-23.6409278646084],[-46.66515197689078,-23.640862703966764],[-46.66501361717921,-23.640732382683492],[-46.66492137737149,-23.64066722204186],[-46.66469077785221,-23.64047174011695],[-46.664598538044494,-23.640406579475314],[-46.66446017833292,-23.640276258192042],[-46.66441405842906,-23.640211097550406],[-46.6643679385252,-23.64014593690877],[-46.664321818621346,-23.64014593690877],[-46.66427569871749,-23.640080776267133],[-46.66418345890977,-23.639950454983865],[-46.66413733900591,-23.639950454983865],[-46.66413733900591,-23.63988529434223],[-46.664091219102055,-23.63988529434223],[-46.66386061958277,-23.639624651775684],[-46.663676139967336,-23.639429169850775],[-46.663537780255766,-23.639298848567506],[-46.66335330064033,-23.63903820600096],[-46.663168821024904,-23.63890788471769],[-46.66298434140947,-23.638647242151148],[-46.6628459816979,-23.63858208150951],[-46.662753741890185,-23.63845176022624],[-46.66270762198632,-23.63845176022624],[-46.66270762198632,-23.638386599584603],[-46.66256926227475,-23.63825627830133],[-46.662523142370894,-23.638191117659694],[-46.66243090256318,-23.63825627830133],[-46.6622925428516,-23.638321438942967],[-46.66215418314003,-23.638386599584603],[-46.66201582342846,-23.638516920867875],[-46.66192358362074,-23.63858208150951],[-46.661877463716884,-23.63858208150951],[-46.66183134381303,-23.63858208150951],[-46.66178522390917,-23.638647242151148],[-46.66173910400531,-23.638647242151148],[-46.66169298410146,-23.638647242151148],[-46.66155462438988,-23.638712402792784],[-46.66127790496674,-23.63890788471769],[-46.661231785062874,-23.63890788471769],[-46.66118566515902,-23.638973045359325],[-46.66104730544745,-23.63903820600096],[-46.66100118554359,-23.63903820600096],[-46.660816705928156,-23.63923368792587],[-46.66063222631273,-23.639429169850775],[-46.66049386660115,-23.63949433049241],[-46.66049386660115,-23.639559491134047],[-46.660447746697294,-23.639559491134047],[-46.660447746697294,-23.639624651775684],[-46.66040162679344,-23.639624651775684],[-46.66035550688958,-23.63968981241732],[-46.66030938698572,-23.639820133700592],[-46.66030938698572,-23.63988529434223],[-46.66030938698572,-23.639950454983865],[-46.66030938698572,-23.640080776267133],[-46.660263267081866,-23.64034141883368],[-46.66021714717801,-23.640536900758587],[-46.660171027274146,-23.640732382683492],[-46.660171027274146,-23.640797543325128],[-46.660171027274146,-23.640862703966764],[-46.66007878746643,-23.641058185891673],[-46.660032667562575,-23.64112334653331],[-46.65994042775486,-23.64125366781658],[-46.65984818794715,-23.641449149741486],[-46.65975594813943,-23.64157947102476],[-46.65961758842786,-23.64170979230803],[-46.659571468524,-23.641774952949667],[-46.659571468524,-23.641840113591304],[-46.659479228716286,-23.642035595516212],[-46.659386988908565,-23.64216591679948],[-46.65929474910085,-23.642296238082753],[-46.659248629196995,-23.64236139872439],[-46.65920250929314,-23.64236139872439],[-46.65915638938928,-23.642491720007662],[-46.65906414958156,-23.6425568806493],[-46.65897190977385,-23.64268720193257],[-46.65897190977385,-23.642752362574203],[-46.65892578986999,-23.642882683857476],[-46.65887966996613,-23.642882683857476],[-46.658833550062276,-23.642882683857476],[-46.65878743015842,-23.642882683857476],[-46.65874131025456,-23.64281752321584],[-46.6586951903507,-23.64281752321584],[-46.65864907044684,-23.642752362574203],[-46.658602950542985,-23.64268720193257],[-46.65851071073527,-23.642622041290934],[-46.658464590831414,-23.6425568806493],[-46.65841847092756,-23.642491720007662],[-46.6583723510237,-23.642426559366026],[-46.65828011121598,-23.64236139872439],[-46.658187871408266,-23.642231077441117],[-46.65809563160055,-23.64216591679948],[-46.65800339179284,-23.642100756157845],[-46.65791115198512,-23.641970434874576],[-46.657818912177405,-23.64190527423294],[-46.65772667236969,-23.641840113591304],[-46.65763443256198,-23.641774952949667],[-46.657542192754256,-23.64170979230803],[-46.6574960728504,-23.641644631666395],[-46.65744995294654,-23.64157947102476],[-46.657403833042686,-23.641514310383123],[-46.65731159323497,-23.641449149741486],[-46.65721935342725,-23.641318828458218],[-46.657173233523395,-23.641318828458218],[-46.65712711361954,-23.641188507174945],[-46.657034873811824,-23.64112334653331],[-46.65694263400411,-23.641058185891673],[-46.656896514100254,-23.640993025250037],[-46.65680427429253,-23.640993025250037],[-46.656758154388676,-23.6409278646084],[-46.65666591458096,-23.640862703966764],[-46.65657367477325,-23.640862703966764],[-46.65648143496553,-23.640797543325128],[-46.656389195157814,-23.640797543325128],[-46.6562969553501,-23.640797543325128],[-46.656112475734666,-23.640797543325128],[-46.65592799611924,-23.640797543325128],[-46.65569739659995,-23.640797543325128],[-46.65551291698452,-23.640797543325128],[-46.65537455727294,-23.640732382683492],[-46.655190077657515,-23.640732382683492],[-46.65482111842665,-23.640732382683492],[-46.65463663881122,-23.640732382683492],[-46.654544399003505,-23.64066722204186],[-46.654406039291935,-23.640602061400223],[-46.65412931986879,-23.64047174011695],[-46.65408319996493,-23.640406579475314],[-46.65394484025335,-23.64034141883368],[-46.65380648054178,-23.640276258192042],[-46.65366812083021,-23.64014593690877],[-46.65348364121478,-23.640080776267133],[-46.65329916159935,-23.63988529434223],[-46.65293020236849,-23.639820133700592],[-46.65260736304148,-23.639754973058956],[-46.651915564483616,-23.63968981241732],[-46.65186944457976,-23.63968981241732],[-46.651777204772046,-23.63949433049241],[-46.65163884506047,-23.639364009209142],[-46.65163884506047,-23.639298848567506],[-46.65145436544504,-23.639103366642598],[-46.65136212563732,-23.63903820600096],[-46.65136212563732,-23.638973045359325],[-46.65131600573346,-23.638973045359325],[-46.65131600573346,-23.63890788471769],[-46.651269885829606,-23.63890788471769],[-46.651269885829606,-23.638842724076053],[-46.651131526118036,-23.638647242151148],[-46.65099316640646,-23.638321438942967],[-46.65085480669489,-23.638060796376422],[-46.650762566887174,-23.63780015380988],[-46.65053196736788,-23.63734402931843],[-46.65043972756017,-23.637148547393522],[-46.65039360765631,-23.63701822611025],[-46.6503013678486,-23.636887904826978],[-46.650255247944735,-23.63682274418534],[-46.650255247944735,-23.636757583543705],[-46.650347487752455,-23.636692422902073],[-46.650347487752455,-23.636627262260436],[-46.65039360765631,-23.63636661969389],[-46.65043972756017,-23.63604081648571],[-46.65043972756017,-23.635975655844078],[-46.65039360765631,-23.635975655844078],[-46.650347487752455,-23.635975655844078],[-46.65020912804088,-23.63591049520244],[-46.65002464842545,-23.635845334560805],[-46.64993240861773,-23.635845334560805],[-46.64924061005987,-23.635715013277533],[-46.64937896977144,-23.63545437071099],[-46.6494250896753,-23.635389210069352],[-46.64960956929073,-23.63512856750281],[-46.649701809098445,-23.634933085577902],[-46.649840168810016,-23.63467244301136],[-46.6497479290023,-23.63467244301136],[-46.64956344938687,-23.63454212172809],[-46.64951732948301,-23.634476961086452],[-46.650255247944735,-23.633434390820277],[-46.650116888233164,-23.63187053542102],[-46.6497479290023,-23.63167505349611],[-46.649471209579154,-23.631544732212838],[-46.64924061005987,-23.63134925028793],[-46.64901001054058,-23.63121892900466],[-46.64873329111743,-23.631088607721388],[-46.648687171213574,-23.63102344707975],[-46.64864105130972,-23.63102344707975],[-46.64859493140586,-23.63102344707975],[-46.648502691598146,-23.630958286438116],[-46.64836433188657,-23.630827965154843],[-46.648225972175,-23.630762804513207],[-46.648133732367285,-23.63069764387157],[-46.64794925275185,-23.630632483229938],[-46.64781089304028,-23.630502161946666],[-46.64776477313642,-23.630502161946666]]]}}]}