{"type":"FeatureCollection","features":[{"type":"Feature","properties":{"DATA_ULT_A":"2009/10/09","DATA_CRIAC":"2009/10/09","id":"08","name":"Lapa","area":40.1,"pop_2010":305526,"pop_density_2010":7619,"budget_2015":43833676},"geometry":{"type":"Polygon","coordinates":[[[-46.75808358316411,-23.55094101850929],[-46.75808358316411,-23.550875857867652],[-46.75803746326025,-23.550810697226016],[-46.75826806277954,-23.550224251451294],[-46.758360302587256,-23.54996360888475],[-46.75859090210655,-23.549246841826758],[-46.75872926181812,-23.54905135990185],[-46.75868314191426,-23.548986199260213],[-46.75845254239497,-23.548921038618577],[-46.75845254239497,-23.54885587797694],[-46.75845254239497,-23.548790717335304],[-46.75840642249111,-23.548725556693668],[-46.758775381721975,-23.548530074768763],[-46.75895986133741,-23.54839975348549],[-46.75905210114512,-23.548334592843855],[-46.75909822104898,-23.548139110918946],[-46.75919046085669,-23.548008789635674],[-46.75919046085669,-23.547943628994037],[-46.759282700664414,-23.54781330771077],[-46.75960553999141,-23.547096540652774],[-46.75979001960685,-23.546705576802957],[-46.75992837931842,-23.54651009487805],[-46.76002061912614,-23.546249452311507],[-46.760066739029995,-23.545988809744962],[-46.76015897883771,-23.54572816717842],[-46.760205098741565,-23.545337203328604],[-46.76029733854928,-23.54494623947879],[-46.76029733854928,-23.54462043627061],[-46.76029733854928,-23.544424954345704],[-46.76029733854928,-23.54396882985425],[-46.76029733854928,-23.543643026646073],[-46.760205098741565,-23.542861098946442],[-46.760066739029995,-23.54194884996354],[-46.76002061912614,-23.54162304675536],[-46.76002061912614,-23.541427564830453],[-46.75992837931842,-23.540971440339003],[-46.75992837931842,-23.540775958414095],[-46.75974389970299,-23.539472745581378],[-46.75969777979913,-23.53940758493974],[-46.75969777979913,-23.53927726365647],[-46.75960553999141,-23.53862565724011],[-46.75960553999141,-23.538560496598475],[-46.759559420087555,-23.538430175315206],[-46.759559420087555,-23.53816953274866],[-46.76057405797243,-23.536670837991036],[-46.760620177876284,-23.5366056773494],[-46.760620177876284,-23.536540516707763],[-46.76066629778014,-23.536540516707763],[-46.76066629778014,-23.53647535606613],[-46.760712417684,-23.53647535606613],[-46.76075853758786,-23.536410195424494],[-46.76080465749172,-23.536410195424494],[-46.760850777395575,-23.536345034782858],[-46.76089689729943,-23.536279874141222],[-46.76094301720329,-23.536214713499586],[-46.76094301720329,-23.53614955285795],[-46.760989137107146,-23.536084392216313],[-46.760989137107146,-23.536019231574677],[-46.761035257011,-23.53595407093304],[-46.761035257011,-23.535888910291405],[-46.761035257011,-23.535823749649772],[-46.761035257011,-23.535758589008136],[-46.761035257011,-23.5356934283665],[-46.761035257011,-23.535563107083227],[-46.761035257011,-23.535302464516683],[-46.761035257011,-23.53517214323341],[-46.760989137107146,-23.53504182195014],[-46.76057405797243,-23.533412805909244],[-46.76052793806857,-23.533217323984335],[-46.76048181816471,-23.532956681417794],[-46.760389578357,-23.532630878209613],[-46.760343458453136,-23.532435396284708],[-46.76029733854928,-23.532305075001435],[-46.760343458453136,-23.53158830794344],[-46.760389578357,-23.531197344093624],[-46.76052793806857,-23.53002445254418],[-46.76057405797243,-23.529894131260907],[-46.76057405797243,-23.529763809977638],[-46.76048181816471,-23.529633488694365],[-46.760389578357,-23.529633488694365],[-46.760343458453136,-23.52956832805273],[-46.76025121864542,-23.529438006769457],[-46.76015897883771,-23.52937284612782],[-46.76002061912614,-23.52924252484455],[-46.75992837931842,-23.529177364202912],[-46.75988225941456,-23.529112203561276],[-46.7598361395107,-23.529047042919643],[-46.75979001960685,-23.529047042919643],[-46.75974389970299,-23.528981882278007],[-46.75969777979913,-23.52891672163637],[-46.759651659895276,-23.528851560994735],[-46.759559420087555,-23.5287864003531],[-46.7595133001837,-23.528721239711462],[-46.759421060375985,-23.528721239711462],[-46.75937494047213,-23.528656079069826],[-46.75932882056827,-23.52859091842819],[-46.75923658076055,-23.528525757786554],[-46.75919046085669,-23.528460597144917],[-46.75914434095284,-23.528460597144917],[-46.75909822104898,-23.52833027586165],[-46.75905210114512,-23.528265115220012],[-46.75895986133741,-23.528265115220012],[-46.758913741433545,-23.528199954578376],[-46.75886762152969,-23.52813479393674],[-46.758775381721975,-23.528069633295104],[-46.75868314191426,-23.528004472653468],[-46.758544782202684,-23.527874151370195],[-46.75840642249111,-23.527743830086926],[-46.75817582297182,-23.527548348162018],[-46.75808358316411,-23.52748318752038],[-46.75803746326025,-23.527418026878745],[-46.75794522345254,-23.52735286623711],[-46.75789910354868,-23.527222544953837],[-46.75780686374096,-23.5271573843122],[-46.75753014431782,-23.52689674174566],[-46.75739178460624,-23.526831581104023],[-46.757207304990814,-23.526636099179115],[-46.7571150651831,-23.52657093853748],[-46.75706894527924,-23.526505777895842],[-46.75702282537538,-23.526440617254206],[-46.75697670547152,-23.526375456612573],[-46.75697670547152,-23.526310295970937],[-46.756930585567666,-23.526310295970937],[-46.75688446566381,-23.5262451353293],[-46.75683834575995,-23.526179974687665],[-46.756792225856096,-23.526179974687665],[-46.75674610595224,-23.52611481404603],[-46.75665386614452,-23.526049653404392],[-46.75660774624066,-23.526049653404392],[-46.756561626336804,-23.52591933212112],[-46.75651550643295,-23.525854171479484],[-46.75651550643295,-23.525789010837848],[-46.75651550643295,-23.525723850196215],[-46.75651550643295,-23.52565868955458],[-46.756561626336804,-23.52565868955458],[-46.75660774624066,-23.525593528912943],[-46.75665386614452,-23.525593528912943],[-46.75665386614452,-23.525528368271306],[-46.75665386614452,-23.52546320762967],[-46.75660774624066,-23.52546320762967],[-46.75660774624066,-23.525398046988034],[-46.75660774624066,-23.525332886346398],[-46.756561626336804,-23.525332886346398],[-46.756561626336804,-23.52526772570476],[-46.756561626336804,-23.525202565063125],[-46.756561626336804,-23.52513740442149],[-46.75651550643295,-23.525072243779857],[-46.75646938652909,-23.52500708313822],[-46.7562387870098,-23.52481160121331],[-46.755777587971224,-23.524941922496584],[-46.75531638893265,-23.525072243779857],[-46.75462459037478,-23.52526772570476],[-46.75411727143234,-23.525398046988034],[-46.753425472874476,-23.52546320762967],[-46.75319487335519,-23.52546320762967],[-46.75291815393204,-23.525528368271306],[-46.75277979422047,-23.525528368271306],[-46.75241083498961,-23.525528368271306],[-46.75231859518189,-23.525528368271306],[-46.75204187575875,-23.525528368271306],[-46.75158067672017,-23.52546320762967],[-46.751303957297026,-23.525398046988034],[-46.75125783739317,-23.525398046988034],[-46.751211717489305,-23.525398046988034],[-46.75061215873916,-23.525332886346398],[-46.75019707960444,-23.525202565063125],[-46.75015095970058,-23.52513740442149],[-46.75010483979672,-23.52513740442149],[-46.750012599989006,-23.525072243779857],[-46.74996648008515,-23.52500708313822],[-46.74992036018129,-23.52500708313822],[-46.749874240277435,-23.524941922496584],[-46.74982812037358,-23.524941922496584],[-46.74932080143114,-23.524550958646767],[-46.74895184220028,-23.524290316080226],[-46.74862900287327,-23.523703870305503],[-46.748213923738554,-23.522661300039328],[-46.74761436498841,-23.52135808720661],[-46.74738376546912,-23.520706480790253],[-46.747245405757546,-23.520445838223708],[-46.74719928585368,-23.520445838223708],[-46.74742988537297,-23.520445838223708],[-46.747568245084544,-23.520445838223708],[-46.74761436498841,-23.520445838223708],[-46.74770660479612,-23.520445838223708],[-46.74775272469998,-23.520445838223708],[-46.747798844603835,-23.520445838223708],[-46.74789108441155,-23.520445838223708],[-46.747937204315406,-23.520445838223708],[-46.74798332421927,-23.520510998865344],[-46.74802944412313,-23.520510998865344],[-46.74807556402698,-23.520510998865344],[-46.74812168393084,-23.520510998865344],[-46.7481678038347,-23.520510998865344],[-46.7484906431617,-23.520510998865344],[-46.748675122777136,-23.520510998865344],[-46.74876736258485,-23.520510998865344],[-46.74881348248871,-23.520510998865344],[-46.748997962104134,-23.52057615950698],[-46.74927468152728,-23.52057615950698],[-46.74932080143114,-23.52057615950698],[-46.749505281046574,-23.520641320148616],[-46.749643640758144,-23.520706480790253],[-46.749689760662,-23.520706480790253],[-46.74978200046972,-23.520706480790253],[-46.74978200046972,-23.52077164143189],[-46.750012599989006,-23.52077164143189],[-46.75005871989286,-23.52077164143189],[-46.75015095970058,-23.52077164143189],[-46.75038155921987,-23.52077164143189],[-46.750427679123725,-23.52077164143189],[-46.75061215873916,-23.52077164143189],[-46.750658278643016,-23.520836802073525],[-46.75070439854687,-23.520836802073525],[-46.75075051845073,-23.520836802073525],[-46.750796638354586,-23.520836802073525],[-46.75088887816231,-23.520836802073525],[-46.751073357777734,-23.520836802073525],[-46.75139619710474,-23.52077164143189],[-46.75148843691245,-23.52077164143189],[-46.75158067672017,-23.52077164143189],[-46.75162679662403,-23.520706480790253],[-46.751719036431744,-23.520706480790253],[-46.7517651563356,-23.520706480790253],[-46.75181127623946,-23.520706480790253],[-46.751857396143315,-23.520706480790253],[-46.75190351604717,-23.520641320148616],[-46.75194963595103,-23.520641320148616],[-46.75199575585489,-23.520641320148616],[-46.75204187575875,-23.520641320148616],[-46.75204187575875,-23.52057615950698],[-46.75213411556646,-23.52057615950698],[-46.75218023547032,-23.520510998865344],[-46.75222635537418,-23.520510998865344],[-46.75227247527803,-23.520510998865344],[-46.75231859518189,-23.520445838223708],[-46.752364715085754,-23.52038067758207],[-46.75241083498961,-23.52038067758207],[-46.752503074797325,-23.52031551694044],[-46.75259531460504,-23.520250356298803],[-46.752641434508895,-23.520250356298803],[-46.752733674316616,-23.520185195657167],[-46.75282591412433,-23.52012003501553],[-46.75291815393204,-23.520054874373894],[-46.75301039373976,-23.519989713732258],[-46.75310263354748,-23.519924553090622],[-46.753148753451335,-23.519924553090622],[-46.75324099325905,-23.519859392448986],[-46.75324099325905,-23.51979423180735],[-46.75333323306676,-23.519729071165713],[-46.75337935297062,-23.519729071165713],[-46.75337935297062,-23.51966391052408],[-46.75333323306676,-23.519468428599172],[-46.75333323306676,-23.5193381073159],[-46.75333323306676,-23.519272946674263],[-46.75333323306676,-23.519207786032627],[-46.75333323306676,-23.519077464749355],[-46.75333323306676,-23.519012304107722],[-46.753287113162905,-23.518816822182814],[-46.753287113162905,-23.518621340257905],[-46.75324099325905,-23.51855617961627],[-46.75324099325905,-23.518491018974633],[-46.75324099325905,-23.518295537049728],[-46.75319487335519,-23.518165215766455],[-46.75319487335519,-23.51810005512482],[-46.75319487335519,-23.518034894483183],[-46.75319487335519,-23.51790457319991],[-46.75319487335519,-23.517839412558274],[-46.753148753451335,-23.517774251916638],[-46.753148753451335,-23.517709091275],[-46.753148753451335,-23.51764393063337],[-46.753148753451335,-23.517578769991733],[-46.753148753451335,-23.517513609350097],[-46.753148753451335,-23.51744844870846],[-46.753148753451335,-23.517318127425188],[-46.753148753451335,-23.517252966783552],[-46.75319487335519,-23.517252966783552],[-46.75324099325905,-23.517187806141916],[-46.753287113162905,-23.517187806141916],[-46.753287113162905,-23.51712264550028],[-46.75333323306676,-23.51712264550028],[-46.75347159277834,-23.517057484858643],[-46.75360995248991,-23.51699232421701],[-46.75365607239377,-23.51699232421701],[-46.753702192297624,-23.51699232421701],[-46.75374831220148,-23.51699232421701],[-46.75379443210534,-23.51699232421701],[-46.7538405520092,-23.51699232421701],[-46.754071151528485,-23.51686200293374],[-46.754163391336206,-23.51686200293374],[-46.75420951124006,-23.51686200293374],[-46.75425563114392,-23.516796842292102],[-46.75430175104778,-23.516796842292102],[-46.754347870951634,-23.516796842292102],[-46.75444011075935,-23.516731681650466],[-46.754486230663204,-23.516731681650466],[-46.75462459037478,-23.51666652100883],[-46.75467071027864,-23.51666652100883],[-46.754716830182495,-23.516601360367194],[-46.75476295008635,-23.516601360367194],[-46.75490130979793,-23.516601360367194],[-46.75494742970179,-23.516601360367194],[-46.755131909317214,-23.516601360367194],[-46.75522414912493,-23.516536199725557],[-46.75527026902879,-23.516536199725557],[-46.75545474864422,-23.516536199725557],[-46.755500868548076,-23.516536199725557],[-46.75554698845193,-23.516536199725557],[-46.75559310835579,-23.516536199725557],[-46.755777587971224,-23.516536199725557],[-46.756146547202086,-23.51647103908392],[-46.75660774624066,-23.516405878442285],[-46.75665386614452,-23.516405878442285],[-46.75674610595224,-23.516405878442285],[-46.75697670547152,-23.516405878442285],[-46.75706894527924,-23.516340717800652],[-46.75716118508696,-23.516340717800652],[-46.75729954479853,-23.516340717800652],[-46.75748402441396,-23.51621039651738],[-46.75753014431782,-23.51621039651738],[-46.75762238412553,-23.516145235875744],[-46.75766850402939,-23.516145235875744],[-46.75780686374096,-23.51601491459247],[-46.757852983644824,-23.51601491459247],[-46.75794522345254,-23.515949753950835],[-46.75794522345254,-23.5158845933092],[-46.757991343356395,-23.5158845933092],[-46.757991343356395,-23.515819432667563],[-46.757991343356395,-23.515754272025926],[-46.757991343356395,-23.51568911138429],[-46.757991343356395,-23.515623950742658],[-46.75803746326025,-23.51542846881775],[-46.75803746326025,-23.515363308176113],[-46.75803746326025,-23.51523298689284],[-46.75803746326025,-23.515167826251204],[-46.75803746326025,-23.515102665609568],[-46.75803746326025,-23.515037504967932],[-46.75803746326025,-23.5149723443263],[-46.75803746326025,-23.514907183684663],[-46.75803746326025,-23.51477686240139],[-46.75803746326025,-23.514711701759754],[-46.75803746326025,-23.51464654111812],[-46.757991343356395,-23.514581380476482],[-46.75794522345254,-23.514516219834846],[-46.75794522345254,-23.51445105919321],[-46.75789910354868,-23.514385898551573],[-46.757852983644824,-23.514385898551573],[-46.75780686374096,-23.514255577268305],[-46.757714623933246,-23.51419041662667],[-46.757714623933246,-23.514125255985032],[-46.75766850402939,-23.514125255985032],[-46.75766850402939,-23.514060095343396],[-46.75766850402939,-23.51399493470176],[-46.75766850402939,-23.513929774060124],[-46.75766850402939,-23.513864613418487],[-46.757852983644824,-23.513864613418487],[-46.75803746326025,-23.513929774060124],[-46.75808358316411,-23.513929774060124],[-46.758129703067965,-23.513864613418487],[-46.75817582297182,-23.513864613418487],[-46.758221942875686,-23.51379945277685],[-46.758221942875686,-23.513734292135215],[-46.758221942875686,-23.51366913149358],[-46.758221942875686,-23.51353881021031],[-46.75817582297182,-23.513473649568674],[-46.75817582297182,-23.513408488927038],[-46.758129703067965,-23.5133433282854],[-46.758129703067965,-23.513278167643765],[-46.758129703067965,-23.51321300700213],[-46.75817582297182,-23.513147846360493],[-46.758221942875686,-23.513082685718857],[-46.75826806277954,-23.513082685718857],[-46.7583141826834,-23.51301752507722],[-46.758360302587256,-23.51301752507722],[-46.75840642249111,-23.512952364435588],[-46.75849866229883,-23.512952364435588],[-46.758544782202684,-23.512952364435588],[-46.75859090210655,-23.51288720379395],[-46.758637022010404,-23.51288720379395],[-46.75868314191426,-23.51288720379395],[-46.75872926181812,-23.51288720379395],[-46.75882150162583,-23.51288720379395],[-46.75886762152969,-23.51288720379395],[-46.75895986133741,-23.51288720379395],[-46.75905210114512,-23.51288720379395],[-46.75914434095284,-23.51288720379395],[-46.75919046085669,-23.51288720379395],[-46.759282700664414,-23.512822043152315],[-46.75932882056827,-23.512822043152315],[-46.75937494047213,-23.512822043152315],[-46.75946718027984,-23.51275688251068],[-46.7595133001837,-23.51275688251068],[-46.7595133001837,-23.512691721869043],[-46.75960553999141,-23.512691721869043],[-46.759651659895276,-23.512626561227407],[-46.75974389970299,-23.51256140058577],[-46.75979001960685,-23.51256140058577],[-46.75992837931842,-23.512496239944134],[-46.759974499222274,-23.512496239944134],[-46.75992837931842,-23.512431079302498],[-46.75992837931842,-23.512365918660862],[-46.759974499222274,-23.51230075801923],[-46.759974499222274,-23.512235597377593],[-46.759974499222274,-23.512170436735957],[-46.759974499222274,-23.51210527609432],[-46.759974499222274,-23.512040115452685],[-46.75992837931842,-23.512040115452685],[-46.75992837931842,-23.51197495481105],[-46.75992837931842,-23.511909794169412],[-46.759974499222274,-23.511909794169412],[-46.759974499222274,-23.511844633527776],[-46.76002061912614,-23.51177947288614],[-46.760066739029995,-23.511714312244504],[-46.76011285893385,-23.511714312244504],[-46.76011285893385,-23.511649151602867],[-46.76015897883771,-23.511649151602867],[-46.76015897883771,-23.511583990961235],[-46.760205098741565,-23.5115188303196],[-46.760205098741565,-23.511453669677962],[-46.76025121864542,-23.511453669677962],[-46.76025121864542,-23.511388509036326],[-46.76029733854928,-23.51132334839469],[-46.760343458453136,-23.511258187753054],[-46.760389578357,-23.511193027111418],[-46.760435698260856,-23.51112786646978],[-46.760435698260856,-23.511062705828145],[-46.760435698260856,-23.51099754518651],[-46.76052793806857,-23.510932384544876],[-46.76057405797243,-23.510932384544876],[-46.760620177876284,-23.51086722390324],[-46.760712417684,-23.51086722390324],[-46.760712417684,-23.510802063261604],[-46.76080465749172,-23.510802063261604],[-46.760850777395575,-23.510736902619968],[-46.76089689729943,-23.510736902619968],[-46.76094301720329,-23.51067174197833],[-46.760989137107146,-23.51067174197833],[-46.761035257011,-23.51067174197833],[-46.761035257011,-23.510606581336695],[-46.76112749681872,-23.510606581336695],[-46.76112749681872,-23.51054142069506],[-46.76117361672258,-23.51054142069506],[-46.76121973662644,-23.51054142069506],[-46.76121973662644,-23.510476260053423],[-46.761265856530294,-23.510476260053423],[-46.76131197643415,-23.510476260053423],[-46.761404216241864,-23.510476260053423],[-46.761496456049585,-23.510476260053423],[-46.7615886958573,-23.510476260053423],[-46.761634815761155,-23.510476260053423],[-46.76172705556887,-23.510476260053423],[-46.761773175472726,-23.510476260053423],[-46.76181929537658,-23.510476260053423],[-46.76186541528045,-23.510476260053423],[-46.7619115351843,-23.510411099411787],[-46.76195765508816,-23.510411099411787],[-46.76200377499202,-23.510411099411787],[-46.762049894895874,-23.510411099411787],[-46.762049894895874,-23.51034593877015],[-46.76209601479973,-23.51034593877015],[-46.762188254607445,-23.510280778128518],[-46.76223437451131,-23.51021561748688],[-46.762280494415165,-23.510150456845246],[-46.762280494415165,-23.51008529620361],[-46.762280494415165,-23.510020135561973],[-46.762280494415165,-23.509954974920337],[-46.762280494415165,-23.5098898142787],[-46.76223437451131,-23.509824653637065],[-46.762188254607445,-23.509824653637065],[-46.76214213470359,-23.50975949299543],[-46.76209601479973,-23.50975949299543],[-46.762049894895874,-23.509694332353792],[-46.76200377499202,-23.509694332353792],[-46.76195765508816,-23.509694332353792],[-46.76186541528045,-23.509694332353792],[-46.76181929537658,-23.509694332353792],[-46.761773175472726,-23.509694332353792],[-46.761634815761155,-23.509694332353792],[-46.761634815761155,-23.50975949299543],[-46.76154257595344,-23.50975949299543],[-46.761496456049585,-23.50975949299543],[-46.761404216241864,-23.50975949299543],[-46.76135809633801,-23.509694332353792],[-46.76131197643415,-23.509694332353792],[-46.761265856530294,-23.509629171712156],[-46.761265856530294,-23.509564011070523],[-46.76131197643415,-23.509498850428887],[-46.76135809633801,-23.50943368978725],[-46.761404216241864,-23.50943368978725],[-46.761496456049585,-23.50943368978725],[-46.76154257595344,-23.509368529145615],[-46.7615886958573,-23.509368529145615],[-46.76168093566501,-23.50930336850398],[-46.761773175472726,-23.50930336850398],[-46.76181929537658,-23.50930336850398],[-46.76181929537658,-23.509238207862342],[-46.76186541528045,-23.509238207862342],[-46.7619115351843,-23.509173047220706],[-46.76195765508816,-23.509173047220706],[-46.76200377499202,-23.509173047220706],[-46.76209601479973,-23.50910788657907],[-46.76214213470359,-23.509042725937434],[-46.762188254607445,-23.508977565295798],[-46.76223437451131,-23.508977565295798],[-46.762280494415165,-23.508912404654165],[-46.76232661431902,-23.50884724401253],[-46.76237273422288,-23.508782083370892],[-46.762418854126736,-23.508716922729256],[-46.76246497403059,-23.508716922729256],[-46.76251109393445,-23.50865176208762],[-46.762557213838306,-23.50865176208762],[-46.76260333374217,-23.50865176208762],[-46.76264945364603,-23.50865176208762],[-46.762695573549884,-23.508586601445984],[-46.76274169345374,-23.508586601445984],[-46.7627878133576,-23.508521440804348],[-46.762833933261454,-23.50845628016271],[-46.76288005316531,-23.508391119521075],[-46.76297229297303,-23.50832595887944],[-46.763064532780746,-23.508260798237806],[-46.7631106526846,-23.508130476954534],[-46.76315677258846,-23.508065316312898],[-46.763202892492316,-23.50800015567126],[-46.76324901239617,-23.507934995029625],[-46.76324901239617,-23.50786983438799],[-46.76329513230003,-23.507804673746353],[-46.76329513230003,-23.507739513104717],[-46.763341252203894,-23.507609191821444],[-46.76338737210775,-23.507544031179812],[-46.76343349201161,-23.507478870538176],[-46.763479611915464,-23.50741370989654],[-46.763617971627035,-23.507283388613267],[-46.76366409153089,-23.507153067329995],[-46.763710211434756,-23.507153067329995],[-46.763710211434756,-23.50708790668836],[-46.76380245124247,-23.507022746046722],[-46.76389469105018,-23.506892424763453],[-46.76389469105018,-23.506827264121817],[-46.76394081095404,-23.50676210348018],[-46.7639869308579,-23.506696942838545],[-46.76403305076175,-23.50663178219691],[-46.76407917066562,-23.50663178219691],[-46.764125290569474,-23.506501460913636],[-46.76417141047333,-23.506501460913636],[-46.76417141047333,-23.506436300272],[-46.76421753037719,-23.506371139630364],[-46.76421753037719,-23.506305978988728],[-46.76421753037719,-23.50617565770546],[-46.76421753037719,-23.506045336422186],[-46.76417141047333,-23.50598017578055],[-46.76417141047333,-23.505915015138914],[-46.764125290569474,-23.505849854497278],[-46.764125290569474,-23.50578469385564],[-46.76407917066562,-23.505719533214005],[-46.76407917066562,-23.50565437257237],[-46.76403305076175,-23.50565437257237],[-46.76394081095404,-23.5055240512891],[-46.76389469105018,-23.505458890647464],[-46.76380245124247,-23.505393730005828],[-46.76375633133861,-23.505263408722556],[-46.763710211434756,-23.505263408722556],[-46.76366409153089,-23.50519824808092],[-46.763617971627035,-23.505133087439283],[-46.76357185172318,-23.505067926797647],[-46.76352573181932,-23.50500276615601],[-46.76343349201161,-23.504872444872742],[-46.763341252203894,-23.50474212358947],[-46.76329513230003,-23.504676962947833],[-46.76324901239617,-23.504676962947833],[-46.76324901239617,-23.504611802306197],[-46.76315677258846,-23.504481481022925],[-46.76301841287689,-23.504285999098016],[-46.76297229297303,-23.504220838456384],[-46.76292617306917,-23.504155677814747],[-46.76288005316531,-23.504025356531475],[-46.76274169345374,-23.503895035248203],[-46.762695573549884,-23.50376471396493],[-46.76260333374217,-23.503699553323294],[-46.76251109393445,-23.50350407139839],[-46.76246497403059,-23.503438910756753],[-46.762418854126736,-23.503373750115117],[-46.76237273422288,-23.503243428831844],[-46.76232661431902,-23.503178268190208],[-46.762280494415165,-23.503047946906936],[-46.76223437451131,-23.5029827862653],[-46.762188254607445,-23.502917625623663],[-46.76214213470359,-23.502787304340394],[-46.76209601479973,-23.502722143698758],[-46.76209601479973,-23.502656983057122],[-46.762049894895874,-23.502591822415486],[-46.762049894895874,-23.50252666177385],[-46.76200377499202,-23.502461501132213],[-46.76195765508816,-23.502396340490577],[-46.76195765508816,-23.50233117984894],[-46.7619115351843,-23.502266019207305],[-46.76186541528045,-23.502200858565672],[-46.76186541528045,-23.502135697924036],[-46.76186541528045,-23.5020705372824],[-46.76181929537658,-23.502005376640764],[-46.76181929537658,-23.501940215999127],[-46.761773175472726,-23.50187505535749],[-46.761773175472726,-23.501809894715855],[-46.76172705556887,-23.501809894715855],[-46.76172705556887,-23.50174473407422],[-46.76168093566501,-23.50174473407422],[-46.761634815761155,-23.501679573432583],[-46.7615886958573,-23.501614412790946],[-46.76154257595344,-23.501614412790946],[-46.761496456049585,-23.50154925214931],[-46.761404216241864,-23.50154925214931],[-46.76121973662644,-23.50141893086604],[-46.760989137107146,-23.501353770224405],[-46.76094301720329,-23.501353770224405],[-46.760850777395575,-23.50128860958277],[-46.76075853758786,-23.50128860958277],[-46.760712417684,-23.501223448941133],[-46.76066629778014,-23.501223448941133],[-46.760620177876284,-23.501158288299496],[-46.76057405797243,-23.501158288299496],[-46.76048181816471,-23.50109312765786],[-46.760435698260856,-23.500962806374588],[-46.760435698260856,-23.50089764573295],[-46.760389578357,-23.50089764573295],[-46.760389578357,-23.500767324449683],[-46.760343458453136,-23.500702163808047],[-46.76029733854928,-23.50063700316641],[-46.76029733854928,-23.500571842524774],[-46.76029733854928,-23.500506681883138],[-46.76025121864542,-23.500506681883138],[-46.76025121864542,-23.500441521241502],[-46.760205098741565,-23.500376360599866],[-46.760205098741565,-23.50031119995823],[-46.76015897883771,-23.500246039316593],[-46.76015897883771,-23.50018087867496],[-46.76015897883771,-23.500115718033324],[-46.76011285893385,-23.500115718033324],[-46.760066739029995,-23.50005055739169],[-46.76002061912614,-23.50005055739169],[-46.759974499222274,-23.499985396750052],[-46.75988225941456,-23.499985396750052],[-46.7598361395107,-23.499985396750052],[-46.7598361395107,-23.499920236108416],[-46.75979001960685,-23.499920236108416],[-46.75969777979913,-23.499920236108416],[-46.75960553999141,-23.49985507546678],[-46.75946718027984,-23.49985507546678],[-46.759421060375985,-23.49985507546678],[-46.75937494047213,-23.49985507546678],[-46.75932882056827,-23.49985507546678],[-46.75923658076055,-23.49985507546678],[-46.75919046085669,-23.49985507546678],[-46.75909822104898,-23.49985507546678],[-46.75895986133741,-23.49985507546678],[-46.758913741433545,-23.49985507546678],[-46.75882150162583,-23.49985507546678],[-46.75868314191426,-23.49985507546678],[-46.75859090210655,-23.499920236108416],[-46.75845254239497,-23.499920236108416],[-46.758360302587256,-23.499985396750052],[-46.7583141826834,-23.499985396750052],[-46.758221942875686,-23.499920236108416],[-46.758129703067965,-23.499920236108416],[-46.75808358316411,-23.499920236108416],[-46.757991343356395,-23.499920236108416],[-46.75794522345254,-23.49985507546678],[-46.757852983644824,-23.49985507546678],[-46.75780686374096,-23.49985507546678],[-46.7577607438371,-23.49985507546678],[-46.75766850402939,-23.49985507546678],[-46.75762238412553,-23.499789914825143],[-46.757576264221676,-23.499724754183507],[-46.75748402441396,-23.499594432900235],[-46.7574379045101,-23.4995292722586],[-46.7574379045101,-23.499464111616966],[-46.75748402441396,-23.49939895097533],[-46.75748402441396,-23.499333790333694],[-46.75753014431782,-23.49920346905042],[-46.757576264221676,-23.499138308408785],[-46.757576264221676,-23.49907314776715],[-46.757576264221676,-23.499007987125513],[-46.757576264221676,-23.498942826483876],[-46.757576264221676,-23.49887766584224],[-46.757576264221676,-23.49874734455897],[-46.757576264221676,-23.498682183917335],[-46.757576264221676,-23.4986170232757],[-46.757576264221676,-23.498551862634063],[-46.757576264221676,-23.498486701992427],[-46.757576264221676,-23.49842154135079],[-46.75762238412553,-23.498291220067518],[-46.75762238412553,-23.49816089878425],[-46.757576264221676,-23.498095738142613],[-46.75753014431782,-23.498030577500977],[-46.75748402441396,-23.497900256217704],[-46.757345664702385,-23.497769934934432],[-46.75729954479853,-23.497704774292796],[-46.75725342489467,-23.49763961365116],[-46.75725342489467,-23.497574453009523],[-46.7571150651831,-23.497444131726255],[-46.75706894527924,-23.49737897108462],[-46.75697670547152,-23.497313810442982],[-46.75688446566381,-23.49718348915971],[-46.75683834575995,-23.49718348915971],[-46.75674610595224,-23.497118328518074],[-46.75665386614452,-23.497053167876437],[-46.75665386614452,-23.4969880072348],[-46.75660774624066,-23.496922846593165],[-46.756561626336804,-23.49685768595153],[-46.75651550643295,-23.49685768595153],[-46.75646938652909,-23.496792525309896],[-46.756423266625234,-23.49672736466826],[-46.75637714672138,-23.49672736466826],[-46.75633102681751,-23.496662204026624],[-46.756284906913656,-23.496662204026624],[-46.75619266710594,-23.496662204026624],[-46.756146547202086,-23.496662204026624],[-46.75605430739437,-23.496662204026624],[-46.756008187490515,-23.496662204026624],[-46.75586982777894,-23.496597043384988],[-46.755777587971224,-23.496597043384988],[-46.75573146806737,-23.496597043384988],[-46.75568534816351,-23.49653188274335],[-46.75568534816351,-23.496466722101715],[-46.75563922825965,-23.49640156146008],[-46.75563922825965,-23.496336400818443],[-46.75568534816351,-23.496271240176807],[-46.75568534816351,-23.49620607953517],[-46.75573146806737,-23.4960757582519],[-46.755777587971224,-23.496010597610265],[-46.75582370787508,-23.496010597610265],[-46.75582370787508,-23.49594543696863],[-46.75586982777894,-23.49594543696863],[-46.755915947682794,-23.495880276326993],[-46.755915947682794,-23.495815115685357],[-46.75586982777894,-23.49574995504372],[-46.75586982777894,-23.495684794402084],[-46.755915947682794,-23.495684794402084],[-46.755915947682794,-23.495619633760448],[-46.75596206758665,-23.495554473118812],[-46.75596206758665,-23.495489312477176],[-46.75605430739437,-23.495424151835543],[-46.75610042729823,-23.495358991193907],[-46.75610042729823,-23.49529383055227],[-46.756146547202086,-23.495228669910635],[-46.756146547202086,-23.495163509269],[-46.75610042729823,-23.495163509269],[-46.75605430739437,-23.495163509269],[-46.75605430739437,-23.495098348627362],[-46.756008187490515,-23.495098348627362],[-46.756008187490515,-23.495033187985726],[-46.755915947682794,-23.49496802734409],[-46.75586982777894,-23.49496802734409],[-46.75586982777894,-23.495033187985726],[-46.755777587971224,-23.495033187985726],[-46.75554698845193,-23.49529383055227],[-46.755500868548076,-23.495358991193907],[-46.75540862874036,-23.495489312477176],[-46.75531638893265,-23.495554473118812],[-46.75527026902879,-23.495619633760448],[-46.75517802922107,-23.49574995504372],[-46.755131909317214,-23.495880276326993],[-46.75499354960564,-23.496140918893538],[-46.75490130979793,-23.496336400818443],[-46.754855189894066,-23.496466722101715],[-46.75480906999021,-23.496662204026624],[-46.75480906999021,-23.496792525309896],[-46.75476295008635,-23.496922846593165],[-46.75476295008635,-23.497053167876437],[-46.75476295008635,-23.49718348915971],[-46.754716830182495,-23.497313810442982],[-46.754716830182495,-23.497509292367887],[-46.754716830182495,-23.49763961365116],[-46.754716830182495,-23.497704774292796],[-46.75467071027864,-23.497704774292796],[-46.75467071027864,-23.497769934934432],[-46.75467071027864,-23.497835095576068],[-46.75467071027864,-23.498030577500977],[-46.75467071027864,-23.498226059425882],[-46.75467071027864,-23.498356380709154],[-46.75467071027864,-23.498486701992427],[-46.75467071027864,-23.4986170232757],[-46.75467071027864,-23.498812505200608],[-46.75467071027864,-23.498942826483876],[-46.75467071027864,-23.499007987125513],[-46.75467071027864,-23.499138308408785],[-46.75467071027864,-23.499333790333694],[-46.75462459037478,-23.499464111616966],[-46.75462459037478,-23.4995292722586],[-46.75462459037478,-23.49965959354187],[-46.75462459037478,-23.499789914825143],[-46.75462459037478,-23.499985396750052],[-46.754578470470925,-23.50018087867496],[-46.75462459037478,-23.500441521241502],[-46.75462459037478,-23.500506681883138],[-46.75462459037478,-23.50063700316641],[-46.75462459037478,-23.500702163808047],[-46.75462459037478,-23.500767324449683],[-46.75462459037478,-23.50083248509132],[-46.75462459037478,-23.50089764573295],[-46.75462459037478,-23.501027967016224],[-46.75462459037478,-23.501158288299496],[-46.75462459037478,-23.50128860958277],[-46.754578470470925,-23.50141893086604],[-46.754578470470925,-23.501484091507677],[-46.754578470470925,-23.50154925214931],[-46.75453235056707,-23.50174473407422],[-46.754486230663204,-23.50187505535749],[-46.75444011075935,-23.502005376640764],[-46.75439399085549,-23.502200858565672],[-46.754347870951634,-23.50233117984894],[-46.75430175104778,-23.502461501132213],[-46.75425563114392,-23.502591822415486],[-46.75420951124006,-23.502656983057122],[-46.754163391336206,-23.502787304340394],[-46.754071151528485,-23.5029827862653],[-46.75397891172077,-23.50311310754857],[-46.753932791816915,-23.503178268190208],[-46.75388667191306,-23.503243428831844],[-46.75374831220148,-23.50350407139839],[-46.75365607239377,-23.50356923204002],[-46.75356383258605,-23.503699553323294],[-46.753425472874476,-23.503829874606566],[-46.753287113162905,-23.50409051717311],[-46.753148753451335,-23.504220838456384],[-46.753056513643614,-23.504351159739652],[-46.7529642738359,-23.50441632038129],[-46.75282591412433,-23.504676962947833],[-46.75277979422047,-23.504676962947833],[-46.752733674316616,-23.50474212358947],[-46.752641434508895,-23.504807284231106],[-46.752503074797325,-23.504937605514375],[-46.75241083498961,-23.505067926797647],[-46.75222635537418,-23.505263408722556],[-46.75213411556646,-23.505393730005828],[-46.75199575585489,-23.505589211930733],[-46.75194963595103,-23.50565437257237],[-46.75190351604717,-23.50565437257237],[-46.751857396143315,-23.505719533214005],[-46.751857396143315,-23.50578469385564],[-46.75181127623946,-23.50578469385564],[-46.75181127623946,-23.505849854497278],[-46.7517651563356,-23.505915015138914],[-46.751719036431744,-23.50598017578055],[-46.75167291652789,-23.50598017578055],[-46.75167291652789,-23.506045336422186],[-46.75162679662403,-23.506045336422186],[-46.75158067672017,-23.506110497063823],[-46.75153455681631,-23.506110497063823],[-46.75148843691245,-23.50617565770546],[-46.751442317008596,-23.506240818347095],[-46.75139619710474,-23.506240818347095],[-46.75139619710474,-23.506305978988728],[-46.751303957297026,-23.506305978988728],[-46.75125783739317,-23.506371139630364],[-46.751211717489305,-23.506436300272],[-46.75116559758545,-23.506436300272],[-46.75111947768159,-23.506501460913636],[-46.751073357777734,-23.506501460913636],[-46.75098111797002,-23.506566621555272],[-46.750934998066164,-23.50663178219691],[-46.75088887816231,-23.50663178219691],[-46.750796638354586,-23.506696942838545],[-46.75075051845073,-23.506696942838545],[-46.75070439854687,-23.50676210348018],[-46.750658278643016,-23.50676210348018],[-46.75061215873916,-23.506827264121817],[-46.7505660388353,-23.506827264121817],[-46.75047379902758,-23.506827264121817],[-46.750427679123725,-23.506892424763453],[-46.75033543931601,-23.506892424763453],[-46.750289319412154,-23.506957585405086],[-46.75019707960444,-23.506957585405086],[-46.75015095970058,-23.507022746046722],[-46.75005871989286,-23.507022746046722],[-46.74996648008515,-23.50708790668836],[-46.749874240277435,-23.50708790668836],[-46.74982812037358,-23.50708790668836],[-46.74973588056586,-23.507153067329995],[-46.749643640758144,-23.507153067329995],[-46.74955140095043,-23.507153067329995],[-46.74941304123886,-23.50721822797163],[-46.74932080143114,-23.50721822797163],[-46.74918244171957,-23.50721822797163],[-46.749090201911855,-23.507283388613267],[-46.749044082008,-23.507283388613267],[-46.748997962104134,-23.507283388613267],[-46.748859602392564,-23.507283388613267],[-46.74881348248871,-23.507283388613267],[-46.748675122777136,-23.507283388613267],[-46.748444523257845,-23.507348549254903],[-46.748213923738554,-23.507348549254903],[-46.74812168393084,-23.507348549254903],[-46.74798332421927,-23.507348549254903],[-46.74789108441155,-23.507348549254903],[-46.74784496450769,-23.507348549254903],[-46.747798844603835,-23.507348549254903],[-46.74775272469998,-23.507348549254903],[-46.74775272469998,-23.50741370989654],[-46.74770660479612,-23.50741370989654],[-46.747568245084544,-23.50741370989654],[-46.74742988537297,-23.50741370989654],[-46.747245405757546,-23.50741370989654],[-46.74710704604597,-23.50741370989654],[-46.74706092614211,-23.50741370989654],[-46.74692256643054,-23.507478870538176],[-46.746876446526684,-23.507478870538176],[-46.74683032662282,-23.507478870538176],[-46.746784206718964,-23.507478870538176],[-46.74673808681511,-23.507478870538176],[-46.74669196691125,-23.507478870538176],[-46.746599727103536,-23.507478870538176],[-46.74655360719968,-23.507478870538176],[-46.746369127584245,-23.507478870538176],[-46.74632300768039,-23.507478870538176],[-46.746230767872675,-23.507478870538176],[-46.74604628825724,-23.507544031179812],[-46.74600016835338,-23.507544031179812],[-46.74590792854567,-23.507544031179812],[-46.7457695688341,-23.507544031179812],[-46.745723448930235,-23.507544031179812],[-46.74567732902638,-23.507544031179812],[-46.745585089218665,-23.507544031179812],[-46.74549284941095,-23.507544031179812],[-46.74540060960324,-23.507544031179812],[-46.7452161299878,-23.507609191821444],[-46.74507777027623,-23.507609191821444],[-46.744939410564655,-23.507609191821444],[-46.7448932906608,-23.507609191821444],[-46.744801050853084,-23.507609191821444],[-46.744662691141514,-23.507609191821444],[-46.744524331429936,-23.50767435246308],[-46.74443209162222,-23.50767435246308],[-46.74433985181451,-23.50767435246308],[-46.74429373191065,-23.50767435246308],[-46.74420149210293,-23.50767435246308],[-46.74410925229522,-23.50767435246308],[-46.74406313239136,-23.50767435246308],[-46.74397089258365,-23.50767435246308],[-46.743878652775926,-23.50767435246308],[-46.74383253287207,-23.50767435246308],[-46.7436941731605,-23.50767435246308],[-46.74355581344893,-23.507739513104717],[-46.74341745373735,-23.507739513104717],[-46.74327909402578,-23.507739513104717],[-46.743094614410346,-23.507739513104717],[-46.742956254698775,-23.507804673746353],[-46.74286401489106,-23.507804673746353],[-46.74277177508334,-23.507804673746353],[-46.74267953527563,-23.507804673746353],[-46.742587295467914,-23.507804673746353],[-46.74240281585248,-23.507804673746353],[-46.74221833623705,-23.507804673746353],[-46.74212609642934,-23.50786983438799],[-46.741941616813904,-23.50786983438799],[-46.74189549691005,-23.50786983438799],[-46.74171101729461,-23.50786983438799],[-46.74148041777533,-23.50786983438799],[-46.74134205806375,-23.507934995029625],[-46.74120369835218,-23.507934995029625],[-46.74115757844832,-23.507934995029625],[-46.74101921873675,-23.507934995029625],[-46.74097309883289,-23.507934995029625],[-46.74092697892903,-23.507934995029625],[-46.740880859025175,-23.507934995029625],[-46.740742499313605,-23.507934995029625],[-46.74065025950589,-23.507934995029625],[-46.74055801969817,-23.50800015567126],[-46.74046577989046,-23.507934995029625],[-46.74037354008274,-23.507934995029625],[-46.74028130027503,-23.507934995029625],[-46.740235180371165,-23.50800015567126],[-46.74018906046731,-23.50800015567126],[-46.74014294056345,-23.50800015567126],[-46.74005070075574,-23.50800015567126],[-46.739958460948024,-23.50800015567126],[-46.73982010123645,-23.50800015567126],[-46.73972786142873,-23.508065316312898],[-46.739681741524876,-23.508065316312898],[-46.73949726190944,-23.508065316312898],[-46.73935890219787,-23.508065316312898],[-46.7392205424863,-23.508065316312898],[-46.739036062870866,-23.508130476954534],[-46.73894382306315,-23.508130476954534],[-46.738897703159296,-23.508130476954534],[-46.73871322354386,-23.508130476954534],[-46.73862098373615,-23.508130476954534],[-46.73848262402458,-23.508130476954534],[-46.738390384216856,-23.508130476954534],[-46.73829814440914,-23.508130476954534],[-46.738113664793715,-23.50819563759617],[-46.73806754488985,-23.50819563759617],[-46.737883065274424,-23.50819563759617],[-46.73769858565899,-23.50819563759617],[-46.737606345851276,-23.50819563759617],[-46.73751410604356,-23.50819563759617],[-46.73728350652427,-23.508260798237806],[-46.73719126671656,-23.508260798237806],[-46.7371451468127,-23.508260798237806],[-46.73705290700499,-23.508260798237806],[-46.736960667197266,-23.508260798237806],[-46.736591707966404,-23.50832595887944],[-46.73649946815869,-23.50832595887944],[-46.73636110844712,-23.50832595887944],[-46.736176628831686,-23.50832595887944],[-46.73613050892783,-23.50832595887944],[-46.735899909408545,-23.50832595887944],[-46.73585378950468,-23.508391119521075],[-46.73566930988925,-23.508391119521075],[-46.73543871036996,-23.508391119521075],[-46.73516199094682,-23.50845628016271],[-46.73511587104296,-23.50845628016271],[-46.7350697511391,-23.50845628016271],[-46.73497751133139,-23.50845628016271],[-46.73488527152367,-23.50845628016271],[-46.734746911812096,-23.50845628016271],[-46.73465467200438,-23.50845628016271],[-46.73451631229281,-23.50845628016271],[-46.7344240724851,-23.50845628016271],[-46.73433183267738,-23.50845628016271],[-46.734193472965806,-23.50845628016271],[-46.73400899335037,-23.508521440804348],[-46.73377839383109,-23.508521440804348],[-46.7335477943118,-23.508521440804348],[-46.73336331469637,-23.508586601445984],[-46.73308659527322,-23.508586601445984],[-46.73285599575393,-23.50865176208762],[-46.7326715161385,-23.50865176208762],[-46.732533156426925,-23.508716922729256],[-46.73248703652307,-23.508716922729256],[-46.7323486768115,-23.508716922729256],[-46.73207195738835,-23.508782083370892],[-46.73202583748449,-23.508782083370892],[-46.73188747777292,-23.50884724401253],[-46.73184135786906,-23.50884724401253],[-46.731749118061344,-23.508912404654165],[-46.73156463844592,-23.508912404654165],[-46.73151851854206,-23.508977565295798],[-46.73142627873434,-23.508977565295798],[-46.73124179911891,-23.509042725937434],[-46.7311495593112,-23.50910788657907],[-46.73101119959962,-23.50910788657907],[-46.730826719984194,-23.509173047220706],[-46.730688360272616,-23.509238207862342],[-46.730550000561045,-23.50930336850398],[-46.730411640849475,-23.509368529145615],[-46.730319401041754,-23.50943368978725],[-46.73013492142633,-23.509498850428887],[-46.72999656171475,-23.509564011070523],[-46.72995044181089,-23.509564011070523],[-46.72981208209932,-23.509694332353792],[-46.729765962195465,-23.509694332353792],[-46.72971984229161,-23.509694332353792],[-46.72962760248389,-23.50975949299543],[-46.729535362676174,-23.509824653637065],[-46.72948924277232,-23.509824653637065],[-46.72944312286846,-23.5098898142787],[-46.72930476315689,-23.509954974920337],[-46.72921252334917,-23.510020135561973],[-46.7290741636376,-23.51008529620361],[-46.728981923829885,-23.510150456845246],[-46.72884356411831,-23.510280778128518],[-46.72879744421445,-23.510280778128518],[-46.72875132431059,-23.51034593877015],[-46.72870520440674,-23.510411099411787],[-46.72861296459902,-23.510476260053423],[-46.7285207247913,-23.51054142069506],[-46.72842848498359,-23.510606581336695],[-46.72838236507973,-23.51067174197833],[-46.72829012527202,-23.510736902619968],[-46.72829012527202,-23.510802063261604],[-46.72824400536816,-23.510802063261604],[-46.72824400536816,-23.51086722390324],[-46.72815176556044,-23.510932384544876],[-46.72810564565658,-23.51099754518651],[-46.72801340584887,-23.511062705828145],[-46.727921166041156,-23.511193027111418],[-46.7278750461373,-23.511258187753054],[-46.727828926233435,-23.51132334839469],[-46.72778280632958,-23.511388509036326],[-46.72773668642572,-23.511453669677962],[-46.727690566521865,-23.511453669677962],[-46.727690566521865,-23.5115188303196],[-46.727552206810294,-23.511649151602867],[-46.72750608690644,-23.51177947288614],[-46.727459967002574,-23.511844633527776],[-46.72736772719486,-23.512040115452685],[-46.727044887867855,-23.512952364435588],[-46.726998767964,-23.51301752507722],[-46.72695264806014,-23.51321300700213],[-46.72695264806014,-23.513278167643765],[-46.726906528156285,-23.513278167643765],[-46.726906528156285,-23.5133433282854],[-46.726906528156285,-23.513408488927038],[-46.726906528156285,-23.513473649568674],[-46.72686040825243,-23.513473649568674],[-46.72686040825243,-23.51353881021031],[-46.72681428834857,-23.51366913149358],[-46.72681428834857,-23.513734292135215],[-46.726768168444714,-23.51379945277685],[-46.726768168444714,-23.513864613418487],[-46.726768168444714,-23.513929774060124],[-46.72672204854085,-23.513929774060124],[-46.72672204854085,-23.51399493470176],[-46.72667592863699,-23.514125255985032],[-46.72667592863699,-23.51419041662667],[-46.726629808733136,-23.514255577268305],[-46.726629808733136,-23.51432073790994],[-46.726629808733136,-23.514385898551573],[-46.72658368882928,-23.514385898551573],[-46.72658368882928,-23.51445105919321],[-46.72658368882928,-23.514516219834846],[-46.72653756892542,-23.514711701759754],[-46.726491449021566,-23.514711701759754],[-46.726122489790704,-23.514516219834846],[-46.72529233152127,-23.514060095343396],[-46.72473889267497,-23.513734292135215],[-46.72455441305954,-23.513603970851946],[-46.724277693636395,-23.513473649568674],[-46.7237242547901,-23.513147846360493],[-46.723263055751524,-23.51275688251068],[-46.72280185671295,-23.51230075801923],[-46.72275573680909,-23.512235597377593],[-46.722709616905234,-23.512170436735957],[-46.72224841786665,-23.511583990961235],[-46.72192557853965,-23.510932384544876],[-46.72123377998178,-23.510020135561973],[-46.72095706055864,-23.50975949299543],[-46.72058810132778,-23.50943368978725],[-46.72054198142392,-23.509368529145615],[-46.720219142096916,-23.50910788657907],[-46.72017302219306,-23.50910788657907],[-46.72017302219306,-23.509042725937434],[-46.720126902289195,-23.509042725937434],[-46.71994242267377,-23.508912404654165],[-46.719850182866054,-23.508782083370892],[-46.719342863923615,-23.508521440804348],[-46.71902002459661,-23.508391119521075],[-46.71851270565418,-23.508260798237806],[-46.71809762651946,-23.50819563759617],[-46.71759030757703,-23.508130476954534],[-46.71703686873073,-23.508130476954534],[-46.71639119007672,-23.50819563759617],[-46.71583775123043,-23.50819563759617],[-46.71468475363399,-23.50832595887944],[-46.7144541541147,-23.50832595887944],[-46.71440803421084,-23.50832595887944],[-46.714361914306984,-23.50832595887944],[-46.71431579440313,-23.50832595887944],[-46.71426967449926,-23.50832595887944],[-46.71422355459541,-23.50832595887944],[-46.71413131478769,-23.50832595887944],[-46.713946835172266,-23.50832595887944],[-46.713716235652974,-23.50832595887944],[-46.713301156518256,-23.508391119521075],[-46.71274771767196,-23.508391119521075],[-46.712286518633384,-23.50845628016271],[-46.712009799210236,-23.508521440804348],[-46.711087401133085,-23.508521440804348],[-46.710303362767505,-23.508586601445984],[-46.70974992392121,-23.50865176208762],[-46.70891976565177,-23.508716922729256],[-46.70841244670933,-23.508782083370892],[-46.70776676805533,-23.50884724401253],[-46.707167209305176,-23.50884724401253],[-46.70642929084345,-23.50884724401253],[-46.70592197190102,-23.508782083370892],[-46.705875851997156,-23.508782083370892],[-46.7058297320933,-23.508782083370892],[-46.70578361218944,-23.508782083370892],[-46.705737492285586,-23.508782083370892],[-46.705599132574015,-23.508716922729256],[-46.70421553545828,-23.50865176208762],[-46.70370821651585,-23.508586601445984],[-46.70218625968854,-23.50845628016271],[-46.70112550189981,-23.50832595887944],[-46.69849666737992,-23.508130476954534],[-46.69798934843749,-23.508065316312898],[-46.69771262901434,-23.508065316312898],[-46.696744111033325,-23.508065316312898],[-46.696052312475466,-23.508130476954534],[-46.695406633821456,-23.50819563759617],[-46.69466871535973,-23.50819563759617],[-46.69388467699415,-23.50832595887944],[-46.69379243718643,-23.50832595887944],[-46.693285118244,-23.50845628016271],[-46.691255842474256,-23.50884724401253],[-46.69116360266654,-23.508912404654165],[-46.69084076333954,-23.508977565295798],[-46.69010284487781,-23.509042725937434],[-46.68987224535853,-23.50910788657907],[-46.68978000555081,-23.50910788657907],[-46.689687765743095,-23.50910788657907],[-46.68807356910808,-23.509368529145615],[-46.68724341083864,-23.509498850428887],[-46.686413252569196,-23.509694332353792],[-46.6855369743959,-23.509824653637065],[-46.68479905593418,-23.510020135561973],[-46.68396889766474,-23.51021561748688],[-46.683553818530015,-23.510411099411787],[-46.68318485929915,-23.510606581336695],[-46.682862019972156,-23.510736902619968],[-46.68253918064515,-23.510932384544876],[-46.68180126218343,-23.5115188303196],[-46.68046378497155,-23.512626561227407],[-46.67963362670211,-23.51321300700213],[-46.67926466747125,-23.5133433282854],[-46.679218547567395,-23.5133433282854],[-46.679126307759674,-23.513408488927038],[-46.67903406795196,-23.513408488927038],[-46.6789879480481,-23.513473649568674],[-46.67880346843267,-23.51353881021031],[-46.67825002958638,-23.513734292135215],[-46.67765047083623,-23.513864613418487],[-46.67732763150922,-23.513929774060124],[-46.67446819747005,-23.51432073790994],[-46.67248504160416,-23.514581380476482],[-46.671239804200006,-23.514711701759754],[-46.66727349246824,-23.51523298689284],[-46.66699677304509,-23.51523298689284],[-46.666950653141235,-23.51523298689284],[-46.66690453323738,-23.51523298689284],[-46.66685841333352,-23.515298147534477],[-46.666812293429665,-23.515298147534477],[-46.66584377544865,-23.515363308176113],[-46.66413733900591,-23.51555879010102],[-46.663030461313326,-23.515754272025926],[-46.66206194333232,-23.5158845933092],[-46.66118566515902,-23.51601491459247],[-46.65961758842786,-23.516145235875744],[-46.6583723510237,-23.516340717800652],[-46.657173233523395,-23.51647103908392],[-46.65685039419639,-23.516536199725557],[-46.6562969553501,-23.516601360367194],[-46.6550978378498,-23.516731681650466],[-46.654406039291935,-23.516796842292102],[-46.6542215596765,-23.516796842292102],[-46.65412931986879,-23.516796842292102],[-46.65403708006107,-23.51686200293374],[-46.65412931986879,-23.517318127425188],[-46.65412931986879,-23.517513609350097],[-46.654175439772644,-23.51764393063337],[-46.654175439772644,-23.517709091275],[-46.654175439772644,-23.517774251916638],[-46.654175439772644,-23.517839412558274],[-46.65412931986879,-23.51790457319991],[-46.654313799484214,-23.51790457319991],[-46.65449827909965,-23.51790457319991],[-46.654544399003505,-23.51790457319991],[-46.654682758715076,-23.517969733841547],[-46.65482111842665,-23.518034894483183],[-46.65505171794594,-23.51810005512482],[-46.65551291698452,-23.51836069769136],[-46.65615859563853,-23.51868650089954],[-46.65615859563853,-23.518751661541177],[-46.65698875390797,-23.519533589240808],[-46.6574960728504,-23.52012003501553],[-46.657680552465834,-23.52031551694044],[-46.657818912177405,-23.520445838223708],[-46.65800339179284,-23.52057615950698],[-46.65823399131212,-23.520836802073525],[-46.65897190977385,-23.52155356913152],[-46.65952534862014,-23.52233549683115],[-46.659571468524,-23.522400657472783],[-46.65961758842786,-23.522400657472783],[-46.65966370833171,-23.52246581811442],[-46.65966370833171,-23.522530978756055],[-46.65970982823557,-23.522530978756055],[-46.65975594813943,-23.522661300039328],[-46.659802068043284,-23.5227916213226],[-46.659802068043284,-23.522856781964236],[-46.65984818794715,-23.522856781964236],[-46.659894307851005,-23.522921942605873],[-46.65994042775486,-23.523117424530778],[-46.66007878746643,-23.523378067097322],[-46.66021714717801,-23.52389935223041],[-46.660263267081866,-23.52422515543859],[-46.660678346216585,-23.525789010837848],[-46.66072446612044,-23.52591933212112],[-46.66058610640887,-23.52591933212112],[-46.66072446612044,-23.526375456612573],[-46.660908945735876,-23.526375456612573],[-46.66095506563973,-23.526375456612573],[-46.66100118554359,-23.526375456612573],[-46.66104730544745,-23.526440617254206],[-46.661093425351304,-23.526440617254206],[-46.661093425351304,-23.526505777895842],[-46.66113954525516,-23.52657093853748],[-46.661231785062874,-23.527287705595473],[-46.661231785062874,-23.527418026878745],[-46.661324024870595,-23.527874151370195],[-46.66118566515902,-23.52780899072856],[-46.66118566515902,-23.528069633295104],[-46.66118566515902,-23.528460597144917],[-46.66118566515902,-23.528656079069826],[-46.661231785062874,-23.529112203561276],[-46.66118566515902,-23.52924252484455],[-46.661231785062874,-23.529959291902543],[-46.661231785062874,-23.530089613185815],[-46.661231785062874,-23.530285095110724],[-46.661231785062874,-23.53035025575236],[-46.661231785062874,-23.530415416393996],[-46.661231785062874,-23.530545737677265],[-46.66118566515902,-23.530871540885446],[-46.66118566515902,-23.531132183451987],[-46.66118566515902,-23.531392826018532],[-46.66118566515902,-23.53158830794344],[-46.66118566515902,-23.531653468585077],[-46.66118566515902,-23.531914111151618],[-46.661231785062874,-23.531914111151618],[-46.661324024870595,-23.532174753718163],[-46.66141626467831,-23.5322399143598],[-46.66155462438988,-23.532565717567977],[-46.6616468641976,-23.53269603885125],[-46.6616468641976,-23.532761199492885],[-46.6616468641976,-23.532956681417794],[-46.66169298410146,-23.532956681417794],[-46.66173910400531,-23.533087002701066],[-46.66178522390917,-23.533217323984335],[-46.66215418314003,-23.53393409104233],[-46.662246422947746,-23.534129572967238],[-46.66279986179404,-23.535237303875046],[-46.66321494092876,-23.536084392216313],[-46.66339942054419,-23.536410195424494],[-46.663537780255766,-23.536670837991036],[-46.66363002006348,-23.53693148055758],[-46.663676139967336,-23.536996641199217],[-46.66376837977505,-23.537061801840853],[-46.66376837977505,-23.53712696248249],[-46.66376837977505,-23.53719212312412],[-46.66381449967891,-23.53719212312412],[-46.66381449967891,-23.537257283765758],[-46.66386061958277,-23.537322444407394],[-46.66386061958277,-23.53738760504903],[-46.66390673948663,-23.53738760504903],[-46.66390673948663,-23.537452765690666],[-46.66390673948663,-23.537517926332303],[-46.663952859390484,-23.537517926332303],[-46.663952859390484,-23.53758308697394],[-46.663952859390484,-23.537648247615575],[-46.66399897929434,-23.537648247615575],[-46.66399897929434,-23.53771340825721],[-46.6640450991982,-23.537778568898847],[-46.6640450991982,-23.537843729540484],[-46.6640450991982,-23.537908890182116],[-46.664091219102055,-23.537974050823752],[-46.664091219102055,-23.53803921146539],[-46.664091219102055,-23.538104372107025],[-46.664091219102055,-23.53816953274866],[-46.66413733900591,-23.53816953274866],[-46.66413733900591,-23.538234693390297],[-46.66413733900591,-23.538299854031933],[-46.66413733900591,-23.53836501467357],[-46.66413733900591,-23.538430175315206],[-46.66418345890977,-23.538495335956842],[-46.66418345890977,-23.538560496598475],[-46.66418345890977,-23.53862565724011],[-46.66418345890977,-23.538951460448292],[-46.66418345890977,-23.5391469423732],[-46.66418345890977,-23.539212103014833],[-46.66418345890977,-23.53927726365647],[-46.66422957881363,-23.53927726365647],[-46.66422957881363,-23.539342424298106],[-46.66422957881363,-23.53940758493974],[-46.66422957881363,-23.539472745581378],[-46.66422957881363,-23.539537906223014],[-46.66427569871749,-23.539537906223014],[-46.66427569871749,-23.53960306686465],[-46.66427569871749,-23.539668227506287],[-46.664321818621346,-23.539863709431195],[-46.6643679385252,-23.539928870072828],[-46.6643679385252,-23.539994030714464],[-46.66441405842906,-23.5400591913561],[-46.66441405842906,-23.540124351997736],[-46.66455241814063,-23.54038499456428],[-46.664875257467635,-23.541232082905545],[-46.664967497275356,-23.541362404188817],[-46.66505973708307,-23.54162304675536],[-46.665105856986926,-23.541753368038634],[-46.6652442166985,-23.54207917124681],[-46.66533645650622,-23.542339813813356],[-46.66561317592936,-23.54292625958808],[-46.66561317592936,-23.542991420229715],[-46.66570541573708,-23.543121741512987],[-46.66570541573708,-23.543186902154623],[-46.66579765554479,-23.54338238407953],[-46.66584377544865,-23.5435127053628],[-46.66588989535251,-23.543643026646073],[-46.665936015256364,-23.543773347929346],[-46.66598213516022,-23.543838508570982],[-46.666028255064084,-23.543903669212618],[-46.666028255064084,-23.54396882985425],[-46.66607437496794,-23.54396882985425],[-46.66607437496794,-23.544033990495887],[-46.66607437496794,-23.544099151137523],[-46.6661204948718,-23.544099151137523],[-46.6661204948718,-23.54416431177916],[-46.666166614775655,-23.544229472420795],[-46.666166614775655,-23.54429463306243],[-46.66621273467951,-23.544359793704068],[-46.66625885458337,-23.544424954345704],[-46.66625885458337,-23.54449011498734],[-46.666304974487225,-23.544555275628976],[-46.666304974487225,-23.54462043627061],[-46.66635109439108,-23.544685596912245],[-46.666397214294946,-23.54475075755388],[-46.6664433341988,-23.54475075755388],[-46.6664433341988,-23.544815918195518],[-46.66648945410266,-23.544815918195518],[-46.66648945410266,-23.544881078837154],[-46.66653557400652,-23.544881078837154],[-46.66658169391037,-23.54494623947879],[-46.66662781381423,-23.54494623947879],[-46.66667393371809,-23.54494623947879],[-46.66667393371809,-23.545011400120426],[-46.666720053621944,-23.545011400120426],[-46.66676617352581,-23.545011400120426],[-46.666812293429665,-23.545011400120426],[-46.66685841333352,-23.545076560762062],[-46.66690453323738,-23.545076560762062],[-46.66699677304509,-23.545076560762062],[-46.66718125266053,-23.5451417214037],[-46.66727349246824,-23.5451417214037],[-46.6673196123721,-23.5451417214037],[-46.667365732275954,-23.5451417214037],[-46.66741185217981,-23.5451417214037],[-46.66745797208367,-23.5451417214037],[-46.66755021189139,-23.545206882045335],[-46.667596331795245,-23.545206882045335],[-46.667734691506816,-23.545272042686967],[-46.66782693131453,-23.545272042686967],[-46.66787305121839,-23.545272042686967],[-46.66796529102611,-23.545337203328604],[-46.668011410929964,-23.545337203328604],[-46.66805753083382,-23.545337203328604],[-46.66810365073768,-23.545337203328604],[-46.66819589054539,-23.54540236397024],[-46.668242010449255,-23.54540236397024],[-46.66828813035311,-23.54540236397024],[-46.66833425025697,-23.54540236397024],[-46.668380370160826,-23.545467524611876],[-46.66842649006468,-23.545467524611876],[-46.66856484977625,-23.545532685253512],[-46.66861096968012,-23.545532685253512],[-46.66870320948783,-23.54559784589515],[-46.66874932939169,-23.54559784589515],[-46.66897992891098,-23.54572816717842],[-46.66907216871869,-23.54572816717842],[-46.66911828862255,-23.545793327820057],[-46.66921052843026,-23.545793327820057],[-46.66925664833412,-23.545793327820057],[-46.66925664833412,-23.545858488461693],[-46.669948446891986,-23.54618429166987],[-46.6700406866997,-23.546249452311507],[-46.670225166315134,-23.54637977359478],[-46.67040964593056,-23.546444934236415],[-46.670594125545996,-23.546575255519688],[-46.67073248525757,-23.54664041616132],[-46.67096308477686,-23.546770737444593],[-46.67119368429615,-23.5469662193695],[-46.67133204400772,-23.547096540652774],[-46.67137816391158,-23.547096540652774],[-46.67142428381543,-23.54716170129441],[-46.671516523623154,-23.547226861936046],[-46.67160876343087,-23.54729202257768],[-46.671654883334725,-23.547357183219315],[-46.67170100323858,-23.547357183219315],[-46.67174712314244,-23.54742234386095],[-46.67183936295015,-23.547487504502588],[-46.671885482854016,-23.547552665144224],[-46.67197772266173,-23.54761782578586],[-46.67202384256559,-23.547682986427496],[-46.67206996246944,-23.547682986427496],[-46.6721160823733,-23.547748147069132],[-46.67216220227716,-23.547748147069132],[-46.67216220227716,-23.54781330771077],[-46.672208322181014,-23.54781330771077],[-46.672300561988735,-23.547878468352405],[-46.67234668189259,-23.547878468352405],[-46.672438921700305,-23.547943628994037],[-46.67248504160416,-23.547943628994037],[-46.67248504160416,-23.548008789635674],[-46.67253116150802,-23.548008789635674],[-46.672577281411876,-23.548008789635674],[-46.67262340131574,-23.548008789635674],[-46.672669521219596,-23.54807395027731],[-46.67271564112345,-23.54807395027731],[-46.67276176102731,-23.54807395027731],[-46.67276176102731,-23.548139110918946],[-46.67280788093117,-23.548139110918946],[-46.672854000835024,-23.548139110918946],[-46.67290012073888,-23.548139110918946],[-46.67294624064274,-23.548139110918946],[-46.6729923605466,-23.548204271560582],[-46.67303848045046,-23.548204271560582],[-46.673222960065885,-23.548204271560582],[-46.67340743968132,-23.54826943220222],[-46.673499679489034,-23.54826943220222],[-46.67359191929675,-23.548334592843855],[-46.67377639891218,-23.548334592843855],[-46.67396087852761,-23.548334592843855],[-46.67405311833532,-23.548334592843855],[-46.67409923823919,-23.548334592843855],[-46.67414535814304,-23.54839975348549],[-46.6741914780469,-23.548530074768763],[-46.67423759795076,-23.548530074768763],[-46.67437595766233,-23.548790717335304],[-46.67446819747005,-23.54905135990185],[-46.67460655718162,-23.54931200246839],[-46.674652677085476,-23.549442323751663],[-46.67474491689319,-23.54963780567657],[-46.674791036797046,-23.549702966318208],[-46.674791036797046,-23.549768126959844],[-46.67483715670091,-23.54983328760148],[-46.67488327660477,-23.54996360888475],[-46.674929396508624,-23.550028769526385],[-46.67497551641248,-23.55009393016802],[-46.67502163631634,-23.550224251451294],[-46.675067756220194,-23.55028941209293],[-46.67511387612405,-23.550419733376202],[-46.67520611593177,-23.55061521530111],[-46.67525223583563,-23.55074553658438],[-46.67534447564334,-23.550810697226016],[-46.67534447564334,-23.55094101850929],[-46.675436715451056,-23.551006179150924],[-46.67548283535491,-23.551201661075833],[-46.67562119506649,-23.551462303642374],[-46.67575955477806,-23.55172294620892],[-46.67580567468192,-23.551918428133828],[-46.675944034393495,-23.552113910058733],[-46.67599015429735,-23.552244231342005],[-46.67617463391278,-23.552113910058733],[-46.67631299362436,-23.552048749417096],[-46.67654359314364,-23.55198358877546],[-46.67663583295136,-23.551918428133828],[-46.67682031256679,-23.551788106850555],[-46.67695867227836,-23.55172294620892],[-46.67709703198994,-23.551657785567283],[-46.67718927179765,-23.551592624925647],[-46.67723539170151,-23.551592624925647],[-46.677281511605365,-23.55152746428401],[-46.67741987131694,-23.551397143000738],[-46.67760435093237,-23.551331982359102],[-46.677696590740084,-23.551201661075833],[-46.677788830547804,-23.551201661075833],[-46.677927190259375,-23.55107133979256],[-46.67820390968252,-23.550875857867652],[-46.67843450920181,-23.55074553658438],[-46.67852674900953,-23.550680375942743],[-46.6786651087211,-23.550550054659475],[-46.678711228624955,-23.550550054659475],[-46.67875734852881,-23.55048489401784],[-46.67884958833653,-23.55048489401784],[-46.67889570824039,-23.550419733376202],[-46.67908018785582,-23.550354572734566],[-46.679218547567395,-23.550354572734566],[-46.679910346125254,-23.550028769526385],[-46.67995646602912,-23.550028769526385],[-46.680002585932975,-23.550028769526385],[-46.68004870583683,-23.550028769526385],[-46.68009482574069,-23.550028769526385],[-46.6801870655484,-23.550028769526385],[-46.68023318545226,-23.550028769526385],[-46.68032542525998,-23.550028769526385],[-46.68037154516384,-23.550028769526385],[-46.680417665067694,-23.550028769526385],[-46.68046378497155,-23.550028769526385],[-46.68050990487541,-23.550028769526385],[-46.680556024779264,-23.550028769526385],[-46.68060214468312,-23.550028769526385],[-46.68064826458698,-23.550028769526385],[-46.68069438449084,-23.550028769526385],[-46.6807405043947,-23.550028769526385],[-46.680786624298555,-23.54996360888475],[-46.68083274420241,-23.54996360888475],[-46.68087886410627,-23.54996360888475],[-46.680924984010126,-23.54996360888475],[-46.680924984010126,-23.549898448243116],[-46.68097110391398,-23.549898448243116],[-46.68129394324099,-23.54983328760148],[-46.681340063144845,-23.54983328760148],[-46.68138618304871,-23.54983328760148],[-46.681432302952565,-23.54983328760148],[-46.68147842285642,-23.54983328760148],[-46.68152454276028,-23.54983328760148],[-46.68161678256799,-23.54983328760148],[-46.681847382087284,-23.549768126959844],[-46.68207798160657,-23.549768126959844],[-46.682216341318146,-23.549768126959844],[-46.682354701029716,-23.549768126959844],[-46.68244694083743,-23.549768126959844],[-46.68272366026058,-23.549768126959844],[-46.68281590006829,-23.549768126959844],[-46.68295425977987,-23.549768126959844],[-46.68304649958758,-23.549768126959844],[-46.68318485929915,-23.549768126959844],[-46.68323097920302,-23.549768126959844],[-46.6834615787223,-23.549768126959844],[-46.683646058337736,-23.549768126959844],[-46.68383053795316,-23.549702966318208],[-46.68392277776088,-23.549702966318208],[-46.6840150175686,-23.549702966318208],[-46.684061137472455,-23.549702966318208],[-46.68415337728017,-23.549702966318208],[-46.684199497184025,-23.549702966318208],[-46.6843378568956,-23.54963780567657],[-46.68447621660717,-23.549572645034935],[-46.684614576318744,-23.549442323751663],[-46.68489129574189,-23.54918168118512],[-46.685075775357326,-23.548986199260213],[-46.6852141350689,-23.54885587797694],[-46.68535249478047,-23.548725556693668],[-46.6855369743959,-23.5485952354104],[-46.68572145401133,-23.548464914127127],[-46.68585981372291,-23.548334592843855],[-46.686044293338334,-23.54826943220222],[-46.68613653314605,-23.548204271560582],[-46.68618265304991,-23.548204271560582],[-46.686274892857625,-23.548139110918946],[-46.686413252569196,-23.54807395027731],[-46.68645937247305,-23.54807395027731],[-46.68687445160778,-23.547878468352405],[-46.687058931223206,-23.54781330771077],[-46.68710505112706,-23.54781330771077],[-46.687197290934776,-23.54781330771077],[-46.687197290934776,-23.547748147069132],[-46.68724341083864,-23.547748147069132],[-46.687335650646354,-23.547748147069132],[-46.68742789045407,-23.547748147069132],[-46.687474010357924,-23.547748147069132],[-46.68765848997336,-23.547748147069132],[-46.687842969588786,-23.547748147069132],[-46.687981329300364,-23.547748147069132],[-46.68802744920422,-23.547748147069132],[-46.68816580891579,-23.547748147069132],[-46.68821192881965,-23.547748147069132],[-46.68830416862736,-23.547748147069132],[-46.68839640843508,-23.547748147069132],[-46.68853476814665,-23.547748147069132],[-46.688627007954366,-23.547748147069132],[-46.688765367665944,-23.547682986427496],[-46.688903727377514,-23.547682986427496],[-46.689134326896806,-23.54761782578586],[-46.689272686608376,-23.54761782578586],[-46.689549406031524,-23.547487504502588],[-46.68959552593538,-23.547487504502588],[-46.689687765743095,-23.547487504502588],[-46.68978000555081,-23.54742234386095],[-46.68987224535853,-23.547357183219315],[-46.689918365262386,-23.547357183219315],[-46.69014896478167,-23.54716170129441],[-46.690333444397105,-23.547031380011138],[-46.69051792401253,-23.546901058727865],[-46.69070240362797,-23.546770737444593],[-46.69084076333954,-23.54664041616132],[-46.690979123051115,-23.546575255519688],[-46.69116360266654,-23.546444934236415],[-46.69130196237812,-23.546314612953143],[-46.69139420218583,-23.546249452311507],[-46.69144032208969,-23.54618429166987],[-46.691532561897404,-23.546119131028235],[-46.69171704151284,-23.545988809744962],[-46.69185540122441,-23.545858488461693],[-46.691901521128266,-23.545858488461693],[-46.69203988083984,-23.54572816717842],[-46.6920860007437,-23.54572816717842],[-46.692178240551414,-23.545663006536785],[-46.692408840070705,-23.545532685253512],[-46.69277779930157,-23.545272042686967],[-46.69291615901314,-23.545206882045335],[-46.692962278916994,-23.545206882045335],[-46.69310063862857,-23.545076560762062],[-46.693192878436285,-23.545011400120426],[-46.693285118244,-23.54494623947879],[-46.69337735805171,-23.544881078837154],[-46.69342347795557,-23.544881078837154],[-46.69356183766715,-23.54475075755388],[-46.693607957571004,-23.544685596912245],[-46.693838557090295,-23.544555275628976],[-46.69406915660958,-23.54429463306243],[-46.69434587603273,-23.544033990495887],[-46.6944842357443,-23.543903669212618],[-46.69457647555202,-23.543773347929346],[-46.69466871535973,-23.543643026646073],[-46.6948070750713,-23.5435127053628],[-46.69485319497516,-23.543447544721165],[-46.69489931487902,-23.543447544721165],[-46.69494543478288,-23.54338238407953],[-46.69499155468674,-23.543317223437892],[-46.695037674590594,-23.543317223437892],[-46.69508379449445,-23.543252062796256],[-46.69512991439831,-23.543252062796256],[-46.69526827410988,-23.543121741512987],[-46.69531439401374,-23.543121741512987],[-46.695683353244604,-23.542861098946442],[-46.695821712956175,-23.542795938304806],[-46.6960061925716,-23.542665617021534],[-46.69623679209089,-23.542535295738265],[-46.69628291199475,-23.542535295738265],[-46.69632903189861,-23.54247013509663],[-46.696375151802464,-23.54247013509663],[-46.69642127170633,-23.542404974454993],[-46.696467391610184,-23.542404974454993],[-46.696467391610184,-23.542339813813356],[-46.69651351151404,-23.542339813813356],[-46.69651351151404,-23.54227465317172],[-46.6965596314179,-23.54227465317172],[-46.6965596314179,-23.542209492530084],[-46.696605751321755,-23.542209492530084],[-46.696605751321755,-23.542144331888448],[-46.69669799112947,-23.542014010605175],[-46.69679023093719,-23.54181852868027],[-46.696836350841046,-23.54181852868027],[-46.69692859064876,-23.54162304675536],[-46.69697471055262,-23.541557886113726],[-46.697020830456474,-23.541427564830453],[-46.69715919016805,-23.541232082905545],[-46.69720531007191,-23.541166922263912],[-46.69734366978348,-23.540971440339003],[-46.69734366978348,-23.540906279697367],[-46.697389789687335,-23.540906279697367],[-46.69743590959119,-23.54084111905573],[-46.697482029495056,-23.54084111905573],[-46.69752814939891,-23.54084111905573],[-46.69757426930277,-23.54084111905573],[-46.69762038920663,-23.54084111905573],[-46.697804868822054,-23.54084111905573],[-46.697897108629775,-23.540906279697367],[-46.69821994795678,-23.540971440339003],[-46.69835830766835,-23.540971440339003],[-46.69840442757221,-23.540971440339003],[-46.698450547476064,-23.540971440339003],[-46.69854278728378,-23.54103660098064],[-46.69858890718764,-23.54103660098064],[-46.698681146995355,-23.54103660098064],[-46.69877338680307,-23.541101761622276],[-46.6989578664185,-23.541166922263912],[-46.69900398632236,-23.541166922263912],[-46.69905010622622,-23.541166922263912],[-46.69918846593779,-23.541166922263912],[-46.6992807057455,-23.541166922263912],[-46.69937294555322,-23.541166922263912],[-46.69941906545708,-23.541166922263912],[-46.699880264495654,-23.541101761622276],[-46.69992638439951,-23.541101761622276],[-46.70020310382266,-23.54103660098064],[-46.70029534363037,-23.54103660098064],[-46.70034146353423,-23.54103660098064],[-46.70043370334195,-23.54103660098064],[-46.70075654266895,-23.540971440339003],[-46.700894902380526,-23.540971440339003],[-46.70098714218824,-23.540971440339003],[-46.701033262092096,-23.540971440339003],[-46.701448341226815,-23.540906279697367],[-46.70163282084225,-23.540906279697367],[-46.70177118055382,-23.54084111905573],[-46.70181730045768,-23.54084111905573],[-46.70186342036153,-23.54084111905573],[-46.70204789997697,-23.54084111905573],[-46.702094019880825,-23.540775958414095],[-46.70214013978468,-23.540775958414095],[-46.70218625968854,-23.540775958414095],[-46.70250909901554,-23.54071079777246],[-46.70264745872712,-23.54071079777246],[-46.70283193834255,-23.540645637130822],[-46.70292417815026,-23.540645637130822],[-46.70306253786184,-23.540580476489186],[-46.70324701747727,-23.540515315847554],[-46.70333925728499,-23.540515315847554],[-46.703385377188845,-23.540515315847554],[-46.703523736900415,-23.540450155205917],[-46.70356985680427,-23.540450155205917],[-46.703662096611986,-23.540450155205917],[-46.70384657622742,-23.54038499456428],[-46.70389269613128,-23.54038499456428],[-46.703938816035134,-23.54038499456428],[-46.70403105584285,-23.54038499456428],[-46.70407717574671,-23.540319833922645],[-46.70412329565057,-23.540319833922645],[-46.70426165536214,-23.540319833922645],[-46.70440001507371,-23.54025467328101],[-46.704630614593,-23.54025467328101],[-46.70467673449686,-23.54025467328101],[-46.704722854400714,-23.54025467328101],[-46.70476897430457,-23.54025467328101],[-46.70476897430457,-23.540189512639373],[-46.704815094208435,-23.540189512639373],[-46.70486121411229,-23.540189512639373],[-46.70490733401615,-23.540189512639373],[-46.704953453920005,-23.540189512639373],[-46.70499957382386,-23.540124351997736],[-46.70504569372772,-23.540124351997736],[-46.705091813631576,-23.540124351997736],[-46.70513793353543,-23.540124351997736],[-46.7051840534393,-23.5400591913561],[-46.70527629324701,-23.5400591913561],[-46.70546077286244,-23.539994030714464],[-46.705506892766294,-23.539928870072828],[-46.70564525247787,-23.539863709431195],[-46.705737492285586,-23.53979854878956],[-46.70578361218944,-23.53979854878956],[-46.705875851997156,-23.539733388147923],[-46.70592197190102,-23.539668227506287],[-46.706014211708734,-23.53960306686465],[-46.70606033161259,-23.539472745581378],[-46.706152571420304,-23.539342424298106],[-46.70619869132416,-23.539342424298106],[-46.70619869132416,-23.53927726365647],[-46.70624481122802,-23.53927726365647],[-46.70624481122802,-23.539212103014833],[-46.70629093113188,-23.539212103014833],[-46.70629093113188,-23.5391469423732],[-46.70633705103574,-23.5391469423732],[-46.706383170939596,-23.5391469423732],[-46.706383170939596,-23.539081781731564],[-46.70642929084345,-23.539081781731564],[-46.70647541074731,-23.539081781731564],[-46.70647541074731,-23.539016621089928],[-46.706521530651166,-23.539016621089928],[-46.70656765055502,-23.539016621089928],[-46.70661377045888,-23.539016621089928],[-46.70661377045888,-23.538951460448292],[-46.706659890362744,-23.538951460448292],[-46.7067060102666,-23.538951460448292],[-46.70675213017046,-23.538951460448292],[-46.706798250074314,-23.538951460448292],[-46.70684436997817,-23.538951460448292],[-46.706936609785885,-23.538951460448292],[-46.70698272968974,-23.538951460448292],[-46.70725944911289,-23.538886299806656],[-46.707582288439895,-23.53882113916502],[-46.70785900786304,-23.53882113916502],[-46.7079051277669,-23.53882113916502],[-46.7079051277669,-23.538755978523383],[-46.707951247670756,-23.538755978523383],[-46.70799736757461,-23.538755978523383],[-46.70804348747847,-23.538755978523383],[-46.708089607382334,-23.538755978523383],[-46.70813572728619,-23.538690817881747],[-46.70818184719005,-23.538690817881747],[-46.708227967093904,-23.538690817881747],[-46.708227967093904,-23.53862565724011],[-46.70827408699776,-23.53862565724011],[-46.70832020690162,-23.53862565724011],[-46.70832020690162,-23.538560496598475],[-46.708366326805475,-23.538560496598475],[-46.70841244670933,-23.538560496598475],[-46.70841244670933,-23.538495335956842],[-46.708458566613196,-23.538495335956842],[-46.70850468651705,-23.538430175315206],[-46.70855080642091,-23.538430175315206],[-46.70868916613248,-23.538299854031933],[-46.70868916613248,-23.538234693390297],[-46.708781405940194,-23.53816953274866],[-46.70882752584406,-23.538104372107025],[-46.70891976565177,-23.53803921146539],[-46.70896588555563,-23.537908890182116],[-46.7091042452672,-23.537778568898847],[-46.709150365171055,-23.53771340825721],[-46.70919648507492,-23.537648247615575],[-46.70928872488263,-23.53758308697394],[-46.70933484478649,-23.537517926332303],[-46.70938096469035,-23.537452765690666],[-46.7094270845942,-23.53738760504903],[-46.70947320449806,-23.53738760504903],[-46.70947320449806,-23.537322444407394],[-46.70951932440192,-23.537322444407394],[-46.70956544430578,-23.537257283765758],[-46.70961156420964,-23.53719212312412],[-46.709657684113495,-23.53712696248249],[-46.709657684113495,-23.537061801840853],[-46.70961156420964,-23.536996641199217],[-46.70961156420964,-23.53693148055758],[-46.70961156420964,-23.536866319915944],[-46.70956544430578,-23.536866319915944],[-46.70956544430578,-23.536801159274308],[-46.70956544430578,-23.536735998632672],[-46.70956544430578,-23.536670837991036],[-46.70956544430578,-23.5366056773494],[-46.70956544430578,-23.536540516707763],[-46.70956544430578,-23.53647535606613],[-46.70961156420964,-23.53647535606613],[-46.70961156420964,-23.536410195424494],[-46.709657684113495,-23.536345034782858],[-46.70970380401735,-23.536279874141222],[-46.70974992392121,-23.536279874141222],[-46.70974992392121,-23.536214713499586],[-46.709796043825065,-23.536214713499586],[-46.70984216372892,-23.53614955285795],[-46.70988828363278,-23.53614955285795],[-46.70993440353664,-23.53614955285795],[-46.70993440353664,-23.536084392216313],[-46.7099805234405,-23.536084392216313],[-46.71002664334436,-23.536084392216313],[-46.710211122959784,-23.536019231574677],[-46.710303362767505,-23.53595407093304],[-46.71034948267136,-23.53595407093304],[-46.710441722479075,-23.53595407093304],[-46.710580082190646,-23.535888910291405],[-46.7106262020945,-23.535888910291405],[-46.710672321998366,-23.535888910291405],[-46.710672321998366,-23.535823749649772],[-46.71071844190222,-23.535823749649772],[-46.71076456180608,-23.535823749649772],[-46.71081068170994,-23.535823749649772],[-46.710856801613794,-23.535823749649772],[-46.71090292151765,-23.535758589008136],[-46.71094904142151,-23.535758589008136],[-46.711087401133085,-23.535758589008136],[-46.71113352103694,-23.535758589008136],[-46.7111796409408,-23.5356934283665],[-46.71141024046009,-23.5356934283665],[-46.711502480267804,-23.535628267724864],[-46.71154860017166,-23.535628267724864],[-46.71159472007552,-23.535628267724864],[-46.71173307978709,-23.535628267724864],[-46.71177919969095,-23.535563107083227],[-46.71182531959481,-23.535563107083227],[-46.711871439498665,-23.535563107083227],[-46.71196367930638,-23.535563107083227],[-46.712009799210236,-23.535563107083227],[-46.71205591911409,-23.535563107083227],[-46.71214815892181,-23.535563107083227],[-46.71219427882567,-23.53549794644159],[-46.712424878344954,-23.53549794644159],[-46.71260935796039,-23.535432785799955],[-46.712655477864246,-23.535432785799955],[-46.7127015977681,-23.535432785799955],[-46.712793837575816,-23.535432785799955],[-46.712932197287394,-23.535432785799955],[-46.71316279680668,-23.535432785799955],[-46.71320891671054,-23.535432785799955],[-46.713301156518256,-23.535432785799955],[-46.71348563613368,-23.535432785799955],[-46.71353175603754,-23.53536762515832],[-46.71376235555683,-23.53536762515832],[-46.713854595364545,-23.53536762515832],[-46.7139007152684,-23.53536762515832],[-46.71413131478769,-23.53536762515832],[-46.71426967449926,-23.53536762515832],[-46.71431579440313,-23.53536762515832],[-46.714361914306984,-23.535432785799955],[-46.7144541541147,-23.535432785799955],[-46.71454639392241,-23.535432785799955],[-46.714638633730125,-23.535432785799955],[-46.715145952672565,-23.53549794644159],[-46.71537655219185,-23.535563107083227],[-46.71546879199957,-23.535563107083227],[-46.715514911903426,-23.535563107083227],[-46.71556103180728,-23.535563107083227],[-46.71588387113429,-23.535628267724864],[-46.715976110942,-23.535628267724864],[-46.716068350749715,-23.535628267724864],[-46.716160590557436,-23.535628267724864],[-46.71620671046129,-23.535628267724864],[-46.71629895026901,-23.5356934283665],[-46.71666790949987,-23.535758589008136],[-46.717498067769306,-23.535888910291405],[-46.71759030757703,-23.535888910291405],[-46.71823598623103,-23.53595407093304],[-46.71865106536575,-23.536019231574677],[-46.71869718526961,-23.536019231574677],[-46.71883554498118,-23.536084392216313],[-46.71888166488504,-23.536084392216313],[-46.718927784788896,-23.536084392216313],[-46.71897390469275,-23.53614955285795],[-46.71902002459661,-23.536214713499586],[-46.71915838430819,-23.536279874141222],[-46.719204504212044,-23.536345034782858],[-46.7192506241159,-23.536345034782858],[-46.71929674401976,-23.53647535606613],[-46.719342863923615,-23.53647535606613],[-46.719435103731335,-23.5366056773494],[-46.71952734353905,-23.536735998632672],[-46.719573463442906,-23.536735998632672],[-46.71966570325062,-23.53693148055758],[-46.72003466248148,-23.537257283765758],[-46.72008078238534,-23.537257283765758],[-46.72017302219306,-23.537322444407394],[-46.72031138190463,-23.53738760504903],[-46.72049586152006,-23.537452765690666],[-46.72068034113549,-23.537452765690666],[-46.720772580943205,-23.537452765690666],[-46.72095706055864,-23.537517926332303],[-46.721003180462496,-23.537517926332303],[-46.72114154017407,-23.537517926332303],[-46.72118766007792,-23.537517926332303],[-46.72151049940493,-23.537452765690666],[-46.722986336328376,-23.537257283765758],[-46.723078576136096,-23.537257283765758],[-46.72312469603995,-23.537257283765758],[-46.72317081594381,-23.537257283765758],[-46.72321693584767,-23.53719212312412],[-46.7237242547901,-23.53712696248249],[-46.72381649459782,-23.53712696248249],[-46.72390873440553,-23.53712696248249],[-46.72418545382868,-23.53712696248249],[-46.72436993344411,-23.53712696248249],[-46.7246005329634,-23.53719212312412],[-46.72473889267497,-23.53719212312412],[-46.72487725238654,-23.53719212312412],[-46.72496949219426,-23.537257283765758],[-46.72510785190583,-23.537257283765758],[-46.7252462116174,-23.537322444407394],[-46.72538457132898,-23.53738760504903],[-46.725615170848265,-23.537452765690666],[-46.7257996504637,-23.53758308697394],[-46.72593801017527,-23.537648247615575],[-46.72603024998299,-23.53771340825721],[-46.72616860969456,-23.537843729540484],[-46.726260849502275,-23.537908890182116],[-46.72644532911771,-23.53803921146539],[-46.726906528156285,-23.538495335956842],[-46.72750608690644,-23.539081781731564],[-46.72764444661801,-23.539212103014833],[-46.727690566521865,-23.53927726365647],[-46.72773668642572,-23.53927726365647],[-46.7278750461373,-23.539472745581378],[-46.72796728594501,-23.539537906223014],[-46.72801340584887,-23.539668227506287],[-46.72805952575273,-23.539733388147923],[-46.7285207247913,-23.540450155205917],[-46.72861296459902,-23.540515315847554],[-46.72861296459902,-23.540580476489186],[-46.72865908450288,-23.540645637130822],[-46.72875132431059,-23.54071079777246],[-46.72884356411831,-23.540775958414095],[-46.72893580392603,-23.54084111905573],[-46.72902804373374,-23.540906279697367],[-46.72916640344531,-23.540971440339003],[-46.72935088306075,-23.541101761622276],[-46.72948924277232,-23.541166922263912],[-46.729535362676174,-23.541166922263912],[-46.72985820200318,-23.54129724354718],[-46.72995044181089,-23.541362404188817],[-46.730411640849475,-23.54181852868027],[-46.73050388065719,-23.54194884996354],[-46.7305961204649,-23.542014010605175],[-46.730688360272616,-23.54207917124681],[-46.73073448017647,-23.542144331888448],[-46.73078060008034,-23.542209492530084],[-46.73091895979191,-23.542339813813356],[-46.730965079695764,-23.542339813813356],[-46.731334038926626,-23.54273077766317],[-46.731472398638196,-23.542861098946442],[-46.73156463844592,-23.54292625958808],[-46.731610758349774,-23.542991420229715],[-46.731749118061344,-23.543121741512987],[-46.73184135786906,-23.543186902154623],[-46.73184135786906,-23.543252062796256],[-46.73216419719606,-23.5435127053628],[-46.732256437003784,-23.543643026646073],[-46.7323486768115,-23.54370818728771],[-46.73244091661921,-23.543773347929346],[-46.732533156426925,-23.543903669212618],[-46.732625396234646,-23.54396882985425],[-46.732763755946216,-23.544099151137523],[-46.73280987585007,-23.54416431177916],[-46.73285599575393,-23.544229472420795],[-46.73294823556164,-23.54429463306243],[-46.73294823556164,-23.544359793704068],[-46.73299435546551,-23.544359793704068],[-46.73313271517708,-23.54449011498734],[-46.73327107488865,-23.544685596912245],[-46.73336331469637,-23.54475075755388],[-46.733409434600226,-23.544815918195518],[-46.733962873446515,-23.545337203328604],[-46.73451631229281,-23.545858488461693],[-46.734608552100525,-23.54592364910333],[-46.73170299815749,-23.548334592843855],[-46.73216419719606,-23.548921038618577],[-46.73244091661921,-23.54931200246839],[-46.732625396234646,-23.549572645034935],[-46.7326715161385,-23.549768126959844],[-46.73271763604236,-23.549898448243116],[-46.732763755946216,-23.550028769526385],[-46.73280987585007,-23.550159090809657],[-46.73280987585007,-23.55028941209293],[-46.73280987585007,-23.55048489401784],[-46.732763755946216,-23.550810697226016],[-46.73271763604236,-23.551331982359102],[-46.73271763604236,-23.551592624925647],[-46.73271763604236,-23.551788106850555],[-46.73271763604236,-23.551918428133828],[-46.732763755946216,-23.552048749417096],[-46.73280987585007,-23.552244231342005],[-46.73294823556164,-23.55250487390855],[-46.73308659527322,-23.552830677116727],[-46.73331719479251,-23.55315648032491],[-46.733409434600226,-23.55328680160818],[-46.73350167440794,-23.55341712289145],[-46.73359391421565,-23.553482283533086],[-46.73373227392723,-23.553547444174722],[-46.7338706336388,-23.553677765457994],[-46.73400899335037,-23.55374292609963],[-46.734193472965806,-23.553873247382903],[-46.73433183267738,-23.55393840802454],[-46.73465467200438,-23.554133889949444],[-46.73553095017768,-23.554590014440898],[-46.73626886863941,-23.55498097829071],[-46.73705290700499,-23.55543710278216],[-46.738113664793715,-23.556023548556883],[-46.73862098373615,-23.556284191123428],[-46.738897703159296,-23.556479673048337],[-46.7392205424863,-23.55667515497324],[-46.739451142005585,-23.556805476256514],[-46.73963562162102,-23.55687063689815],[-46.73977398133259,-23.556935797539786],[-46.74000458085188,-23.557000958181423],[-46.74018906046731,-23.557000958181423],[-46.7404196599866,-23.557000958181423],[-46.74083473912132,-23.557000958181423],[-46.741295938159894,-23.557000958181423],[-46.74148041777533,-23.557000958181423],[-46.7416187774869,-23.557000958181423],[-46.74180325710233,-23.557000958181423],[-46.74189549691005,-23.55706611882306],[-46.74203385662162,-23.557131279464695],[-46.742172216333195,-23.55719644010633],[-46.742310576044765,-23.557261600747967],[-46.74254117556406,-23.557457082672872],[-46.74277177508334,-23.55765256459778],[-46.74304849450649,-23.557913207164326],[-46.74318685421806,-23.558043528447595],[-46.743371333833494,-23.558239010372503],[-46.743601933352785,-23.558369331655776],[-46.74378641296821,-23.558434492297412],[-46.74406313239136,-23.558499652939048],[-46.74424761200679,-23.558564813580684],[-46.74443209162222,-23.558564813580684],[-46.74475493094923,-23.558564813580684],[-46.74540060960324,-23.558499652939048],[-46.745585089218665,-23.558434492297412],[-46.745723448930235,-23.558434492297412],[-46.74590792854567,-23.558434492297412],[-46.74604628825724,-23.558369331655776],[-46.746230767872675,-23.558369331655776],[-46.74632300768039,-23.558369331655776],[-46.74655360719968,-23.55830417101414],[-46.74655360719968,-23.558369331655776],[-46.746599727103536,-23.558369331655776],[-46.74664584700739,-23.558434492297412],[-46.74669196691125,-23.558434492297412],[-46.74673808681511,-23.558499652939048],[-46.74683032662282,-23.558499652939048],[-46.747014806238255,-23.55862997422232],[-46.74706092614211,-23.55862997422232],[-46.74710704604597,-23.55862997422232],[-46.747153165949825,-23.558695134863953],[-46.74719928585368,-23.558695134863953],[-46.747245405757546,-23.558695134863953],[-46.747245405757546,-23.55876029550559],[-46.7472915256614,-23.55876029550559],[-46.74733764556526,-23.55876029550559],[-46.74738376546912,-23.55876029550559],[-46.74742988537297,-23.55876029550559],[-46.74742988537297,-23.558825456147225],[-46.74747600527683,-23.558825456147225],[-46.74752212518069,-23.558825456147225],[-46.74770660479612,-23.558825456147225],[-46.74775272469998,-23.558825456147225],[-46.74775272469998,-23.55876029550559],[-46.747798844603835,-23.55876029550559],[-46.74784496450769,-23.55876029550559],[-46.74784496450769,-23.558695134863953],[-46.74789108441155,-23.55862997422232],[-46.74798332421927,-23.558499652939048],[-46.74826004364241,-23.558369331655776],[-46.74826004364241,-23.55830417101414],[-46.74830616354627,-23.55830417101414],[-46.74830616354627,-23.558239010372503],[-46.74835228345013,-23.558239010372503],[-46.74835228345013,-23.558173849730867],[-46.74839840335399,-23.558173849730867],[-46.74839840335399,-23.55810868908923],[-46.748444523257845,-23.55810868908923],[-46.7484906431617,-23.558043528447595],[-46.74853676306556,-23.558043528447595],[-46.74853676306556,-23.557978367805962],[-46.748582882969416,-23.557978367805962],[-46.74862900287327,-23.557978367805962],[-46.74862900287327,-23.557913207164326],[-46.748675122777136,-23.557913207164326],[-46.74881348248871,-23.55784804652269],[-46.748859602392564,-23.557782885881053],[-46.74890572229642,-23.557782885881053],[-46.74895184220028,-23.557717725239417],[-46.748997962104134,-23.557717725239417],[-46.749090201911855,-23.55765256459778],[-46.74913632181571,-23.55765256459778],[-46.749228561623426,-23.557587403956145],[-46.74927468152728,-23.55752224331451],[-46.749366921334996,-23.557457082672872],[-46.74941304123886,-23.557457082672872],[-46.74945916114272,-23.557457082672872],[-46.74959752085429,-23.557326761389604],[-46.749643640758144,-23.557326761389604],[-46.749689760662,-23.557261600747967],[-46.74973588056586,-23.557261600747967],[-46.750012599989006,-23.55706611882306],[-46.750289319412154,-23.55687063689815],[-46.750519918931445,-23.556740315614878],[-46.750658278643016,-23.55660999433161],[-46.75070439854687,-23.556544833689973],[-46.750796638354586,-23.5564145124067],[-46.75088887816231,-23.556284191123428],[-46.750934998066164,-23.55621903048179],[-46.75111947768159,-23.555828066631978],[-46.75135007720088,-23.555371942140525],[-46.75135007720088,-23.555306781498892],[-46.75139619710474,-23.555241620857256],[-46.75148843691245,-23.555111299573984],[-46.75158067672017,-23.555046138932347],[-46.75167291652789,-23.555046138932347],[-46.7517651563356,-23.55498097829071],[-46.75181127623946,-23.55498097829071],[-46.75190351604717,-23.55498097829071],[-46.75194963595103,-23.554915817649075],[-46.75204187575875,-23.554915817649075],[-46.75213411556646,-23.554915817649075],[-46.75222635537418,-23.55498097829071],[-46.752364715085754,-23.55498097829071],[-46.75241083498961,-23.555046138932347],[-46.752641434508895,-23.555111299573984],[-46.75282591412433,-23.55517646021562],[-46.75287203402819,-23.55517646021562],[-46.753287113162905,-23.555306781498892],[-46.75333323306676,-23.555306781498892],[-46.753517712682196,-23.555371942140525],[-46.75374831220148,-23.55543710278216],[-46.75379443210534,-23.555502263423797],[-46.753932791816915,-23.555502263423797],[-46.75411727143234,-23.555567424065433],[-46.75425563114392,-23.55563258470707],[-46.754578470470925,-23.555762905990342],[-46.75462459037478,-23.555762905990342],[-46.75499354960564,-23.555893227273614],[-46.7550396695095,-23.555893227273614],[-46.75508578941336,-23.555893227273614],[-46.755131909317214,-23.55595838791525],[-46.75522414912493,-23.55595838791525],[-46.75531638893265,-23.55595838791525],[-46.75540862874036,-23.55595838791525],[-46.755500868548076,-23.55595838791525],[-46.75559310835579,-23.55595838791525],[-46.75568534816351,-23.55595838791525],[-46.755777587971224,-23.555893227273614],[-46.75586982777894,-23.555893227273614],[-46.75596206758665,-23.555828066631978],[-46.75605430739437,-23.555762905990342],[-46.75610042729823,-23.555697745348706],[-46.75619266710594,-23.555567424065433],[-46.756284906913656,-23.55543710278216],[-46.75633102681751,-23.555371942140525],[-46.75633102681751,-23.555306781498892],[-46.75637714672138,-23.555241620857256],[-46.756423266625234,-23.55517646021562],[-46.75660774624066,-23.554655175082534],[-46.75665386614452,-23.554590014440898],[-46.75674610595224,-23.554329371874353],[-46.75683834575995,-23.554068729307808],[-46.757207304990814,-23.55315648032491],[-46.75725342489467,-23.553026159041636],[-46.75729954479853,-23.5529609984],[-46.75739178460624,-23.552830677116727],[-46.75739178460624,-23.552700355833455],[-46.7574379045101,-23.552570034550186],[-46.757714623933246,-23.55198358877546],[-46.75789910354868,-23.551397143000738],[-46.75803746326025,-23.55107133979256],[-46.75808358316411,-23.55094101850929]]]}}]}