{"type":"FeatureCollection","features":[{"type":"Feature","properties":{"DATA_ULT_A":"2009/10/09","DATA_CRIAC":"2009/10/09","id":18,"name":"M'Boi Mirim","area":62.1,"pop_2010":563305,"pop_density_2010":9071,"budget_2015":49401554},"geometry":{"type":"Polygon","coordinates":[[[-46.76979803874397,-23.756783485436948],[-46.77224239364843,-23.755415111962595],[-46.776531544707204,-23.754828666187873],[-46.777038863649636,-23.754568023621328],[-46.77708498355349,-23.754568023621328],[-46.77713110345735,-23.754568023621328],[-46.77717722336121,-23.75450286297969],[-46.77722334326507,-23.75450286297969],[-46.77726946316893,-23.75450286297969],[-46.777315583072784,-23.75450286297969],[-46.777315583072784,-23.754437702338056],[-46.77736170297664,-23.754437702338056],[-46.7774078228805,-23.754437702338056],[-46.777453942784355,-23.75437254169642],[-46.77750006268821,-23.75437254169642],[-46.77754618259207,-23.75437254169642],[-46.77736170297664,-23.75346029271352],[-46.777315583072784,-23.75346029271352],[-46.777315583072784,-23.753395132071883],[-46.77726946316893,-23.753329971430247],[-46.77722334326507,-23.753329971430247],[-46.77708498355349,-23.753069328863702],[-46.77699274374578,-23.752939007580434],[-46.77685438403421,-23.75280868629716],[-46.776808264130345,-23.752743525655525],[-46.77671602432263,-23.75267836501389],[-46.776669904418775,-23.752613204372253],[-46.77662378451492,-23.752613204372253],[-46.776669904418775,-23.752548043730616],[-46.77671602432263,-23.752417722447344],[-46.77676214422649,-23.752352561805708],[-46.77676214422649,-23.752287401164075],[-46.77676214422649,-23.75222224052244],[-46.77676214422649,-23.752157079880803],[-46.77671602432263,-23.752091919239167],[-46.77671602432263,-23.751961597955894],[-46.776669904418775,-23.751896437314258],[-46.776669904418775,-23.751831276672622],[-46.77671602432263,-23.751766116030986],[-46.77671602432263,-23.75170095538935],[-46.77676214422649,-23.751505473464444],[-46.776808264130345,-23.751440312822808],[-46.77685438403421,-23.751309991539536],[-46.77694662384192,-23.751179670256263],[-46.77694662384192,-23.751114509614627],[-46.77699274374578,-23.75104934897299],[-46.77713110345735,-23.75078870640645],[-46.77717722336121,-23.750658385123177],[-46.77722334326507,-23.750658385123177],[-46.777315583072784,-23.750658385123177],[-46.77736170297664,-23.750658385123177],[-46.777453942784355,-23.750658385123177],[-46.77754618259207,-23.750658385123177],[-46.77763842239979,-23.750658385123177],[-46.77782290201522,-23.750658385123177],[-46.77791514182293,-23.750658385123177],[-46.77800738163065,-23.750658385123177],[-46.778099621438365,-23.750658385123177],[-46.77814574134222,-23.750658385123177],[-46.778237981149935,-23.750658385123177],[-46.77828410105379,-23.750658385123177],[-46.77837634086151,-23.75059322448154],[-46.77842246076537,-23.75059322448154],[-46.77846858066923,-23.750528063839905],[-46.77851470057308,-23.750528063839905],[-46.77856082047694,-23.75046290319827],[-46.778653060284654,-23.750332581914996],[-46.77879141999623,-23.750202260631728],[-46.778883659803945,-23.75013709999009],[-46.7789297797078,-23.750071939348455],[-46.77897589961166,-23.75000677870682],[-46.77906813941938,-23.75000677870682],[-46.77911425932324,-23.75000677870682],[-46.77916037922709,-23.75000677870682],[-46.77934485884252,-23.749941618065183],[-46.77957545836181,-23.749941618065183],[-46.779667698169526,-23.749941618065183],[-46.779759937977246,-23.749876457423547],[-46.7798060578811,-23.74981129678191],[-46.77989829768882,-23.74981129678191],[-46.779944417592674,-23.749746136140274],[-46.78003665740039,-23.749615814857005],[-46.78012889720811,-23.74955065421537],[-46.78022113701582,-23.749420332932097],[-46.78026725691968,-23.74955065421537],[-46.78040561663125,-23.749680975498638],[-46.78063621615054,-23.750071939348455],[-46.78091293557369,-23.75046290319827],[-46.780959055477545,-23.750528063839905],[-46.781097415189116,-23.75078870640645],[-46.78123577490069,-23.75104934897299],[-46.781374134612264,-23.7512448308979],[-46.781512494323835,-23.751375152181172],[-46.78155861422769,-23.751440312822808],[-46.781604734131555,-23.75157063410608],[-46.781604734131555,-23.751635794747717],[-46.78165085403541,-23.751635794747717],[-46.78169697393927,-23.75170095538935],[-46.781743093843126,-23.75170095538935],[-46.78183533365084,-23.751766116030986],[-46.78192757345855,-23.751766116030986],[-46.782019813266274,-23.751635794747717],[-46.78211205307399,-23.751505473464444],[-46.7822042928817,-23.751375152181172],[-46.7822042928817,-23.751179670256263],[-46.78225041278556,-23.75078870640645],[-46.78225041278556,-23.750528063839905],[-46.782296532689415,-23.750332581914996],[-46.78261937201642,-23.75000677870682],[-46.782757731728,-23.74981129678191],[-46.783080571055,-23.74935517229046],[-46.78326505067043,-23.74902936908228],[-46.78335729047814,-23.748833887157375],[-46.78368012980515,-23.748638405232466],[-46.78377236961286,-23.74857324459083],[-46.78386460942058,-23.74857324459083],[-46.7842796885553,-23.748312602024285],[-46.78483312740159,-23.748051959457744],[-46.78492536720931,-23.748051959457744],[-46.785017607017025,-23.74811712009938],[-46.785155966728595,-23.74811712009938],[-46.78552492595946,-23.747986798816108],[-46.785571045863314,-23.747986798816108],[-46.785663285671035,-23.747986798816108],[-46.785801645382605,-23.748051959457744],[-46.7860322449019,-23.74811712009938],[-46.78612448470961,-23.748182280741016],[-46.78617060461347,-23.74811712009938],[-46.78607836480575,-23.74792163817447],[-46.78607836480575,-23.747856477532835],[-46.78612448470961,-23.747856477532835],[-46.7863550842289,-23.7477913168912],[-46.78640120413276,-23.747726156249563],[-46.786447324036615,-23.747726156249563],[-46.78649344394047,-23.747726156249563],[-46.78653956384433,-23.747660995607927],[-46.786585683748186,-23.747660995607927],[-46.7866779235559,-23.747660995607927],[-46.78672404345976,-23.747660995607927],[-46.78677016336362,-23.747660995607927],[-46.78681628326748,-23.747595834966294],[-46.786862403171334,-23.747595834966294],[-46.78690852307519,-23.747595834966294],[-46.78695464297905,-23.747595834966294],[-46.787000762882904,-23.747530674324658],[-46.78718524249834,-23.747595834966294],[-46.78741584201762,-23.747595834966294],[-46.78792316096006,-23.747400353041385],[-46.787877041056205,-23.747270031758113],[-46.787784801248485,-23.747204871116477],[-46.787784801248485,-23.74713971047484],[-46.78773868134463,-23.74713971047484],[-46.78769256144077,-23.747074549833204],[-46.787646441536914,-23.747074549833204],[-46.78769256144077,-23.747009389191568],[-46.787877041056205,-23.746422943416846],[-46.78824600028707,-23.746162300850305],[-46.788430479902495,-23.746031979567032],[-46.78852271971021,-23.745966818925396],[-46.78861495951793,-23.745966818925396],[-46.7887533192295,-23.74590165828376],[-46.788937798844934,-23.74590165828376],[-46.789076158556504,-23.74590165828376],[-46.789214518268075,-23.74590165828376],[-46.789306758075796,-23.74590165828376],[-46.789445117787366,-23.745836497642124],[-46.78953735759508,-23.745836497642124],[-46.78953735759508,-23.745575855075582],[-46.789629597402794,-23.74511973058413],[-46.78976795711437,-23.74479392737595],[-46.789998556633655,-23.74446812416777],[-46.79032139596066,-23.744142320959593],[-46.79059811538381,-23.74388167839305],[-46.79078259499924,-23.743816517751412],[-46.79087483480696,-23.743751357109776],[-46.791151554230105,-23.743751357109776],[-46.79119767413396,-23.743751357109776],[-46.79119767413396,-23.74368619646814],[-46.79110543432625,-23.743360393259962],[-46.791059314422384,-23.74303459005178],[-46.79161275326868,-23.742839108126876],[-46.791935592595685,-23.74277394748524],[-46.79225843192269,-23.742708786843604],[-46.792350671730404,-23.742643626201968],[-46.79239679163426,-23.742643626201968],[-46.792350671730404,-23.74257846556033],[-46.79230455182655,-23.74257846556033],[-46.79230455182655,-23.742513304918695],[-46.79225843192269,-23.74244814427706],[-46.79216619211497,-23.742317822993787],[-46.792073952307256,-23.742187501710518],[-46.79212007221111,-23.74212234106888],[-46.79225843192269,-23.74199201978561],[-46.79216619211497,-23.741926859143973],[-46.79212007221111,-23.741861698502337],[-46.792073952307256,-23.7417965378607],[-46.7920278324034,-23.7417965378607],[-46.79216619211497,-23.74166621657743],[-46.79225843192269,-23.741601055935792],[-46.79230455182655,-23.74153589529416],[-46.792350671730404,-23.74153589529416],[-46.79244291153812,-23.741470734652523],[-46.79253515134583,-23.741405574010887],[-46.79267351105741,-23.741275252727615],[-46.79253515134583,-23.74121009208598],[-46.79230455182655,-23.74101461016107],[-46.79244291153812,-23.740949449519434],[-46.79253515134583,-23.740949449519434],[-46.792581271249695,-23.7408842888778],[-46.79267351105741,-23.7408842888778],[-46.792719630961265,-23.740819128236165],[-46.79276575086512,-23.740819128236165],[-46.792857990672836,-23.74075396759453],[-46.79295023048056,-23.740688806952893],[-46.79304247028827,-23.740623646311256],[-46.793134710095984,-23.74055848566962],[-46.793273069807555,-23.740493325027984],[-46.793365309615275,-23.740428164386348],[-46.793503669326846,-23.74036300374471],[-46.793503669326846,-23.740297843103075],[-46.79345754942299,-23.740167521819806],[-46.79341142951913,-23.74010236117817],[-46.79331918971142,-23.73977655796999],[-46.793134710095984,-23.73958107604508],[-46.7932269499037,-23.739515915403448],[-46.793365309615275,-23.73958107604508],[-46.79359590913456,-23.739711397328353],[-46.79368814894228,-23.739841718611626],[-46.793780388749994,-23.73990687925326],[-46.79387262855771,-23.73990687925326],[-46.79396486836542,-23.739972039894898],[-46.79401098826928,-23.739972039894898],[-46.794103228077,-23.739972039894898],[-46.79419546788471,-23.739972039894898],[-46.794287707692426,-23.73990687925326],[-46.794426067404004,-23.739841718611626],[-46.794702786827145,-23.739711397328353],[-46.79484114653872,-23.739646236686717],[-46.79516398586573,-23.739385594120176],[-46.7956251849043,-23.73912495155363],[-46.79608638394288,-23.738799148345453],[-46.796224743654456,-23.738473345137272],[-46.796224743654456,-23.738343023854],[-46.79617862375059,-23.738147541929095],[-46.796132503846735,-23.737756578079278],[-46.79608638394288,-23.7374307748711],[-46.795994144135165,-23.736974650379647],[-46.795994144135165,-23.73690948973801],[-46.79594802423131,-23.736844329096378],[-46.79590190432745,-23.736714007813106],[-46.796639822789174,-23.73632304396329],[-46.7965014630776,-23.73619272268002],[-46.796363103366026,-23.736062401396747],[-46.79631698346217,-23.73599724075511],[-46.796224743654456,-23.735932080113475],[-46.796132503846735,-23.735801758830203],[-46.796363103366026,-23.734954670488936],[-46.796363103366026,-23.7348895098473],[-46.796363103366026,-23.73475918856403],[-46.79640922326988,-23.73475918856403],[-46.79673206259689,-23.734628867280758],[-46.79687042230846,-23.734563706639122],[-46.79705490192389,-23.73443338535585],[-46.797193261635464,-23.734303064072577],[-46.79723938153932,-23.73423790343094],[-46.79733162134704,-23.734042421506036],[-46.797423861154755,-23.733912100222764],[-46.79746998105861,-23.73378177893949],[-46.79751610096247,-23.733586297014583],[-46.79760834077018,-23.733260493806405],[-46.79765446067404,-23.73299985123986],[-46.79774670048176,-23.732804369314955],[-46.79779282038562,-23.732674048031683],[-46.79788506019333,-23.732478566106774],[-46.797977300001044,-23.73221792354023],[-46.79811565971262,-23.732022441615324],[-46.798207899520335,-23.731892120332052],[-46.79839237913576,-23.73156631712387],[-46.79853073884734,-23.731370835198966],[-46.798622978655054,-23.731240513915694],[-46.79871521846277,-23.731175353274057],[-46.79866909855891,-23.73111019263242],[-46.798622978655054,-23.73097987134915],[-46.79853073884734,-23.730784389424244],[-46.79848461894348,-23.730719228782608],[-46.79848461894348,-23.730588907499335],[-46.79843849903963,-23.7305237468577],[-46.79839237913576,-23.730263104291154],[-46.798346259231906,-23.730132783007885],[-46.798346259231906,-23.730002461724613],[-46.798346259231906,-23.729937301082977],[-46.79830013932805,-23.729806979799704],[-46.79825401942419,-23.729676658516432],[-46.79825401942419,-23.729611497874796],[-46.79816177961648,-23.72941601594989],[-46.79811565971262,-23.72928569466662],[-46.798069539808765,-23.72909021274171],[-46.7980234199049,-23.7288947308168],[-46.79793118009719,-23.728699248891896],[-46.79788506019333,-23.728503766966988],[-46.79774670048176,-23.728177963758807],[-46.79774670048176,-23.728112803117174],[-46.7977005805779,-23.728112803117174],[-46.7977005805779,-23.728047642475538],[-46.79788506019333,-23.72785216055063],[-46.797977300001044,-23.727721839267357],[-46.798069539808765,-23.727526357342448],[-46.79811565971262,-23.727461196700816],[-46.79811565971262,-23.72739603605918],[-46.79811565971262,-23.727330875417543],[-46.79816177961648,-23.72720055413427],[-46.79816177961648,-23.727135393492635],[-46.79816177961648,-23.72687475092609],[-46.79816177961648,-23.72674442964282],[-46.79816177961648,-23.72661410835955],[-46.79816177961648,-23.726548947717912],[-46.79816177961648,-23.726483787076276],[-46.798207899520335,-23.726483787076276],[-46.79825401942419,-23.726288305151368],[-46.798346259231906,-23.726092823226463],[-46.79839237913576,-23.72596250194319],[-46.79848461894348,-23.725832180659918],[-46.79853073884734,-23.72576702001828],[-46.79853073884734,-23.725701859376645],[-46.79853073884734,-23.72563669873501],[-46.7985768587512,-23.725571538093373],[-46.7985768587512,-23.725506377451737],[-46.7985768587512,-23.725441216810104],[-46.7985768587512,-23.725376056168468],[-46.7985768587512,-23.725245734885196],[-46.79853073884734,-23.725115413601923],[-46.79853073884734,-23.724919931677015],[-46.79848461894348,-23.724659289110473],[-46.79848461894348,-23.724463807185565],[-46.79843849903963,-23.724268325260656],[-46.79843849903963,-23.72407284333575],[-46.79843849903963,-23.724007682694115],[-46.79853073884734,-23.72394252205248],[-46.7985768587512,-23.723877361410842],[-46.798622978655054,-23.723812200769206],[-46.79866909855891,-23.72374704012757],[-46.79871521846277,-23.723681879485934],[-46.798761338366624,-23.72355155820266],[-46.798761338366624,-23.723486397561025],[-46.79880745827049,-23.723421236919393],[-46.798853578174345,-23.723421236919393],[-46.7988996980782,-23.723356076277756],[-46.7988996980782,-23.72329091563612],[-46.798761338366624,-23.723160594352848],[-46.798622978655054,-23.723030273069575],[-46.79843849903963,-23.722899951786303],[-46.798346259231906,-23.72276963050303],[-46.79825401942419,-23.722704469861398],[-46.798207899520335,-23.722704469861398],[-46.798207899520335,-23.722639309219762],[-46.7980234199049,-23.72231350601158],[-46.79774670048176,-23.721792220878495],[-46.79765446067404,-23.721661899595222],[-46.79751610096247,-23.72140125702868],[-46.79746998105861,-23.72127093574541],[-46.797423861154755,-23.72127093574541],[-46.79746998105861,-23.721205775103773],[-46.797562220866325,-23.721010293178864],[-46.79760834077018,-23.721010293178864],[-46.79760834077018,-23.720945132537228],[-46.79765446067404,-23.72087997189559],[-46.7977005805779,-23.72087997189559],[-46.79774670048176,-23.72074965061232],[-46.79783894028947,-23.720684489970687],[-46.79811565971262,-23.720423847404142],[-46.79816177961648,-23.720358686762506],[-46.798207899520335,-23.720358686762506],[-46.798207899520335,-23.72029352612087],[-46.798207899520335,-23.720228365479233],[-46.798207899520335,-23.720163204837597],[-46.798069539808765,-23.719902562271056],[-46.797977300001044,-23.71964191970451],[-46.79783894028947,-23.71938127713797],[-46.79788506019333,-23.719316116496334],[-46.79788506019333,-23.719250955854697],[-46.79793118009719,-23.719120634571425],[-46.79793118009719,-23.71885999200488],[-46.79793118009719,-23.718664510079975],[-46.79793118009719,-23.718338706871794],[-46.79793118009719,-23.71794774302198],[-46.797977300001044,-23.717491618530527],[-46.7980234199049,-23.717230975963986],[-46.79788506019333,-23.717035494039077],[-46.79788506019333,-23.71697033339744],[-46.79793118009719,-23.716905172755805],[-46.79793118009719,-23.71684001211417],[-46.79793118009719,-23.716774851472533],[-46.79788506019333,-23.716644530189264],[-46.79788506019333,-23.716579369547627],[-46.79788506019333,-23.716449048264355],[-46.79783894028947,-23.71638388762272],[-46.79783894028947,-23.716318726981083],[-46.79774670048176,-23.715862602489633],[-46.7977005805779,-23.715797441847997],[-46.79760834077018,-23.715667120564724],[-46.79760834077018,-23.715601959923088],[-46.79751610096247,-23.715601959923088],[-46.79746998105861,-23.715536799281452],[-46.797423861154755,-23.715471638639816],[-46.797423861154755,-23.715341317356547],[-46.797423861154755,-23.71527615671491],[-46.7973777412509,-23.71514583543164],[-46.79723938153932,-23.715015514148366],[-46.797193261635464,-23.715015514148366],[-46.79714714173161,-23.715080674790002],[-46.79710102182775,-23.71514583543164],[-46.79705490192389,-23.71527615671491],[-46.797008782020036,-23.71540647799818],[-46.79696266211618,-23.715471638639816],[-46.796916542212315,-23.715536799281452],[-46.796778182500745,-23.715536799281452],[-46.79659370288532,-23.715536799281452],[-46.79640922326988,-23.715536799281452],[-46.796132503846735,-23.715536799281452],[-46.79590190432745,-23.715601959923088],[-46.79567130480816,-23.715536799281452],[-46.79539458538501,-23.71540647799818],[-46.79525622567344,-23.71527615671491],[-46.79511786596186,-23.71514583543164],[-46.79488726644258,-23.715015514148366],[-46.79484114653872,-23.714885192865093],[-46.79484114653872,-23.714820032223457],[-46.794795026634866,-23.714820032223457],[-46.794795026634866,-23.71475487158182],[-46.794748906731,-23.71475487158182],[-46.794748906731,-23.714689710940185],[-46.794702786827145,-23.714689710940185],[-46.79465666692329,-23.714624550298552],[-46.79461054701943,-23.714624550298552],[-46.794564427115574,-23.714624550298552],[-46.79451830721172,-23.714624550298552],[-46.79451830721172,-23.714559389656916],[-46.794564427115574,-23.714559389656916],[-46.794564427115574,-23.71449422901528],[-46.79451830721172,-23.71449422901528],[-46.79447218730786,-23.71449422901528],[-46.79447218730786,-23.714429068373644],[-46.794426067404004,-23.714429068373644],[-46.79437994750014,-23.714429068373644],[-46.79437994750014,-23.714363907732007],[-46.79433382759628,-23.71429874709037],[-46.79433382759628,-23.714233586448735],[-46.794287707692426,-23.714233586448735],[-46.79433382759628,-23.714233586448735],[-46.79433382759628,-23.7141684258071],[-46.79433382759628,-23.714103265165463],[-46.79433382759628,-23.714038104523826],[-46.794287707692426,-23.714038104523826],[-46.794287707692426,-23.713972943882194],[-46.79424158778857,-23.713972943882194],[-46.79419546788471,-23.713972943882194],[-46.794149347980856,-23.713972943882194],[-46.794103228077,-23.713972943882194],[-46.794103228077,-23.713907783240558],[-46.79405710817314,-23.713907783240558],[-46.79401098826928,-23.71384262259892],[-46.793918748461564,-23.71384262259892],[-46.79387262855771,-23.71384262259892],[-46.79382650865385,-23.71384262259892],[-46.793780388749994,-23.713777461957285],[-46.79382650865385,-23.713777461957285],[-46.79382650865385,-23.71371230131565],[-46.79382650865385,-23.713647140674013],[-46.79373426884614,-23.713647140674013],[-46.79368814894228,-23.713647140674013],[-46.793503669326846,-23.713647140674013],[-46.79341142951913,-23.713647140674013],[-46.793365309615275,-23.71351681939074],[-46.79341142951913,-23.713451658749104],[-46.79345754942299,-23.713386498107468],[-46.793503669326846,-23.713386498107468],[-46.793503669326846,-23.713321337465835],[-46.79345754942299,-23.713321337465835],[-46.79341142951913,-23.713191016182563],[-46.793365309615275,-23.713191016182563],[-46.793273069807555,-23.7132561768242],[-46.7932269499037,-23.7132561768242],[-46.79318082999984,-23.713191016182563],[-46.793134710095984,-23.713125855540927],[-46.793134710095984,-23.71306069489929],[-46.793134710095984,-23.712995534257654],[-46.793134710095984,-23.712930373616018],[-46.79318082999984,-23.712865212974382],[-46.793134710095984,-23.712800052332746],[-46.793134710095984,-23.71273489169111],[-46.793134710095984,-23.712669731049473],[-46.79308859019213,-23.71260457040784],[-46.79308859019213,-23.712539409766205],[-46.79308859019213,-23.71247424912457],[-46.79308859019213,-23.712409088482932],[-46.79304247028827,-23.712343927841296],[-46.79304247028827,-23.71227876719966],[-46.79308859019213,-23.712213606558024],[-46.793134710095984,-23.712213606558024],[-46.79308859019213,-23.712148445916387],[-46.79304247028827,-23.712018124633115],[-46.79299635038441,-23.711952963991482],[-46.79295023048056,-23.711887803349846],[-46.79290411057669,-23.711887803349846],[-46.79290411057669,-23.71182264270821],[-46.79290411057669,-23.711757482066574],[-46.792857990672836,-23.711692321424938],[-46.79290411057669,-23.7116271607833],[-46.79295023048056,-23.711562000141665],[-46.79299635038441,-23.711562000141665],[-46.79304247028827,-23.71149683950003],[-46.79299635038441,-23.71149683950003],[-46.79299635038441,-23.711431678858393],[-46.79295023048056,-23.711366518216757],[-46.79295023048056,-23.711301357575124],[-46.79295023048056,-23.711236196933488],[-46.79295023048056,-23.71117103629185],[-46.79295023048056,-23.711105875650215],[-46.79290411057669,-23.711105875650215],[-46.792857990672836,-23.711105875650215],[-46.79281187076898,-23.711105875650215],[-46.79276575086512,-23.711105875650215],[-46.792719630961265,-23.71104071500858],[-46.792719630961265,-23.710975554366943],[-46.79276575086512,-23.710910393725307],[-46.79281187076898,-23.710910393725307],[-46.792857990672836,-23.71084523308367],[-46.79290411057669,-23.71084523308367],[-46.79295023048056,-23.71084523308367],[-46.79295023048056,-23.710780072442034],[-46.79299635038441,-23.710780072442034],[-46.79304247028827,-23.710780072442034],[-46.79308859019213,-23.710780072442034],[-46.79308859019213,-23.710714911800398],[-46.793134710095984,-23.710714911800398],[-46.793134710095984,-23.710649751158762],[-46.79318082999984,-23.710649751158762],[-46.79318082999984,-23.71058459051713],[-46.793134710095984,-23.710519429875493],[-46.793134710095984,-23.710454269233857],[-46.79308859019213,-23.710454269233857],[-46.793134710095984,-23.71038910859222],[-46.79318082999984,-23.710323947950585],[-46.79318082999984,-23.71025878730895],[-46.79318082999984,-23.710193626667312],[-46.79318082999984,-23.710128466025676],[-46.793134710095984,-23.709998144742404],[-46.79308859019213,-23.709998144742404],[-46.79304247028827,-23.70993298410077],[-46.79304247028827,-23.709867823459135],[-46.79304247028827,-23.7098026628175],[-46.79304247028827,-23.709672341534226],[-46.79304247028827,-23.70960718089259],[-46.79304247028827,-23.709542020250954],[-46.79304247028827,-23.709476859609318],[-46.79299635038441,-23.70941169896768],[-46.79295023048056,-23.70941169896768],[-46.79281187076898,-23.70941169896768],[-46.792719630961265,-23.709346538326045],[-46.79267351105741,-23.709346538326045],[-46.79267351105741,-23.709281377684412],[-46.79267351105741,-23.709216217042776],[-46.792719630961265,-23.70915105640114],[-46.792719630961265,-23.709085895759504],[-46.792719630961265,-23.709020735117868],[-46.79267351105741,-23.70895557447623],[-46.79267351105741,-23.708890413834595],[-46.79262739115355,-23.708890413834595],[-46.79262739115355,-23.70882525319296],[-46.79262739115355,-23.708760092551323],[-46.79262739115355,-23.708694931909687],[-46.79267351105741,-23.70862977126805],[-46.792719630961265,-23.708564610626418],[-46.792719630961265,-23.70849944998478],[-46.792719630961265,-23.70836912870151],[-46.792719630961265,-23.708303968059873],[-46.792719630961265,-23.7081736467766],[-46.792719630961265,-23.708108486134964],[-46.792719630961265,-23.70804332549333],[-46.792719630961265,-23.70791300421006],[-46.79267351105741,-23.707847843568423],[-46.79267351105741,-23.707782682926787],[-46.79262739115355,-23.70771752228515],[-46.79262739115355,-23.707652361643515],[-46.79262739115355,-23.707522040360242],[-46.792581271249695,-23.707456879718606],[-46.792581271249695,-23.70739171907697],[-46.792581271249695,-23.707326558435334],[-46.79253515134583,-23.7072613977937],[-46.79244291153812,-23.707196237152065],[-46.79239679163426,-23.70713107651043],[-46.792350671730404,-23.707065915868792],[-46.79230455182655,-23.707000755227156],[-46.79230455182655,-23.70693559458552],[-46.792350671730404,-23.70693559458552],[-46.792350671730404,-23.706805273302248],[-46.79239679163426,-23.706674952018975],[-46.79239679163426,-23.706609791377343],[-46.792350671730404,-23.706544630735706],[-46.792350671730404,-23.706349148810798],[-46.792350671730404,-23.70628398816916],[-46.79230455182655,-23.706218827527525],[-46.79225843192269,-23.70615366688589],[-46.79225843192269,-23.706088506244253],[-46.79221231201883,-23.706023345602617],[-46.79216619211497,-23.70595818496098],[-46.79212007221111,-23.705893024319348],[-46.792073952307256,-23.70582786367771],[-46.7920278324034,-23.705762703036076],[-46.7920278324034,-23.70569754239444],[-46.79198171249954,-23.705632381752803],[-46.79198171249954,-23.705567221111167],[-46.791935592595685,-23.70550206046953],[-46.791935592595685,-23.705436899827895],[-46.79188947269183,-23.705436899827895],[-46.79188947269183,-23.70537173918626],[-46.79184335278797,-23.705306578544622],[-46.79179723288411,-23.705306578544622],[-46.79175111298025,-23.70524141790299],[-46.791704993076394,-23.705176257261353],[-46.79161275326868,-23.705111096619717],[-46.79156663336482,-23.705111096619717],[-46.791520513460966,-23.70504593597808],[-46.791520513460966,-23.704980775336445],[-46.791520513460966,-23.70491561469481],[-46.791520513460966,-23.704850454053172],[-46.79161275326868,-23.704850454053172],[-46.791704993076394,-23.704850454053172],[-46.79179723288411,-23.704850454053172],[-46.79179723288411,-23.704785293411536],[-46.79179723288411,-23.7047201327699],[-46.79175111298025,-23.704654972128264],[-46.79175111298025,-23.70458981148663],[-46.79175111298025,-23.70445949020336],[-46.79175111298025,-23.704394329561723],[-46.79175111298025,-23.704329168920086],[-46.79179723288411,-23.70426400827845],[-46.79179723288411,-23.704198847636814],[-46.79184335278797,-23.704198847636814],[-46.79184335278797,-23.704133686995178],[-46.79188947269183,-23.70406852635354],[-46.79188947269183,-23.704003365711905],[-46.79188947269183,-23.703873044428637],[-46.79188947269183,-23.703807883787],[-46.79188947269183,-23.703742723145364],[-46.79188947269183,-23.703677562503728],[-46.79188947269183,-23.70361240186209],[-46.79198171249954,-23.703547241220456],[-46.7920278324034,-23.703416919937183],[-46.792073952307256,-23.70328659865391],[-46.792073952307256,-23.703221438012278],[-46.792073952307256,-23.70302595608737],[-46.79212007221111,-23.702439510312647],[-46.792073952307256,-23.701853064537925],[-46.792073952307256,-23.70178790389629],[-46.7920278324034,-23.701722743254653],[-46.79221231201883,-23.701462100688108],[-46.79225843192269,-23.70139694004647],[-46.792350671730404,-23.701331779404835],[-46.792489031441974,-23.701201458121567],[-46.792719630961265,-23.701071136838294],[-46.79290411057669,-23.701005976196658],[-46.793134710095984,-23.700940815555022],[-46.793780388749994,-23.700745333630113],[-46.793918748461564,-23.700745333630113],[-46.79433382759628,-23.70061501234684],[-46.79465666692329,-23.700484691063572],[-46.794748906731,-23.700419530421936],[-46.79484114653872,-23.700419530421936],[-46.7953023455773,-23.700289209138663],[-46.796363103366026,-23.70002856657212],[-46.79673206259689,-23.699963405930482],[-46.79696266211618,-23.69989824528885],[-46.79705490192389,-23.69989824528885],[-46.79746998105861,-23.699767924005577],[-46.79760834077018,-23.699767924005577],[-46.7977005805779,-23.699767924005577],[-46.79774670048176,-23.69970276336394],[-46.79788506019333,-23.699637602722305],[-46.798069539808765,-23.69957244208067],[-46.79816177961648,-23.699507281439033],[-46.79830013932805,-23.699442120797396],[-46.79853073884734,-23.699442120797396],[-46.79880745827049,-23.699442120797396],[-46.79903805778977,-23.69937696015576],[-46.799130297597486,-23.69937696015576],[-46.799268657309064,-23.699311799514124],[-46.799407017020634,-23.699246638872488],[-46.79959149663607,-23.699181478230855],[-46.799637616539925,-23.699181478230855],[-46.79968373644378,-23.699181478230855],[-46.79972985634764,-23.699181478230855],[-46.800836734040224,-23.69859503245613],[-46.80111345346337,-23.698790514381038],[-46.8012979330788,-23.69892083566431],[-46.801344052982664,-23.69892083566431],[-46.80139017288652,-23.698985996305947],[-46.80152853259809,-23.698790514381038],[-46.801713012213526,-23.69859503245613],[-46.801713012213526,-23.69846471117286],[-46.80166689230966,-23.698399550531224],[-46.80157465250195,-23.69813890796468],[-46.80157465250195,-23.698073747323043],[-46.80152853259809,-23.69787826539814],[-46.80152853259809,-23.697617622831594],[-46.80152853259809,-23.697422140906685],[-46.80157465250195,-23.697161498340144],[-46.80143629279038,-23.697161498340144],[-46.801205693271086,-23.697096337698508],[-46.80102121365566,-23.697096337698508],[-46.8009750937518,-23.69703117705687],[-46.80092897384794,-23.69703117705687],[-46.80088285394408,-23.69703117705687],[-46.800836734040224,-23.696966016415235],[-46.80079061413637,-23.6969008557736],[-46.800698374328654,-23.696770534490327],[-46.8006522544248,-23.696640213207054],[-46.800560014617076,-23.69644473128215],[-46.80046777480936,-23.69644473128215],[-46.80037553500165,-23.696379570640513],[-46.80032941509779,-23.696379570640513],[-46.800283295193935,-23.696314409998877],[-46.80023717529007,-23.696314409998877],[-46.800191055386215,-23.696314409998877],[-46.80014493548236,-23.696314409998877],[-46.800052695674644,-23.696314409998877],[-46.79996045586693,-23.696314409998877],[-46.79982209615535,-23.696314409998877],[-46.79959149663607,-23.696314409998877],[-46.79949925682835,-23.696314409998877],[-46.79936089711678,-23.696314409998877],[-46.79922253740521,-23.696379570640513],[-46.79917641750135,-23.696379570640513],[-46.79908417769363,-23.696379570640513],[-46.7988996980782,-23.696509891923785],[-46.798761338366624,-23.696575052565418],[-46.79866909855891,-23.696640213207054],[-46.7985768587512,-23.696640213207054],[-46.79853073884734,-23.69670537384869],[-46.79848461894348,-23.69670537384869],[-46.79839237913576,-23.69670537384869],[-46.79830013932805,-23.69670537384869],[-46.79825401942419,-23.69670537384869],[-46.798207899520335,-23.69670537384869],[-46.79816177961648,-23.69670537384869],[-46.798069539808765,-23.69670537384869],[-46.79793118009719,-23.69670537384869],[-46.79783894028947,-23.69670537384869],[-46.79760834077018,-23.696770534490327],[-46.797562220866325,-23.696770534490327],[-46.79751610096247,-23.696770534490327],[-46.79746998105861,-23.696770534490327],[-46.797423861154755,-23.696770534490327],[-46.797423861154755,-23.69670537384869],[-46.7973777412509,-23.69670537384869],[-46.79733162134704,-23.69670537384869],[-46.79728550144318,-23.696640213207054],[-46.79723938153932,-23.696575052565418],[-46.797193261635464,-23.696575052565418],[-46.79714714173161,-23.696509891923785],[-46.79710102182775,-23.69644473128215],[-46.79696266211618,-23.69624924935724],[-46.796916542212315,-23.696184088715604],[-46.7968243024046,-23.696053767432332],[-46.79673206259689,-23.69592344614906],[-46.79668594269303,-23.695858285507427],[-46.796639822789174,-23.695858285507427],[-46.796639822789174,-23.69579312486579],[-46.79659370288532,-23.695727964224155],[-46.796547582981454,-23.695727964224155],[-46.79645534317374,-23.69566280358252],[-46.79640922326988,-23.695597642940882],[-46.79631698346217,-23.695532482299246],[-46.79627086355831,-23.695532482299246],[-46.796224743654456,-23.69546732165761],[-46.79617862375059,-23.69546732165761],[-46.796132503846735,-23.69546732165761],[-46.79608638394288,-23.69546732165761],[-46.79604026403902,-23.69546732165761],[-46.795994144135165,-23.69546732165761],[-46.79590190432745,-23.69546732165761],[-46.79576354461587,-23.695532482299246],[-46.7956251849043,-23.695597642940882],[-46.795579065000446,-23.695597642940882],[-46.79553294509659,-23.695597642940882],[-46.79548682519273,-23.695597642940882],[-46.79544070528887,-23.695597642940882],[-46.79539458538501,-23.695597642940882],[-46.795348465481155,-23.695597642940882],[-46.7953023455773,-23.695597642940882],[-46.7953023455773,-23.695532482299246],[-46.79525622567344,-23.695532482299246],[-46.795210105769584,-23.695532482299246],[-46.795210105769584,-23.69546732165761],[-46.79516398586573,-23.69546732165761],[-46.79516398586573,-23.695402161015974],[-46.79511786596186,-23.695402161015974],[-46.79511786596186,-23.695337000374337],[-46.79507174605801,-23.6952718397327],[-46.79507174605801,-23.695206679091065],[-46.79502562615415,-23.695141518449432],[-46.79502562615415,-23.69501119716616],[-46.79497950625029,-23.694880875882887],[-46.79497950625029,-23.694750554599615],[-46.794933386346436,-23.69468539395798],[-46.79488726644258,-23.694620233316343],[-46.79488726644258,-23.694555072674707],[-46.79488726644258,-23.694489912033074],[-46.79488726644258,-23.694424751391438],[-46.79488726644258,-23.6943595907498],[-46.79484114653872,-23.694294430108165],[-46.794795026634866,-23.694294430108165],[-46.794748906731,-23.6943595907498],[-46.794702786827145,-23.6943595907498],[-46.79465666692329,-23.694424751391438],[-46.794564427115574,-23.694424751391438],[-46.79451830721172,-23.694489912033074],[-46.79437994750014,-23.694555072674707],[-46.794287707692426,-23.694555072674707],[-46.794287707692426,-23.694620233316343],[-46.794149347980856,-23.694620233316343],[-46.794103228077,-23.694555072674707],[-46.79405710817314,-23.694424751391438],[-46.79396486836542,-23.694294430108165],[-46.79387262855771,-23.694098948183257],[-46.79382650865385,-23.69403378754162],[-46.793780388749994,-23.693968626899984],[-46.793780388749994,-23.693903466258348],[-46.79373426884614,-23.693903466258348],[-46.79368814894228,-23.693903466258348],[-46.793642029038416,-23.693903466258348],[-46.79359590913456,-23.693903466258348],[-46.79345754942299,-23.693968626899984],[-46.793273069807555,-23.694098948183257],[-46.79299635038441,-23.69422926946653],[-46.79295023048056,-23.69422926946653],[-46.792857990672836,-23.694294430108165],[-46.79281187076898,-23.6943595907498],[-46.792719630961265,-23.6943595907498],[-46.79267351105741,-23.6943595907498],[-46.79267351105741,-23.694424751391438],[-46.79262739115355,-23.694424751391438],[-46.792581271249695,-23.694424751391438],[-46.792489031441974,-23.694424751391438],[-46.79239679163426,-23.6943595907498],[-46.792350671730404,-23.6943595907498],[-46.79230455182655,-23.6943595907498],[-46.79225843192269,-23.6943595907498],[-46.79221231201883,-23.6943595907498],[-46.79212007221111,-23.6943595907498],[-46.792073952307256,-23.6943595907498],[-46.79198171249954,-23.694424751391438],[-46.79175111298025,-23.694424751391438],[-46.79165887317254,-23.694489912033074],[-46.79161275326868,-23.694489912033074],[-46.79156663336482,-23.694489912033074],[-46.79156663336482,-23.694555072674707],[-46.791520513460966,-23.694555072674707],[-46.791428273653246,-23.694555072674707],[-46.79138215374939,-23.694489912033074],[-46.79138215374939,-23.694424751391438],[-46.79133603384553,-23.6943595907498],[-46.79138215374939,-23.694294430108165],[-46.791428273653246,-23.69422926946653],[-46.79147439355711,-23.69422926946653],[-46.79156663336482,-23.694164108824893],[-46.79161275326868,-23.694098948183257],[-46.79165887317254,-23.694098948183257],[-46.791704993076394,-23.69403378754162],[-46.79175111298025,-23.69403378754162],[-46.79175111298025,-23.693968626899984],[-46.79179723288411,-23.693968626899984],[-46.79179723288411,-23.693903466258348],[-46.79175111298025,-23.693903466258348],[-46.791704993076394,-23.693903466258348],[-46.79161275326868,-23.693903466258348],[-46.791520513460966,-23.693903466258348],[-46.791428273653246,-23.693968626899984],[-46.79133603384553,-23.693968626899984],[-46.79124379403782,-23.693968626899984],[-46.791151554230105,-23.693968626899984],[-46.791059314422384,-23.69403378754162],[-46.79096707461467,-23.69403378754162],[-46.79092095471081,-23.69403378754162],[-46.79087483480696,-23.694098948183257],[-46.7908287149031,-23.694098948183257],[-46.79078259499924,-23.694098948183257],[-46.79078259499924,-23.693968626899984],[-46.7908287149031,-23.693838305616715],[-46.79092095471081,-23.693642823691807],[-46.79096707461467,-23.693512502408534],[-46.79101319451853,-23.6934473417669],[-46.79110543432625,-23.69325185984199],[-46.79110543432625,-23.69312153855872],[-46.791151554230105,-23.69312153855872],[-46.791151554230105,-23.693056377917085],[-46.79119767413396,-23.693056377917085],[-46.79119767413396,-23.69299121727545],[-46.79119767413396,-23.692926056633812],[-46.79124379403782,-23.692860895992176],[-46.79124379403782,-23.69279573535054],[-46.79124379403782,-23.692730574708904],[-46.79119767413396,-23.692665414067267],[-46.79119767413396,-23.69260025342563],[-46.791151554230105,-23.69260025342563],[-46.79110543432625,-23.692535092783995],[-46.79101319451853,-23.692404771500726],[-46.79092095471081,-23.692274450217454],[-46.7908287149031,-23.69214412893418],[-46.79069035519152,-23.69201380765091],[-46.79059811538381,-23.691883486367637],[-46.790505875576095,-23.691753165084368],[-46.79045975567224,-23.69168800444273],[-46.7902752760568,-23.691427361876187],[-46.79018303624909,-23.691297040592914],[-46.790090796441376,-23.691166719309642],[-46.7899524367298,-23.691036398026373],[-46.78990631682594,-23.690971237384737],[-46.7899524367298,-23.6909060767431],[-46.789998556633655,-23.6909060767431],[-46.7899524367298,-23.690840916101465],[-46.78990631682594,-23.690840916101465],[-46.78990631682594,-23.69077575545983],[-46.789860196922085,-23.69077575545983],[-46.789860196922085,-23.690710594818192],[-46.78981407701823,-23.690710594818192],[-46.78981407701823,-23.690645434176556],[-46.78976795711437,-23.690645434176556],[-46.78976795711437,-23.69058027353492],[-46.789721837210514,-23.69058027353492],[-46.78967571730666,-23.690515112893284],[-46.789629597402794,-23.69044995225165],[-46.789629597402794,-23.690384791610015],[-46.78958347749894,-23.69031963096838],[-46.789629597402794,-23.69031963096838],[-46.789629597402794,-23.690254470326742],[-46.78958347749894,-23.690254470326742],[-46.789629597402794,-23.690254470326742],[-46.789629597402794,-23.690189309685106],[-46.789629597402794,-23.69012414904347],[-46.78958347749894,-23.69012414904347],[-46.78958347749894,-23.690058988401834],[-46.78958347749894,-23.689993827760198],[-46.78958347749894,-23.68992866711856],[-46.789629597402794,-23.689863506476925],[-46.789721837210514,-23.689733185193656],[-46.78976795711437,-23.68966802455202],[-46.78981407701823,-23.689602863910384],[-46.78981407701823,-23.689537703268748],[-46.789860196922085,-23.689537703268748],[-46.789860196922085,-23.68947254262711],[-46.78990631682594,-23.68947254262711],[-46.78990631682594,-23.689407381985475],[-46.7899524367298,-23.689407381985475],[-46.7899524367298,-23.68934222134384],[-46.789998556633655,-23.68934222134384],[-46.789998556633655,-23.689277060702203],[-46.79004467653752,-23.689211900060567],[-46.790090796441376,-23.689211900060567],[-46.790090796441376,-23.68914673941893],[-46.79013691634523,-23.68914673941893],[-46.79013691634523,-23.689081578777298],[-46.79018303624909,-23.68901641813566],[-46.79022915615295,-23.68901641813566],[-46.79022915615295,-23.688951257494026],[-46.7902752760568,-23.688951257494026],[-46.7902752760568,-23.68888609685239],[-46.79032139596066,-23.68888609685239],[-46.790367515864524,-23.688820936210753],[-46.79041363576838,-23.688820936210753],[-46.79041363576838,-23.688755775569117],[-46.79041363576838,-23.68869061492748],[-46.79041363576838,-23.688625454285845],[-46.79045975567224,-23.688625454285845],[-46.79045975567224,-23.68856029364421],[-46.790505875576095,-23.68856029364421],[-46.790505875576095,-23.68842997236094],[-46.790505875576095,-23.688364811719303],[-46.790505875576095,-23.68823449043603],[-46.790505875576095,-23.688169329794395],[-46.790505875576095,-23.68810416915276],[-46.790505875576095,-23.688039008511122],[-46.790505875576095,-23.687973847869486],[-46.79055199547995,-23.687973847869486],[-46.79055199547995,-23.68790868722785],[-46.79055199547995,-23.687843526586214],[-46.79059811538381,-23.687843526586214],[-46.79059811538381,-23.68777836594458],[-46.790644235287665,-23.687713205302945],[-46.790644235287665,-23.68764804466131],[-46.790644235287665,-23.687582884019672],[-46.79069035519152,-23.687582884019672],[-46.79069035519152,-23.687517723378036],[-46.79069035519152,-23.6874525627364],[-46.79069035519152,-23.687387402094764],[-46.790736475095386,-23.687322241453128],[-46.790736475095386,-23.68725708081149],[-46.79078259499924,-23.687191920169855],[-46.79078259499924,-23.68712675952822],[-46.79078259499924,-23.687061598886586],[-46.79078259499924,-23.68699643824495],[-46.7908287149031,-23.686931277603314],[-46.79087483480696,-23.686866116961678],[-46.79092095471081,-23.68680095632004],[-46.79092095471081,-23.686735795678405],[-46.79092095471081,-23.68667063503677],[-46.79092095471081,-23.686605474395133],[-46.79092095471081,-23.686540313753497],[-46.79096707461467,-23.686540313753497],[-46.79096707461467,-23.68647515311186],[-46.79101319451853,-23.686344831828592],[-46.791059314422384,-23.686344831828592],[-46.791059314422384,-23.686279671186956],[-46.791059314422384,-23.68621451054532],[-46.79110543432625,-23.68621451054532],[-46.79110543432625,-23.686149349903683],[-46.79110543432625,-23.686084189262047],[-46.791151554230105,-23.68601902862041],[-46.791151554230105,-23.685953867978775],[-46.79119767413396,-23.68588870733714],[-46.79124379403782,-23.68588870733714],[-46.79119767413396,-23.68588870733714],[-46.79110543432625,-23.685693225412233],[-46.791059314422384,-23.685693225412233],[-46.791059314422384,-23.685628064770597],[-46.79101319451853,-23.685497743487325],[-46.79092095471081,-23.685367422204052],[-46.79092095471081,-23.685302261562416],[-46.79087483480696,-23.68523710092078],[-46.7908287149031,-23.68523710092078],[-46.7908287149031,-23.685171940279144],[-46.79078259499924,-23.685171940279144],[-46.79078259499924,-23.685106779637508],[-46.790736475095386,-23.685106779637508],[-46.79069035519152,-23.685106779637508],[-46.79059811538381,-23.685106779637508],[-46.79059811538381,-23.685171940279144],[-46.79059811538381,-23.685302261562416],[-46.79055199547995,-23.685367422204052],[-46.79055199547995,-23.685497743487325],[-46.790505875576095,-23.68556290412896],[-46.790505875576095,-23.685628064770597],[-46.79045975567224,-23.68575838605387],[-46.79041363576838,-23.685823546695502],[-46.790367515864524,-23.685953867978775],[-46.790367515864524,-23.68601902862041],[-46.79032139596066,-23.686149349903683],[-46.7902752760568,-23.68621451054532],[-46.7902752760568,-23.686279671186956],[-46.79022915615295,-23.686344831828592],[-46.79022915615295,-23.686409992470228],[-46.79018303624909,-23.686409992470228],[-46.79013691634523,-23.686409992470228],[-46.790090796441376,-23.686409992470228],[-46.790090796441376,-23.686344831828592],[-46.789998556633655,-23.686409992470228],[-46.7899524367298,-23.686279671186956],[-46.7899524367298,-23.686149349903683],[-46.78990631682594,-23.686084189262047],[-46.78990631682594,-23.68601902862041],[-46.78990631682594,-23.685953867978775],[-46.789860196922085,-23.685953867978775],[-46.78967571730666,-23.68575838605387],[-46.789629597402794,-23.685693225412233],[-46.78953735759508,-23.685628064770597],[-46.78949123769122,-23.68556290412896],[-46.789445117787366,-23.685497743487325],[-46.78939899788351,-23.685497743487325],[-46.78935287797965,-23.685497743487325],[-46.789306758075796,-23.685497743487325],[-46.789306758075796,-23.68556290412896],[-46.78926063817193,-23.68556290412896],[-46.789214518268075,-23.685628064770597],[-46.789214518268075,-23.685693225412233],[-46.78916839836422,-23.685823546695502],[-46.78898391874879,-23.68588870733714],[-46.788937798844934,-23.68588870733714],[-46.78884555903721,-23.685953867978775],[-46.788661079421786,-23.68601902862041],[-46.78847659980635,-23.686084189262047],[-46.788292120190924,-23.686149349903683],[-46.78810764057549,-23.686279671186956],[-46.787877041056205,-23.686344831828592],[-46.78769256144077,-23.686409992470228],[-46.7875542017292,-23.68647515311186],[-46.78741584201762,-23.686540313753497],[-46.78732360220991,-23.686605474395133],[-46.78704688278676,-23.686735795678405],[-46.787000762882904,-23.686735795678405],[-46.78677016336362,-23.686866116961678],[-46.78663180365204,-23.686931277603314],[-46.786447324036615,-23.68699643824495],[-46.7863550842289,-23.687061598886586],[-46.786216724517324,-23.68712675952822],[-46.78607836480575,-23.687191920169855],[-46.785940005094176,-23.687322241453128],[-46.78575552547875,-23.687387402094764],[-46.78561716576718,-23.6874525627364],[-46.785571045863314,-23.6874525627364],[-46.78538656624789,-23.687582884019672],[-46.785248206536316,-23.68764804466131],[-46.78510984682474,-23.687713205302945],[-46.78506372692088,-23.68777836594458],[-46.785017607017025,-23.68777836594458],[-46.78497148711317,-23.68777836594458],[-46.78497148711317,-23.687843526586214],[-46.78492536720931,-23.687843526586214],[-46.78492536720931,-23.68790868722785],[-46.78492536720931,-23.687973847869486],[-46.78497148711317,-23.688039008511122],[-46.78497148711317,-23.688169329794395],[-46.785017607017025,-23.68823449043603],[-46.78506372692088,-23.688299651077667],[-46.78506372692088,-23.688364811719303],[-46.78506372692088,-23.68842997236094],[-46.78506372692088,-23.688495133002572],[-46.78506372692088,-23.68856029364421],[-46.785017607017025,-23.688625454285845],[-46.78497148711317,-23.68869061492748],[-46.78492536720931,-23.688755775569117],[-46.78432580845916,-23.688625454285845],[-46.784141328843724,-23.688625454285845],[-46.78404908903601,-23.688625454285845],[-46.78400296913215,-23.688625454285845],[-46.7839568492283,-23.688625454285845],[-46.78391072932444,-23.688625454285845],[-46.78363400990129,-23.68856029364421],[-46.783587889997435,-23.68856029364421],[-46.783449530285864,-23.688495133002572],[-46.78331117057429,-23.688495133002572],[-46.783080571055,-23.68842997236094],[-46.78284997153571,-23.688364811719303],[-46.78261937201642,-23.688364811719303],[-46.782388772497136,-23.688299651077667],[-46.7822042928817,-23.688299651077667],[-46.78211205307399,-23.68823449043603],[-46.78206593317013,-23.68823449043603],[-46.782019813266274,-23.68823449043603],[-46.78118965499683,-23.68823449043603],[-46.78114353509297,-23.688169329794395],[-46.781097415189116,-23.68810416915276],[-46.781097415189116,-23.688039008511122],[-46.78105129528526,-23.687973847869486],[-46.7810051753814,-23.687973847869486],[-46.780959055477545,-23.687843526586214],[-46.78091293557369,-23.687713205302945],[-46.78082069576597,-23.687582884019672],[-46.78077457586211,-23.6874525627364],[-46.780728455958254,-23.687387402094764],[-46.780590096246684,-23.68712675952822],[-46.78054397634283,-23.68699643824495],[-46.780451736535106,-23.686866116961678],[-46.78040561663125,-23.68680095632004],[-46.780313376823536,-23.686605474395133],[-46.78026725691968,-23.686540313753497],[-46.78022113701582,-23.686409992470228],[-46.780175017111965,-23.686344831828592],[-46.78012889720811,-23.68621451054532],[-46.78003665740039,-23.686084189262047],[-46.779944417592674,-23.68588870733714],[-46.77989829768882,-23.685823546695502],[-46.77985217778496,-23.68575838605387],[-46.7798060578811,-23.685693225412233],[-46.7798060578811,-23.685628064770597],[-46.779759937977246,-23.68556290412896],[-46.779667698169526,-23.68543258284569],[-46.77962157826567,-23.685302261562416],[-46.77957545836181,-23.68523710092078],[-46.779529338457955,-23.685106779637508],[-46.7794832185541,-23.685041618995875],[-46.77943709865024,-23.684911297712603],[-46.77939097874638,-23.684846137070966],[-46.77934485884252,-23.68478097642933],[-46.77925261903481,-23.684650655146058],[-46.77920649913095,-23.684520333862785],[-46.77911425932324,-23.684390012579517],[-46.779022019515516,-23.684194530654608],[-46.77897589961166,-23.684129370012972],[-46.77897589961166,-23.684064209371336],[-46.7789297797078,-23.6839990487297],[-46.778883659803945,-23.683933888088063],[-46.77879141999623,-23.683738406163158],[-46.778745300092375,-23.683673245521522],[-46.7786069403808,-23.683477763596613],[-46.77856082047694,-23.68334744231334],[-46.77851470057308,-23.68321712103007],[-46.77842246076537,-23.683086799746796],[-46.77837634086151,-23.683021639105164],[-46.778330220957656,-23.682956478463527],[-46.778237981149935,-23.682826157180255],[-46.77819186124608,-23.682695835896983],[-46.77814574134222,-23.682630675255346],[-46.778099621438365,-23.682500353972074],[-46.77800738163065,-23.68230487204717],[-46.77750006268821,-23.681457783705902],[-46.7774078228805,-23.681262301780993],[-46.77726946316893,-23.681066819856085],[-46.77726946316893,-23.681001659214452],[-46.77722334326507,-23.68087133793118],[-46.77713110345735,-23.680741016647907],[-46.777038863649636,-23.680610695364635],[-46.77694662384192,-23.680415213439726],[-46.776900503938066,-23.680350052798094],[-46.776808264130345,-23.68021973151482],[-46.77671602432263,-23.680024249589913],[-46.776669904418775,-23.679959088948277],[-46.776531544707204,-23.6796332857401],[-46.77648542480335,-23.67943780381519],[-46.77643930489948,-23.679372643173554],[-46.77643930489948,-23.679307482531918],[-46.77643930489948,-23.67911200060701],[-46.77648542480335,-23.679046839965373],[-46.776531544707204,-23.67898167932374],[-46.77657766461106,-23.67885135804047],[-46.77662378451492,-23.678786197398832],[-46.776669904418775,-23.678786197398832],[-46.77671602432263,-23.67865587611556],[-46.77676214422649,-23.678590715473923],[-46.77676214422649,-23.678525554832287],[-46.77676214422649,-23.678395233549015],[-46.77676214422649,-23.678330072907382],[-46.77671602432263,-23.678264912265746],[-46.776669904418775,-23.67819975162411],[-46.776669904418775,-23.678134590982474],[-46.77662378451492,-23.678069430340837],[-46.776531544707204,-23.677939109057565],[-46.77648542480335,-23.67787394841593],[-46.77648542480335,-23.677808787774293],[-46.77643930489948,-23.677678466491024],[-46.77639318499563,-23.677613305849388],[-46.77634706509177,-23.67754814520775],[-46.77630094518791,-23.677482984566115],[-46.776254825284056,-23.677352663282843],[-46.7762087053802,-23.677287502641207],[-46.77616258547634,-23.67722234199957],[-46.776116465572485,-23.677157181357934],[-46.77607034566862,-23.677092020716298],[-46.776024225764765,-23.677026860074665],[-46.775885866053194,-23.676896538791393],[-46.77583974614934,-23.676831378149757],[-46.77579362624548,-23.67676621750812],[-46.77570138643776,-23.676701056866484],[-46.7756552665339,-23.676635896224848],[-46.77556302672619,-23.676505574941576],[-46.77551690682233,-23.676505574941576],[-46.775470786918476,-23.67644041429994],[-46.77542466701462,-23.67644041429994],[-46.77542466701462,-23.676375253658303],[-46.77537854711076,-23.676375253658303],[-46.7753324272069,-23.676375253658303],[-46.77528630730304,-23.67631009301667],[-46.775240187399184,-23.67631009301667],[-46.77519406749533,-23.67631009301667],[-46.775101827687614,-23.676244932375035],[-46.77505570778376,-23.676244932375035],[-46.774963467976036,-23.676244932375035],[-46.77487122816832,-23.6761797717334],[-46.774825108264466,-23.6761797717334],[-46.774686748552895,-23.676114611091762],[-46.77431778932203,-23.676049450450126],[-46.77427166941817,-23.676049450450126],[-46.77422554951431,-23.676049450450126],[-46.7741333097066,-23.676114611091762],[-46.7741333097066,-23.6761797717334],[-46.7741333097066,-23.67631009301667],[-46.7741333097066,-23.676570735583212],[-46.7741333097066,-23.676701056866484],[-46.7741333097066,-23.67676621750812],[-46.7741333097066,-23.676831378149757],[-46.774179429610456,-23.676896538791393],[-46.77408718980274,-23.676896538791393],[-46.77408718980274,-23.677157181357934],[-46.77408718980274,-23.67722234199957],[-46.774041069898885,-23.67722234199957],[-46.774041069898885,-23.677287502641207],[-46.77399494999503,-23.677352663282843],[-46.77394883009117,-23.677352663282843],[-46.77394883009117,-23.67741782392448],[-46.77390271018731,-23.67741782392448],[-46.77385659028345,-23.677482984566115],[-46.773810470379594,-23.67754814520775],[-46.77376435047574,-23.67754814520775],[-46.77367211066802,-23.677613305849388],[-46.773533750956446,-23.677743627132656],[-46.773395391244875,-23.677808787774293],[-46.77330315143716,-23.677939109057565],[-46.77321091162945,-23.6780042696992],[-46.77311867182173,-23.6780042696992],[-46.773026432014014,-23.678134590982474],[-46.77288807230244,-23.67819975162411],[-46.772841952398586,-23.67819975162411],[-46.772749712590866,-23.678264912265746],[-46.77265747278315,-23.678330072907382],[-46.77251911307158,-23.678395233549015],[-46.772472993167725,-23.67846039419065],[-46.772380753360004,-23.67846039419065],[-46.77233463345615,-23.678525554832287],[-46.77228851355229,-23.678525554832287],[-46.77224239364843,-23.678590715473923],[-46.77210403393686,-23.67865587611556],[-46.77201179412914,-23.67865587611556],[-46.77191955432143,-23.678786197398832],[-46.77168895480214,-23.678916518682104],[-46.77145835528285,-23.67898167932374],[-46.771412235378996,-23.679046839965373],[-46.771181635859705,-23.679177161248646],[-46.77090491643656,-23.679307482531918],[-46.7708587965327,-23.679372643173554],[-46.77081267662884,-23.679372643173554],[-46.77072043682113,-23.67943780381519],[-46.77067431691727,-23.679502964456827],[-46.770628197013416,-23.679502964456827],[-46.770628197013416,-23.679568125098463],[-46.77058207710955,-23.679568125098463],[-46.77058207710955,-23.6796332857401],[-46.770535957205695,-23.679698446381735],[-46.77048983730184,-23.679698446381735],[-46.77048983730184,-23.679763607023368],[-46.77044371739798,-23.679828767665004],[-46.77044371739798,-23.67989392830664],[-46.770397597494124,-23.679959088948277],[-46.770397597494124,-23.680024249589913],[-46.770397597494124,-23.68008941023155],[-46.770397597494124,-23.680154570873185],[-46.770397597494124,-23.68021973151482],[-46.770397597494124,-23.680284892156457],[-46.770397597494124,-23.680350052798094],[-46.77035147759027,-23.680350052798094],[-46.77035147759027,-23.680415213439726],[-46.77030535768641,-23.680480374081363],[-46.77021311787869,-23.680610695364635],[-46.77016699797483,-23.680610695364635],[-46.770120878070976,-23.68067585600627],[-46.77007475816712,-23.68067585600627],[-46.77002863826326,-23.68067585600627],[-46.769982518359406,-23.680741016647907],[-46.76993639845555,-23.680741016647907],[-46.769751918840115,-23.680741016647907],[-46.76970579893626,-23.680806177289544],[-46.7696596790324,-23.680806177289544],[-46.769613559128544,-23.680806177289544],[-46.76956743922469,-23.68087133793118],[-46.76952131932083,-23.680936498572816],[-46.76952131932083,-23.681001659214452],[-46.76952131932083,-23.681066819856085],[-46.76952131932083,-23.68113198049772],[-46.76952131932083,-23.681197141139357],[-46.76952131932083,-23.68132746242263],[-46.76952131932083,-23.681457783705902],[-46.76942907951311,-23.681457783705902],[-46.769106240186105,-23.681457783705902],[-46.76887564066682,-23.681522944347538],[-46.7687834008591,-23.681522944347538],[-46.76873728095524,-23.681522944347538],[-46.76873728095524,-23.681457783705902],[-46.768691161051386,-23.681457783705902],[-46.76864504114753,-23.681392623064266],[-46.76859892124367,-23.68132746242263],[-46.76859892124367,-23.681262301780993],[-46.76859892124367,-23.68113198049772],[-46.76859892124367,-23.681066819856085],[-46.768552801339816,-23.681066819856085],[-46.768552801339816,-23.681001659214452],[-46.76850668143596,-23.680936498572816],[-46.76841444162824,-23.68067585600627],[-46.768322201820524,-23.680545534723],[-46.76822996201281,-23.680350052798094],[-46.7681377222051,-23.680154570873185],[-46.768045482397376,-23.679959088948277],[-46.767907122685806,-23.679698446381735],[-46.767768762974235,-23.67943780381519],[-46.767768762974235,-23.679372643173554],[-46.767676523166514,-23.679307482531918],[-46.76763040326266,-23.679242321890282],[-46.767538163454944,-23.67911200060701],[-46.76744592364723,-23.67898167932374],[-46.76739980374337,-23.678916518682104],[-46.76735368383952,-23.67885135804047],[-46.76730756393565,-23.678786197398832],[-46.76721532412794,-23.67865587611556],[-46.76680024499322,-23.678134590982474],[-46.76666188528165,-23.677939109057565],[-46.76656964547393,-23.677808787774293],[-46.76643128576236,-23.677613305849388],[-46.76620068624307,-23.677352663282843],[-46.765923966819926,-23.67696169943303],[-46.76573948720449,-23.676635896224848],[-46.765555007589064,-23.67644041429994],[-46.76537052797363,-23.6761797717334],[-46.76523216826206,-23.67598428980849],[-46.76509380855048,-23.67578880788358],[-46.7648632090312,-23.67552816531704],[-46.76467872941576,-23.67520236210886],[-46.764494249800336,-23.675006880183954],[-46.7643097701849,-23.675072040825587],[-46.7643097701849,-23.675137201467223],[-46.7643097701849,-23.675072040825587],[-46.764263650281045,-23.675072040825587],[-46.764263650281045,-23.675006880183954],[-46.76421753037719,-23.674941719542318],[-46.76417141047333,-23.674811398259045],[-46.76417141047333,-23.67474623761741],[-46.764125290569474,-23.67474623761741],[-46.764125290569474,-23.674681076975773],[-46.76407917066562,-23.6745507556925],[-46.76403305076175,-23.674485595050864],[-46.7639869308579,-23.674420434409228],[-46.76394081095404,-23.674355273767592],[-46.76394081095404,-23.67429011312596],[-46.76389469105018,-23.67429011312596],[-46.763848571146326,-23.674159791842687],[-46.763848571146326,-23.67409463120105],[-46.76380245124247,-23.67409463120105],[-46.76380245124247,-23.674029470559415],[-46.76375633133861,-23.67396430991778],[-46.76375633133861,-23.673899149276142],[-46.763710211434756,-23.673899149276142],[-46.76366409153089,-23.67376882799287],[-46.763617971627035,-23.673703667351234],[-46.763617971627035,-23.6736385067096],[-46.76357185172318,-23.6736385067096],[-46.76357185172318,-23.673573346067965],[-46.76357185172318,-23.67350818542633],[-46.76352573181932,-23.673443024784692],[-46.763479611915464,-23.673377864143056],[-46.76343349201161,-23.67331270350142],[-46.76338737210775,-23.673247542859784],[-46.76329513230003,-23.673182382218148],[-46.76324901239617,-23.673182382218148],[-46.763202892492316,-23.67311722157651],[-46.76315677258846,-23.673052060934875],[-46.7631106526846,-23.672986900293242],[-46.763064532780746,-23.672986900293242],[-46.763064532780746,-23.672921739651606],[-46.76301841287689,-23.672921739651606],[-46.76297229297303,-23.672921739651606],[-46.76297229297303,-23.67285657900997],[-46.76292617306917,-23.67285657900997],[-46.76292617306917,-23.672791418368334],[-46.76288005316531,-23.672726257726698],[-46.762833933261454,-23.672595936443425],[-46.7627878133576,-23.67253077580179],[-46.7627878133576,-23.672465615160153],[-46.76274169345374,-23.672400454518517],[-46.76274169345374,-23.67233529387688],[-46.76274169345374,-23.672270133235248],[-46.76274169345374,-23.67220497259361],[-46.76274169345374,-23.672139811951975],[-46.76274169345374,-23.67207465131034],[-46.7627878133576,-23.672009490668703],[-46.7627878133576,-23.671944330027067],[-46.7627878133576,-23.67187916938543],[-46.7627878133576,-23.671814008743794],[-46.76274169345374,-23.67174884810216],[-46.76274169345374,-23.671683687460522],[-46.762695573549884,-23.671683687460522],[-46.762695573549884,-23.67161852681889],[-46.76264945364603,-23.671553366177253],[-46.76264945364603,-23.67142304489398],[-46.76260333374217,-23.67142304489398],[-46.76260333374217,-23.671357884252345],[-46.762557213838306,-23.67129272361071],[-46.762557213838306,-23.671227562969072],[-46.762557213838306,-23.671162402327436],[-46.762557213838306,-23.6710972416858],[-46.762557213838306,-23.671032081044164],[-46.76251109393445,-23.671032081044164],[-46.76251109393445,-23.67096692040253],[-46.76251109393445,-23.670901759760895],[-46.76251109393445,-23.67083659911926],[-46.76246497403059,-23.670771438477622],[-46.76246497403059,-23.670706277835986],[-46.762418854126736,-23.670575956552714],[-46.762418854126736,-23.670510795911078],[-46.76237273422288,-23.67044563526944],[-46.76237273422288,-23.670380474627805],[-46.76232661431902,-23.67031531398617],[-46.76232661431902,-23.670250153344536],[-46.762280494415165,-23.6701849927029],[-46.762280494415165,-23.670119832061264],[-46.762280494415165,-23.670054671419628],[-46.762280494415165,-23.66998951077799],[-46.762280494415165,-23.669924350136355],[-46.762280494415165,-23.66985918949472],[-46.762280494415165,-23.669794028853083],[-46.762280494415165,-23.669728868211447],[-46.76232661431902,-23.669598546928178],[-46.76232661431902,-23.669533386286542],[-46.762280494415165,-23.66940306500327],[-46.762280494415165,-23.669337904361633],[-46.76223437451131,-23.669272743719997],[-46.762188254607445,-23.66920758307836],[-46.76214213470359,-23.66920758307836],[-46.762049894895874,-23.669142422436725],[-46.76200377499202,-23.66907726179509],[-46.76195765508816,-23.669012101153452],[-46.7619115351843,-23.668881779870183],[-46.7619115351843,-23.668816619228547],[-46.7619115351843,-23.66875145858691],[-46.76186541528045,-23.668686297945275],[-46.76181929537658,-23.66862113730364],[-46.76181929537658,-23.668555976662002],[-46.76181929537658,-23.668490816020366],[-46.761773175472726,-23.66842565537873],[-46.76172705556887,-23.668360494737094],[-46.76168093566501,-23.668230173453825],[-46.76168093566501,-23.66816501281219],[-46.76168093566501,-23.668034691528916],[-46.76168093566501,-23.66796953088728],[-46.76168093566501,-23.667904370245644],[-46.76172705556887,-23.667839209604008],[-46.76172705556887,-23.667708888320735],[-46.76172705556887,-23.6676437276791],[-46.76172705556887,-23.667578567037467],[-46.76172705556887,-23.66751340639583],[-46.76172705556887,-23.667448245754194],[-46.76172705556887,-23.667383085112558],[-46.76172705556887,-23.66731792447092],[-46.76172705556887,-23.667252763829286],[-46.76172705556887,-23.66718760318765],[-46.76172705556887,-23.667122442546013],[-46.76172705556887,-23.667057281904377],[-46.76172705556887,-23.66699212126274],[-46.76172705556887,-23.666926960621108],[-46.761773175472726,-23.666926960621108],[-46.761773175472726,-23.666861799979472],[-46.76181929537658,-23.666796639337836],[-46.76186541528045,-23.6667314786962],[-46.76186541528045,-23.666666318054563],[-46.76186541528045,-23.666601157412927],[-46.7619115351843,-23.666470836129655],[-46.7619115351843,-23.666014711638205],[-46.76186541528045,-23.665819229713296],[-46.761773175472726,-23.665623747788388],[-46.761773175472726,-23.665558587146755],[-46.76172705556887,-23.66549342650512],[-46.7615886958573,-23.665232783938574],[-46.761496456049585,-23.6651024626553],[-46.76135809633801,-23.664776659447124],[-46.76135809633801,-23.664711498805488],[-46.76131197643415,-23.664711498805488],[-46.76121973662644,-23.664581177522216],[-46.76112749681872,-23.664385695597307],[-46.760989137107146,-23.66432053495567],[-46.76089689729943,-23.66425537431404],[-46.760712417684,-23.664125053030766],[-46.760620177876284,-23.66405989238913],[-46.76048181816471,-23.663994731747493],[-46.760389578357,-23.663929571105857],[-46.76029733854928,-23.663929571105857],[-46.760205098741565,-23.663799249822585],[-46.76011285893385,-23.66373408918095],[-46.759974499222274,-23.663668928539312],[-46.7598361395107,-23.663538607256044],[-46.75979001960685,-23.663473446614407],[-46.75969777979913,-23.663343125331135],[-46.759651659895276,-23.6632779646895],[-46.759559420087555,-23.663147643406226],[-46.75946718027984,-23.66308248276459],[-46.75937494047213,-23.662952161481318],[-46.759282700664414,-23.66282184019805],[-46.75914434095284,-23.66262635827314],[-46.75905210114512,-23.662496036989868],[-46.75895986133741,-23.662365715706596],[-46.75886762152969,-23.662235394423327],[-46.758775381721975,-23.66217023378169],[-46.75872926181812,-23.662105073140054],[-46.75868314191426,-23.662105073140054],[-46.75859090210655,-23.662039912498418],[-46.75840642249111,-23.661909591215146],[-46.758360302587256,-23.66184443057351],[-46.758360302587256,-23.661714109290237],[-46.758360302587256,-23.6616489486486],[-46.758360302587256,-23.661583788006965],[-46.75840642249111,-23.661518627365332],[-46.758360302587256,-23.661453466723696],[-46.7583141826834,-23.661323145440424],[-46.75826806277954,-23.66119282415715],[-46.758221942875686,-23.66106250287388],[-46.75817582297182,-23.660997342232243],[-46.758129703067965,-23.660867020948974],[-46.75808358316411,-23.660801860307338],[-46.757991343356395,-23.660671539024065],[-46.757991343356395,-23.66060637838243],[-46.75794522345254,-23.660476057099157],[-46.75789910354868,-23.66041089645752],[-46.75789910354868,-23.660345735815884],[-46.75789910354868,-23.660280575174248],[-46.757852983644824,-23.660215414532615],[-46.75780686374096,-23.66015025389098],[-46.75780686374096,-23.660085093249343],[-46.757852983644824,-23.660019932607707],[-46.75789910354868,-23.660019932607707],[-46.75789910354868,-23.65995477196607],[-46.75794522345254,-23.65995477196607],[-46.75794522345254,-23.659889611324434],[-46.757991343356395,-23.659889611324434],[-46.757991343356395,-23.659824450682798],[-46.75803746326025,-23.659759290041162],[-46.75803746326025,-23.659694129399526],[-46.75803746326025,-23.65962896875789],[-46.75808358316411,-23.659563808116253],[-46.75808358316411,-23.65949864747462],[-46.75808358316411,-23.659433486832985],[-46.75808358316411,-23.65936832619135],[-46.75803746326025,-23.65936832619135],[-46.75803746326025,-23.659303165549712],[-46.75794522345254,-23.659238004908076],[-46.75789910354868,-23.65917284426644],[-46.757852983644824,-23.659107683624804],[-46.7577607438371,-23.659042522983167],[-46.757714623933246,-23.65897736234153],[-46.75766850402939,-23.658847041058262],[-46.75762238412553,-23.658781880416626],[-46.757576264221676,-23.658781880416626],[-46.75753014431782,-23.658781880416626],[-46.75748402441396,-23.658781880416626],[-46.75748402441396,-23.65871671977499],[-46.7574379045101,-23.65871671977499],[-46.75739178460624,-23.65871671977499],[-46.757345664702385,-23.65871671977499],[-46.75725342489467,-23.658651559133354],[-46.757207304990814,-23.658651559133354],[-46.757207304990814,-23.658586398491718],[-46.75716118508696,-23.65852123785008],[-46.7571150651831,-23.65852123785008],[-46.75706894527924,-23.658456077208445],[-46.75702282537538,-23.65839091656681],[-46.756930585567666,-23.658325755925173],[-46.75688446566381,-23.658260595283537],[-46.75683834575995,-23.658195434641904],[-46.756792225856096,-23.658195434641904],[-46.756792225856096,-23.658130274000268],[-46.75674610595224,-23.65806511335863],[-46.756699986048375,-23.65806511335863],[-46.756699986048375,-23.65793479207536],[-46.75674610595224,-23.65793479207536],[-46.75674610595224,-23.657869631433723],[-46.75674610595224,-23.657804470792087],[-46.756792225856096,-23.65773931015045],[-46.75683834575995,-23.657674149508814],[-46.75683834575995,-23.657608988867178],[-46.75688446566381,-23.657608988867178],[-46.75688446566381,-23.657543828225542],[-46.756930585567666,-23.65747866758391],[-46.756930585567666,-23.657413506942273],[-46.75697670547152,-23.657348346300637],[-46.756930585567666,-23.657218025017364],[-46.756930585567666,-23.65715286437573],[-46.75688446566381,-23.65715286437573],[-46.75688446566381,-23.657087703734092],[-46.75683834575995,-23.657022543092456],[-46.75674610595224,-23.65695738245082],[-46.75665386614452,-23.656892221809183],[-46.75660774624066,-23.65682706116755],[-46.756561626336804,-23.656761900525915],[-46.75651550643295,-23.65669673988428],[-46.75646938652909,-23.656631579242642],[-46.756423266625234,-23.656566418601006],[-46.756423266625234,-23.65650125795937],[-46.75637714672138,-23.65650125795937],[-46.75637714672138,-23.656436097317734],[-46.75637714672138,-23.656370936676097],[-46.75633102681751,-23.65630577603446],[-46.756284906913656,-23.656240615392825],[-46.75619266710594,-23.656175454751192],[-46.75619266710594,-23.656110294109556],[-46.756146547202086,-23.656110294109556],[-46.756146547202086,-23.65604513346792],[-46.75610042729823,-23.655979972826284],[-46.75605430739437,-23.655914812184648],[-46.756008187490515,-23.65584965154301],[-46.75596206758665,-23.65571933025974],[-46.75596206758665,-23.655654169618103],[-46.755915947682794,-23.655589008976467],[-46.75586982777894,-23.65552384833483],[-46.75582370787508,-23.65552384833483],[-46.75582370787508,-23.655458687693198],[-46.755777587971224,-23.655458687693198],[-46.75573146806737,-23.65539352705156],[-46.75563922825965,-23.65539352705156],[-46.75559310835579,-23.655328366409925],[-46.75559310835579,-23.65526320576829],[-46.75554698845193,-23.655198045126653],[-46.755500868548076,-23.65506772384338],[-46.755500868548076,-23.655002563201744],[-46.75545474864422,-23.65493740256011],[-46.75545474864422,-23.654872241918472],[-46.75540862874036,-23.654741920635203],[-46.755362508836505,-23.654676759993567],[-46.755362508836505,-23.65461159935193],[-46.75531638893265,-23.654546438710295],[-46.75527026902879,-23.65448127806866],[-46.75527026902879,-23.654416117427022],[-46.75522414912493,-23.654416117427022],[-46.75517802922107,-23.654350956785386],[-46.75499354960564,-23.654220635502114],[-46.75499354960564,-23.65415547486048],[-46.75499354960564,-23.654090314218845],[-46.75499354960564,-23.65402515357721],[-46.75499354960564,-23.653959992935572],[-46.75494742970179,-23.653764511010664],[-46.75494742970179,-23.653699350369028],[-46.75490130979793,-23.65363418972739],[-46.75480906999021,-23.65350386844412],[-46.75476295008635,-23.65337354716085],[-46.75462459037478,-23.65317806523594],[-46.754578470470925,-23.65304774395267],[-46.754486230663204,-23.652917422669397],[-46.75444011075935,-23.65285226202776],[-46.75430175104778,-23.652526458819583],[-46.75420951124006,-23.65239613753631],[-46.754071151528485,-23.652200655611402],[-46.75397891172077,-23.652070334328133],[-46.753932791816915,-23.65194001304486],[-46.75388667191306,-23.65180969176159],[-46.75365607239377,-23.65161420983668],[-46.75319487335519,-23.650245836362327],[-46.7529642738359,-23.64959422994597],[-46.75301039373976,-23.64959422994597],[-46.75291815393204,-23.64926842673779],[-46.75287203402819,-23.64926842673779],[-46.75301039373976,-23.649203266096155],[-46.75310263354748,-23.649203266096155],[-46.753148753451335,-23.649203266096155],[-46.75333323306676,-23.64913810545452],[-46.75337935297062,-23.64913810545452],[-46.753425472874476,-23.64913810545452],[-46.753517712682196,-23.64913810545452],[-46.75365607239377,-23.649072944812882],[-46.75365607239377,-23.648877462887974],[-46.753702192297624,-23.648877462887974],[-46.753702192297624,-23.648812302246338],[-46.75374831220148,-23.648812302246338],[-46.75379443210534,-23.648812302246338],[-46.7538405520092,-23.648812302246338],[-46.753932791816915,-23.648747141604705],[-46.75402503162463,-23.648747141604705],[-46.75411727143234,-23.648747141604705],[-46.754347870951634,-23.648747141604705],[-46.754486230663204,-23.64868198096307],[-46.75453235056707,-23.64868198096307],[-46.75467071027864,-23.64868198096307],[-46.75476295008635,-23.64868198096307],[-46.754855189894066,-23.64868198096307],[-46.75490130979793,-23.648616820321433],[-46.75494742970179,-23.648616820321433],[-46.75499354960564,-23.648616820321433],[-46.7550396695095,-23.648616820321433],[-46.75508578941336,-23.648616820321433],[-46.75517802922107,-23.648616820321433],[-46.75522414912493,-23.648616820321433],[-46.75527026902879,-23.648616820321433],[-46.755362508836505,-23.648616820321433],[-46.756008187490515,-23.648616820321433],[-46.756561626336804,-23.64868198096307],[-46.75706894527924,-23.64868198096307],[-46.75729954479853,-23.64868198096307],[-46.757576264221676,-23.64868198096307],[-46.757714623933246,-23.64868198096307],[-46.757852983644824,-23.64868198096307],[-46.757991343356395,-23.64868198096307],[-46.75808358316411,-23.64868198096307],[-46.75817582297182,-23.64868198096307],[-46.758221942875686,-23.64868198096307],[-46.75826806277954,-23.64868198096307],[-46.75849866229883,-23.648616820321433],[-46.75849866229883,-23.648356177754888],[-46.75845254239497,-23.64816069582998],[-46.758360302587256,-23.647965213905074],[-46.75826806277954,-23.647769731980166],[-46.758129703067965,-23.64750908941362],[-46.75794522345254,-23.647313607488716],[-46.7577607438371,-23.647118125563807],[-46.7574379045101,-23.646857482997262],[-46.75716118508696,-23.646727161713994],[-46.75702282537538,-23.64659684043072],[-46.75674610595224,-23.646401358505813],[-46.75651550643295,-23.64627103722254],[-46.75637714672138,-23.646205876580904],[-46.7562387870098,-23.646140715939268],[-46.756008187490515,-23.646075555297635],[-46.75568534816351,-23.646010394656],[-46.75540862874036,-23.645945234014363],[-46.75517802922107,-23.645880073372727],[-46.75494742970179,-23.645880073372727],[-46.754716830182495,-23.645880073372727],[-46.754486230663204,-23.645880073372727],[-46.754163391336206,-23.645880073372727],[-46.753932791816915,-23.645945234014363],[-46.75379443210534,-23.645945234014363],[-46.75356383258605,-23.646010394656],[-46.75324099325905,-23.645945234014363],[-46.75301039373976,-23.645880073372727],[-46.75277979422047,-23.645749752089454],[-46.75254919470118,-23.645619430806182],[-46.75241083498961,-23.645554270164546],[-46.75222635537418,-23.64548910952291],[-46.75199575585489,-23.645423948881277],[-46.7517651563356,-23.64535878823964],[-46.75158067672017,-23.64535878823964],[-46.75125783739317,-23.64535878823964],[-46.75102723787388,-23.645293627598004],[-46.750796638354586,-23.645228466956368],[-46.75061215873916,-23.645163306314732],[-46.750427679123725,-23.645098145673096],[-46.750289319412154,-23.644967824389823],[-46.75005871989286,-23.64483750310655],[-46.74982812037358,-23.644772342464915],[-46.74973588056586,-23.644642021181646],[-46.749643640758144,-23.64457686054001],[-46.74955140095043,-23.644511699898374],[-46.74941304123886,-23.644446539256737],[-46.74932080143114,-23.6443813786151],[-46.74913632181571,-23.64425105733183],[-46.74895184220028,-23.644185896690193],[-46.74881348248871,-23.644055575406924],[-46.74853676306556,-23.64392525412365],[-46.74835228345013,-23.64379493284038],[-46.7481678038347,-23.64359945091547],[-46.74802944412313,-23.643534290273834],[-46.74789108441155,-23.643403968990565],[-46.74798332421927,-23.64333880834893],[-46.747937204315406,-23.643273647707293],[-46.74784496450769,-23.643208487065657],[-46.747798844603835,-23.64314332642402],[-46.74775272469998,-23.643078165782384],[-46.74770660479612,-23.643013005140748],[-46.747660484892265,-23.643013005140748],[-46.747660484892265,-23.642947844499112],[-46.74761436498841,-23.642947844499112],[-46.74761436498841,-23.642882683857476],[-46.747568245084544,-23.642882683857476],[-46.747568245084544,-23.64281752321584],[-46.74747600527683,-23.642622041290934],[-46.74742988537297,-23.6425568806493],[-46.74742988537297,-23.642491720007662],[-46.74738376546912,-23.64236139872439],[-46.74738376546912,-23.642296238082753],[-46.74738376546912,-23.642231077441117],[-46.74733764556526,-23.642100756157845],[-46.74733764556526,-23.641970434874576],[-46.74733764556526,-23.641774952949667],[-46.7472915256614,-23.64157947102476],[-46.7472915256614,-23.641514310383123],[-46.7472915256614,-23.641383989099854],[-46.7472915256614,-23.64125366781658],[-46.747245405757546,-23.641188507174945],[-46.747245405757546,-23.6409278646084],[-46.747245405757546,-23.640797543325128],[-46.74719928585368,-23.640536900758587],[-46.74710704604597,-23.640536900758587],[-46.74706092614211,-23.640536900758587],[-46.747014806238255,-23.640536900758587],[-46.74673808681511,-23.640602061400223],[-46.74664584700739,-23.64066722204186],[-46.746599727103536,-23.64066722204186],[-46.74655360719968,-23.64066722204186],[-46.74650748729582,-23.640732382683492],[-46.74646136739196,-23.640732382683492],[-46.7464152474881,-23.640797543325128],[-46.746369127584245,-23.640862703966764],[-46.746230767872675,-23.6409278646084],[-46.74618464796882,-23.6409278646084],[-46.7460924081611,-23.640993025250037],[-46.74600016835338,-23.640993025250037],[-46.745954048449526,-23.641058185891673],[-46.74586180864181,-23.641058185891673],[-46.745815688737956,-23.641058185891673],[-46.74563120912252,-23.64112334653331],[-46.74540060960324,-23.641188507174945],[-46.74507777027623,-23.641318828458218],[-46.74484717075694,-23.641383989099854],[-46.74457045133379,-23.641449149741486],[-46.74424761200679,-23.64157947102476],[-46.74397089258365,-23.641644631666395],[-46.74378641296821,-23.64170979230803],[-46.743509693545064,-23.641840113591304],[-46.74346357364121,-23.641840113591304],[-46.743371333833494,-23.641840113591304],[-46.743371333833494,-23.64190527423294],[-46.74332521392964,-23.64190527423294],[-46.74323297412192,-23.64190527423294],[-46.7431407343142,-23.64190527423294],[-46.742956254698775,-23.64190527423294],[-46.7428178949872,-23.641970434874576],[-46.74277177508334,-23.641970434874576],[-46.74267953527563,-23.641970434874576],[-46.74263341537177,-23.641970434874576],[-46.742587295467914,-23.64190527423294],[-46.742448935756336,-23.64190527423294],[-46.74240281585248,-23.64190527423294],[-46.742310576044765,-23.641840113591304],[-46.74221833623705,-23.641840113591304],[-46.74212609642934,-23.641840113591304],[-46.742079976525474,-23.641840113591304],[-46.74203385662162,-23.641840113591304],[-46.741941616813904,-23.641840113591304],[-46.74189549691005,-23.641840113591304],[-46.74184937700619,-23.641840113591304],[-46.74148041777533,-23.641970434874576],[-46.74134205806375,-23.641970434874576],[-46.74115757844832,-23.641970434874576],[-46.74101921873675,-23.642035595516212],[-46.74092697892903,-23.642035595516212],[-46.74083473912132,-23.642035595516212],[-46.740742499313605,-23.642035595516212],[-46.74069637940975,-23.642035595516212],[-46.74060413960203,-23.642035595516212],[-46.74046577989046,-23.642100756157845],[-46.74037354008274,-23.642100756157845],[-46.740327420178886,-23.642100756157845],[-46.740235180371165,-23.642100756157845],[-46.74018906046731,-23.642100756157845],[-46.740096820659595,-23.64216591679948],[-46.74005070075574,-23.64216591679948],[-46.739958460948024,-23.64216591679948],[-46.7398662211403,-23.64216591679948],[-46.73982010123645,-23.642231077441117],[-46.73977398133259,-23.642231077441117],[-46.73972786142873,-23.642296238082753],[-46.739681741524876,-23.642296238082753],[-46.739681741524876,-23.64236139872439],[-46.739543381813306,-23.64236139872439],[-46.739451142005585,-23.64236139872439],[-46.739312782294014,-23.642426559366026],[-46.7392205424863,-23.642426559366026],[-46.73908218277472,-23.642426559366026],[-46.739036062870866,-23.642491720007662],[-46.738897703159296,-23.642491720007662],[-46.73880546335158,-23.642491720007662],[-46.738344264313,-23.6425568806493],[-46.73829814440914,-23.6425568806493],[-46.738252024505286,-23.6425568806493],[-46.73806754488985,-23.642622041290934],[-46.737883065274424,-23.642622041290934],[-46.73756022594742,-23.64268720193257],[-46.73728350652427,-23.642752362574203],[-46.737237386620414,-23.642752362574203],[-46.73700678710113,-23.64281752321584],[-46.73686842738955,-23.64281752321584],[-46.73673006767798,-23.642882683857476],[-46.73663782787027,-23.64281752321584],[-46.73649946815869,-23.642882683857476],[-46.736453348254834,-23.642882683857476],[-46.73640722835098,-23.642882683857476],[-46.73626886863941,-23.642947844499112],[-46.73622274873554,-23.642947844499112],[-46.73613050892783,-23.642947844499112],[-46.73608438902397,-23.643013005140748],[-46.736038269120115,-23.643013005140748],[-46.7359460293124,-23.643013005140748],[-46.735899909408545,-23.643013005140748],[-46.735807669600824,-23.643078165782384],[-46.73566930988925,-23.643078165782384],[-46.73553095017768,-23.64314332642402],[-46.73543871036996,-23.64314332642402],[-46.735392590466105,-23.643208487065657],[-46.73534647056225,-23.643208487065657],[-46.73530035065839,-23.643208487065657],[-46.73516199094682,-23.643273647707293],[-46.73511587104296,-23.643273647707293],[-46.73465467200438,-23.64333880834893],[-46.73451631229281,-23.64333880834893],[-46.7344240724851,-23.64333880834893],[-46.73428571277352,-23.643403968990565],[-46.73414735306195,-23.643403968990565],[-46.734055113254236,-23.643469129632198],[-46.73377839383109,-23.643469129632198],[-46.73359391421565,-23.643534290273834],[-46.73350167440794,-23.643534290273834],[-46.73336331469637,-23.64359945091547],[-46.73322495498479,-23.64359945091547],[-46.733178835080935,-23.64359945091547],[-46.733040475369364,-23.64359945091547],[-46.73294823556164,-23.643664611557107],[-46.73280987585007,-23.643664611557107],[-46.73271763604236,-23.643664611557107],[-46.7326715161385,-23.643664611557107],[-46.73257927633078,-23.643664611557107],[-46.73248703652307,-23.643729772198743],[-46.732394796715354,-23.643729772198743],[-46.73230255690764,-23.643729772198743],[-46.73216419719606,-23.643729772198743],[-46.73188747777292,-23.64379493284038],[-46.731749118061344,-23.643860093482015],[-46.731610758349774,-23.64392525412365],[-46.731472398638196,-23.64392525412365],[-46.73138015883048,-23.64392525412365],[-46.731195679215055,-23.643990414765288],[-46.73101119959962,-23.643990414765288],[-46.730688360272616,-23.644120736048556],[-46.7305961204649,-23.644185896690193],[-46.73050388065719,-23.644185896690193],[-46.730411640849475,-23.644185896690193],[-46.73036552094561,-23.644185896690193],[-46.7302732811379,-23.64425105733183],[-46.730181041330184,-23.64425105733183],[-46.73008880152247,-23.64425105733183],[-46.72995044181089,-23.64425105733183],[-46.72985820200318,-23.64425105733183],[-46.729765962195465,-23.644316217973465],[-46.72971984229161,-23.644316217973465],[-46.72967372238775,-23.644316217973465],[-46.72962760248389,-23.644316217973465],[-46.729535362676174,-23.644316217973465],[-46.72935088306075,-23.644316217973465],[-46.729258643253026,-23.644316217973465],[-46.72916640344531,-23.644316217973465],[-46.72884356411831,-23.644316217973465],[-46.72875132431059,-23.644316217973465],[-46.72861296459902,-23.644316217973465],[-46.7285207247913,-23.644316217973465],[-46.72842848498359,-23.644316217973465],[-46.72796728594501,-23.6443813786151],[-46.7278750461373,-23.6443813786151],[-46.727690566521865,-23.6443813786151],[-46.726491449021566,-23.644511699898374],[-46.72653756892542,-23.644902663748187],[-46.72653756892542,-23.646531679789085],[-46.726491449021566,-23.647118125563807],[-46.72639920921385,-23.647574250055257],[-46.72621472959842,-23.648421338396524],[-46.72593801017527,-23.64913810545452],[-46.725615170848265,-23.64972455122924],[-46.725338451425124,-23.65018067572069],[-46.725061732001976,-23.65050647892887],[-46.72432381354025,-23.65135356727014],[-46.72353977517467,-23.652330976894675],[-46.72257125719366,-23.65363418972739],[-46.72081870084706,-23.65552384833483],[-46.719711823154476,-23.656892221809183],[-46.7204497416162,-23.656892221809183],[-46.720772580943205,-23.65695738245082],[-46.72104930036635,-23.657022543092456],[-46.72123377998178,-23.657087703734092],[-46.721418259597215,-23.657218025017364],[-46.72160273921264,-23.657348346300637],[-46.72174109892422,-23.65747866758391],[-46.722340657674366,-23.658586398491718],[-46.722617377097514,-23.659694129399526],[-46.72344753536696,-23.662952161481318],[-46.72455441305954,-23.66699212126274],[-46.7246005329634,-23.66718760318765],[-46.725061732001976,-23.668686297945275],[-46.72515397180969,-23.66894694051182],[-46.7252462116174,-23.66907726179509],[-46.72538457132898,-23.66920758307836],[-46.725615170848265,-23.66940306500327],[-46.726629808733136,-23.66998951077799],[-46.72722936748329,-23.67044563526944],[-46.72764444661801,-23.670771438477622],[-46.72764444661801,-23.67083659911926],[-46.72759832671415,-23.67083659911926],[-46.72759832671415,-23.670901759760895],[-46.727552206810294,-23.670901759760895],[-46.727552206810294,-23.67096692040253],[-46.72750608690644,-23.67096692040253],[-46.72750608690644,-23.671032081044164],[-46.72750608690644,-23.6710972416858],[-46.72750608690644,-23.671162402327436],[-46.72750608690644,-23.671227562969072],[-46.72750608690644,-23.67129272361071],[-46.72750608690644,-23.671357884252345],[-46.727459967002574,-23.671553366177253],[-46.72741384709872,-23.671553366177253],[-46.72736772719486,-23.671553366177253],[-46.72736772719486,-23.671488205535617],[-46.727321607291,-23.671488205535617],[-46.727275487387146,-23.671488205535617],[-46.72722936748329,-23.671553366177253],[-46.72718324757943,-23.671553366177253],[-46.727137127675576,-23.671553366177253],[-46.72709100777171,-23.671553366177253],[-46.727044887867855,-23.671553366177253],[-46.727044887867855,-23.67161852681889],[-46.726998767964,-23.67161852681889],[-46.72695264806014,-23.671814008743794],[-46.72644532911771,-23.679959088948277],[-46.725476811136694,-23.69546732165761],[-46.72409321402096,-23.700419530421936],[-46.72183333873193,-23.705436899827895],[-46.721279899885644,-23.707000755227156],[-46.7213260197895,-23.708434289343145],[-46.72238677757823,-23.711236196933488],[-46.72796728594501,-23.71905547392979],[-46.729535362676174,-23.723160594352848],[-46.72944312286846,-23.726027662584826],[-46.7290741636376,-23.730719228782608],[-46.729535362676174,-23.734694027922394],[-46.730688360272616,-23.7374307748711],[-46.73244091661921,-23.739515915403448],[-46.73543871036996,-23.741861698502337],[-46.74000458085188,-23.743360393259962],[-46.744017012487504,-23.743360393259962],[-46.74789108441155,-23.742187501710518],[-46.75420951124006,-23.73932043347854],[-46.75753014431782,-23.738733987703817],[-46.76135809633801,-23.73769141743764],[-46.763479611915464,-23.73821270257073],[-46.765693367300635,-23.742513304918695],[-46.766477405666215,-23.74713971047484],[-46.76624680614693,-23.752873846938797],[-46.76721532412794,-23.754307381054787],[-46.76979803874397,-23.756783485436948]]]}}]}