{"type":"FeatureCollection","features":[{"type":"Feature","properties":{"DATA_ULT_A":"2009/10/09","DATA_CRIAC":"2009/10/09","id":25,"name":"Mooca","area":35.2,"pop_2010":343980,"pop_density_2010":9772,"budget_2015":46195768},"geometry":{"type":"Polygon","coordinates":[[[-46.625534979476996,-23.519403267957536],[-46.62548885957314,-23.519403267957536],[-46.62544273966928,-23.519403267957536],[-46.62539661976542,-23.519403267957536],[-46.62535049986156,-23.519403267957536],[-46.625304379957704,-23.519403267957536],[-46.62521214014999,-23.519403267957536],[-46.62442810178441,-23.519468428599172],[-46.62341346389954,-23.519468428599172],[-46.623321224091825,-23.519468428599172],[-46.62276778524553,-23.5193381073159],[-46.62216822649538,-23.519272946674263],[-46.62036955024493,-23.51888198282445],[-46.61986223130249,-23.518816822182814],[-46.61972387159092,-23.518816822182814],[-46.61912431284077,-23.51888198282445],[-46.61907819293691,-23.51888198282445],[-46.617971315244326,-23.519012304107722],[-46.61741787639804,-23.51914262539099],[-46.6169105574556,-23.519403267957536],[-46.61686443755174,-23.519403267957536],[-46.61677219774403,-23.519468428599172],[-46.61612651909002,-23.519859392448986],[-46.615895919570725,-23.519989713732258],[-46.615158001109,-23.520510998865344],[-46.61409724332028,-23.52135808720661],[-46.61400500351256,-23.521488408489883],[-46.61358992437784,-23.52181421169806],[-46.61252916658911,-23.52259613939769],[-46.611468408800384,-23.523052263889145],[-46.611330049088814,-23.523052263889145],[-46.61128392918496,-23.523052263889145],[-46.61128392918496,-23.523117424530778],[-46.6112378092811,-23.523117424530778],[-46.61119168937724,-23.523117424530778],[-46.610269291300085,-23.523378067097322],[-46.60994645197308,-23.523378067097322],[-46.60943913303065,-23.52344322773896],[-46.608839574280495,-23.523378067097322],[-46.608193895626485,-23.523312906455686],[-46.60810165581877,-23.523312906455686],[-46.607271497549334,-23.523117424530778],[-46.60653357908761,-23.52298710324751],[-46.60570342081817,-23.522856781964236],[-46.60473490283716,-23.522856781964236],[-46.60441206351015,-23.522856781964236],[-46.60381250476,-23.522921942605873],[-46.60289010668285,-23.52324774581405],[-46.60252114745199,-23.52344322773896],[-46.602428907644274,-23.523508388380595],[-46.6014142697594,-23.524159994796953],[-46.60095307072083,-23.524550958646767],[-46.59984619302824,-23.52546320762967],[-46.59980007312438,-23.525528368271306],[-46.59966171341281,-23.525593528912943],[-46.599569473605094,-23.525723850196215],[-46.59855483572022,-23.52657093853748],[-46.5981397565855,-23.52689674174566],[-46.59809363668165,-23.526961902387296],[-46.59804751677779,-23.52702706302893],[-46.5978169172585,-23.527222544953837],[-46.5972634784122,-23.527613508803654],[-46.597217358508345,-23.52767866944529],[-46.59717123860449,-23.527743830086926],[-46.597078998796775,-23.527743830086926],[-46.597078998796775,-23.52780899072856],[-46.59689451918134,-23.52793931201183],[-46.5966177997582,-23.52813479393674],[-46.59657167985434,-23.52813479393674],[-46.59652555995048,-23.528199954578376],[-46.59560316187333,-23.52891672163637],[-46.595510922065614,-23.52891672163637],[-46.595234202642466,-23.529112203561276],[-46.59518808273861,-23.529112203561276],[-46.59514196283475,-23.529177364202912],[-46.59481912350775,-23.52937284612782],[-46.59435792446917,-23.529503167411093],[-46.59352776619973,-23.529698649336],[-46.59269760793029,-23.529894131260907],[-46.59205192927628,-23.529959291902543],[-46.59168297004542,-23.529959291902543],[-46.59149849042999,-23.529894131260907],[-46.591452370526135,-23.529894131260907],[-46.59140625062227,-23.529894131260907],[-46.591360130718414,-23.529894131260907],[-46.59131401081456,-23.529894131260907],[-46.59112953119913,-23.529894131260907],[-46.59062221225669,-23.529763809977638],[-46.58914637533324,-23.52937284612782],[-46.58905413552553,-23.52937284612782],[-46.58900801562167,-23.52937284612782],[-46.588961895717816,-23.52937284612782],[-46.58891577581396,-23.529307685486184],[-46.58803949764066,-23.529112203561276],[-46.58693261994807,-23.528851560994735],[-46.58660978062107,-23.528721239711462],[-46.58564126264006,-23.528460597144917],[-46.585318423313055,-23.528395436503285],[-46.58522618350534,-23.528395436503285],[-46.585087823793764,-23.52833027586165],[-46.58393482619732,-23.528004472653468],[-46.582689588793166,-23.527743830086926],[-46.58130599167743,-23.527418026878745],[-46.58042971350413,-23.5271573843122],[-46.579046116388405,-23.526766420462387],[-46.57821595811896,-23.52657093853748],[-46.577339679945666,-23.526375456612573],[-46.57660176148394,-23.5262451353293],[-46.575541003695214,-23.526179974687665],[-46.57471084542578,-23.526310295970937],[-46.573834567252476,-23.526375456612573],[-46.57323500850233,-23.526440617254206],[-46.57235873032903,-23.526505777895842],[-46.57120573273259,-23.526375456612573],[-46.57092901330944,-23.526310295970937],[-46.57032945455929,-23.526179974687665],[-46.569268696770564,-23.525854171479484],[-46.568623018116554,-23.525528368271306],[-46.568069579270265,-23.525202565063125],[-46.566916581673816,-23.524550958646767],[-46.566224783115956,-23.52422515543859],[-46.56544074475037,-23.523834191588772],[-46.56451834667322,-23.523638709663867],[-46.5641032675385,-23.523508388380595],[-46.5635498286922,-23.52344322773896],[-46.56304250974977,-23.52344322773896],[-46.56239683109576,-23.52344322773896],[-46.56179727234561,-23.523508388380595],[-46.56133607330703,-23.523508388380595],[-46.56078263446074,-23.523508388380595],[-46.56009083590288,-23.523508388380595],[-46.55944515724887,-23.52344322773896],[-46.55884559849871,-23.52324774581405],[-46.558522759171716,-23.523117424530778],[-46.557877080517706,-23.52402967351368],[-46.55783096061385,-23.524094834155317],[-46.55783096061385,-23.524159994796953],[-46.55778484070999,-23.52422515543859],[-46.55773872080613,-23.524290316080226],[-46.557646480998415,-23.52448579800513],[-46.5575542411907,-23.524616119288403],[-46.557508121286844,-23.52468127993004],[-46.55746200138299,-23.524746440571676],[-46.55741588147913,-23.52481160121331],[-46.55741588147913,-23.524876761854948],[-46.557369761575266,-23.524941922496584],[-46.55732364167141,-23.524941922496584],[-46.55732364167141,-23.525072243779857],[-46.557231401863696,-23.52513740442149],[-46.557231401863696,-23.525202565063125],[-46.55713916205598,-23.52526772570476],[-46.557093042152125,-23.525332886346398],[-46.55704692224827,-23.525398046988034],[-46.557000802344405,-23.52546320762967],[-46.55690856253669,-23.525593528912943],[-46.55681632272898,-23.525789010837848],[-46.556724082921264,-23.52591933212112],[-46.55663184311354,-23.526049653404392],[-46.556585723209686,-23.52611481404603],[-46.55649348340197,-23.5262451353293],[-46.556447363498116,-23.526310295970937],[-46.5563551236904,-23.526440617254206],[-46.55630900378654,-23.52657093853748],[-46.55626288388268,-23.52657093853748],[-46.55612452417111,-23.526766420462387],[-46.5560322843634,-23.526961902387296],[-46.55589392465182,-23.527092223670564],[-46.55570944503639,-23.52735286623711],[-46.5554788455171,-23.52767866944529],[-46.55524824599782,-23.528004472653468],[-46.55497152657467,-23.528460597144917],[-46.55483316686309,-23.528656079069826],[-46.55474092705538,-23.528851560994735],[-46.55460256734381,-23.528981882278007],[-46.55446420763223,-23.52924252484455],[-46.5542797280168,-23.529438006769457],[-46.5542797280168,-23.529503167411093],[-46.55418748820909,-23.529698649336],[-46.55409524840137,-23.529959291902543],[-46.55404912849751,-23.53015477382745],[-46.554003008593654,-23.53048057703563],[-46.55386464888208,-23.531067022810355],[-46.55368016926665,-23.531392826018532],[-46.55363404936279,-23.531392826018532],[-46.553587929458935,-23.531392826018532],[-46.553587929458935,-23.53145798666017],[-46.55271165128564,-23.53145798666017],[-46.552665531381784,-23.531523147301804],[-46.55261941147792,-23.531653468585077],[-46.55257329157406,-23.531653468585077],[-46.55252717167021,-23.531718629226713],[-46.55248105176635,-23.53178378986835],[-46.55243493186249,-23.531848950509982],[-46.552388811958636,-23.531914111151618],[-46.55229657215092,-23.531979271793254],[-46.55225045224706,-23.531979271793254],[-46.55225045224706,-23.53204443243489],[-46.5522043323432,-23.53204443243489],[-46.55211209253549,-23.532109593076527],[-46.552019852727774,-23.532174753718163],[-46.55192761292006,-23.5322399143598],[-46.55183537311234,-23.532305075001435],[-46.551743133304626,-23.53237023564307],[-46.55169701340077,-23.53237023564307],[-46.55165089349691,-23.53237023564307],[-46.55165089349691,-23.532435396284708],[-46.551604773593056,-23.532435396284708],[-46.5515586536892,-23.532435396284708],[-46.551512533785335,-23.532435396284708],[-46.551374174073764,-23.53250055692634],[-46.55132805416991,-23.53250055692634],[-46.551235814362194,-23.532565717567977],[-46.55105133474676,-23.532630878209613],[-46.550313416285036,-23.532891520776158],[-46.550082816765745,-23.532956681417794],[-46.54999057695803,-23.53302184205943],[-46.54985221724646,-23.533087002701066],[-46.54975997743875,-23.5331521633427],[-46.549667737631026,-23.5331521633427],[-46.54957549782331,-23.533217323984335],[-46.5494832580156,-23.53328248462597],[-46.549391018207885,-23.533347645267607],[-46.549298778400164,-23.533412805909244],[-46.54925265849631,-23.53347796655088],[-46.549160418688594,-23.533543127192516],[-46.54911429878474,-23.533608287834152],[-46.54906817888088,-23.533608287834152],[-46.54906817888088,-23.53367344847579],[-46.54902205897702,-23.53367344847579],[-46.54897593907316,-23.533738609117425],[-46.548883699265446,-23.533868930400693],[-46.548883699265446,-23.53393409104233],[-46.54883757936159,-23.533999251683966],[-46.548745339553875,-23.534064412325602],[-46.548745339553875,-23.534129572967238],[-46.54869921965002,-23.534194733608874],[-46.54865309974616,-23.53425989425051],[-46.5486069798423,-23.534390215533783],[-46.5486069798423,-23.53445537617542],[-46.5486069798423,-23.534520536817052],[-46.54856085993844,-23.534520536817052],[-46.54856085993844,-23.534585697458688],[-46.54842250022687,-23.535106982591778],[-46.54846862013073,-23.535106982591778],[-46.548514740034584,-23.535106982591778],[-46.54925265849631,-23.535237303875046],[-46.549667737631026,-23.53536762515832],[-46.55012893666961,-23.535432785799955],[-46.55040565609275,-23.53549794644159],[-46.55054401580433,-23.53549794644159],[-46.55082073522747,-23.535563107083227],[-46.55118969445833,-23.5356934283665],[-46.55128193426605,-23.5356934283665],[-46.55132805416991,-23.5356934283665],[-46.551374174073764,-23.535758589008136],[-46.55178925320848,-23.535823749649772],[-46.5518814930162,-23.535823749649772],[-46.552158212439345,-23.535888910291405],[-46.552388811958636,-23.53595407093304],[-46.55243493186249,-23.53595407093304],[-46.55252717167021,-23.53595407093304],[-46.552665531381784,-23.536019231574677],[-46.5527577711895,-23.536019231574677],[-46.5530806105165,-23.536084392216313],[-46.55326509013193,-23.53614955285795],[-46.55331121003579,-23.53614955285795],[-46.55349568965122,-23.536214713499586],[-46.553818528978226,-23.536279874141222],[-46.55391076878594,-23.536279874141222],[-46.554003008593654,-23.536279874141222],[-46.554233608112945,-23.536345034782858],[-46.554371967824515,-23.536345034782858],[-46.55469480715152,-23.536410195424494],[-46.554787046959234,-23.53647535606613],[-46.554879286766955,-23.53647535606613],[-46.555156006190096,-23.536540516707763],[-46.555432725613244,-23.5366056773494],[-46.5554788455171,-23.5366056773494],[-46.555571085324814,-23.5366056773494],[-46.555663325132535,-23.5366056773494],[-46.55598616445954,-23.536670837991036],[-46.5560322843634,-23.536670837991036],[-46.556078404267254,-23.536670837991036],[-46.55612452417111,-23.536670837991036],[-46.55617064407497,-23.536735998632672],[-46.556216763978824,-23.536735998632672],[-46.55626288388268,-23.536735998632672],[-46.55630900378654,-23.536735998632672],[-46.5563551236904,-23.536735998632672],[-46.55640124359426,-23.536801159274308],[-46.556447363498116,-23.536801159274308],[-46.55649348340197,-23.536801159274308],[-46.556585723209686,-23.536801159274308],[-46.55663184311354,-23.536801159274308],[-46.55681632272898,-23.536801159274308],[-46.557093042152125,-23.536866319915944],[-46.55713916205598,-23.536866319915944],[-46.55718528195984,-23.536866319915944],[-46.557231401863696,-23.53693148055758],[-46.55727752176755,-23.53693148055758],[-46.55732364167141,-23.53693148055758],[-46.557369761575266,-23.53693148055758],[-46.55741588147913,-23.53693148055758],[-46.55746200138299,-23.53693148055758],[-46.55760036109456,-23.536996641199217],[-46.55769260090227,-23.536996641199217],[-46.55778484070999,-23.536996641199217],[-46.55783096061385,-23.536996641199217],[-46.557877080517706,-23.536996641199217],[-46.55796932032542,-23.537061801840853],[-46.55810768003699,-23.537061801840853],[-46.55819991984471,-23.537061801840853],[-46.55824603974857,-23.53712696248249],[-46.55824603974857,-23.53719212312412],[-46.55824603974857,-23.537257283765758],[-46.558153799940854,-23.537517926332303],[-46.55810768003699,-23.53771340825721],[-46.55796932032542,-23.538234693390297],[-46.55796932032542,-23.538299854031933],[-46.55792320042156,-23.538299854031933],[-46.55792320042156,-23.538430175315206],[-46.557877080517706,-23.538495335956842],[-46.557877080517706,-23.538560496598475],[-46.55783096061385,-23.538755978523383],[-46.55769260090227,-23.539212103014833],[-46.55769260090227,-23.53927726365647],[-46.55769260090227,-23.539342424298106],[-46.557646480998415,-23.539342424298106],[-46.557646480998415,-23.53940758493974],[-46.55760036109456,-23.53960306686465],[-46.5575542411907,-23.539733388147923],[-46.557508121286844,-23.539928870072828],[-46.55746200138299,-23.54025467328101],[-46.557369761575266,-23.540450155205917],[-46.557369761575266,-23.540515315847554],[-46.55732364167141,-23.540580476489186],[-46.55732364167141,-23.540645637130822],[-46.55732364167141,-23.54071079777246],[-46.55732364167141,-23.540775958414095],[-46.55727752176755,-23.54084111905573],[-46.557231401863696,-23.541232082905545],[-46.55718528195984,-23.541427564830453],[-46.55713916205598,-23.541557886113726],[-46.55713916205598,-23.54162304675536],[-46.557093042152125,-23.541688207396998],[-46.557093042152125,-23.54181852868027],[-46.557093042152125,-23.541883689321907],[-46.55704692224827,-23.542014010605175],[-46.557000802344405,-23.542209492530084],[-46.557000802344405,-23.54227465317172],[-46.55695468244055,-23.54227465317172],[-46.55695468244055,-23.542404974454993],[-46.55690856253669,-23.542535295738265],[-46.55690856253669,-23.542665617021534],[-46.556862442632834,-23.54273077766317],[-46.556862442632834,-23.542795938304806],[-46.55681632272898,-23.542861098946442],[-46.55681632272898,-23.54292625958808],[-46.55677020282512,-23.54305658087135],[-46.556724082921264,-23.543121741512987],[-46.55667796301741,-23.543252062796256],[-46.55663184311354,-23.543317223437892],[-46.55653960330583,-23.5435127053628],[-46.55649348340197,-23.543643026646073],[-46.556447363498116,-23.54370818728771],[-46.55640124359426,-23.543838508570982],[-46.5563551236904,-23.544033990495887],[-46.55630900378654,-23.54416431177916],[-46.556216763978824,-23.544359793704068],[-46.556216763978824,-23.544424954345704],[-46.55612452417111,-23.54462043627061],[-46.55612452417111,-23.544685596912245],[-46.556078404267254,-23.54475075755388],[-46.556078404267254,-23.544815918195518],[-46.5560322843634,-23.54494623947879],[-46.5560322843634,-23.545076560762062],[-46.555940044555676,-23.54540236397024],[-46.55589392465182,-23.545532685253512],[-46.55584780474796,-23.545663006536785],[-46.55584780474796,-23.54572816717842],[-46.555801684844106,-23.545793327820057],[-46.55575556494025,-23.546119131028235],[-46.55570944503639,-23.546249452311507],[-46.555663325132535,-23.546314612953143],[-46.55561720522868,-23.54664041616132],[-46.555571085324814,-23.546705576802957],[-46.555571085324814,-23.546770737444593],[-46.55552496542096,-23.54683589808623],[-46.55552496542096,-23.546901058727865],[-46.55552496542096,-23.5469662193695],[-46.5554788455171,-23.547096540652774],[-46.555432725613244,-23.547226861936046],[-46.555432725613244,-23.54729202257768],[-46.55538660570939,-23.547357183219315],[-46.55538660570939,-23.54742234386095],[-46.55538660570939,-23.547487504502588],[-46.55534048580553,-23.54761782578586],[-46.55529436590167,-23.547748147069132],[-46.55529436590167,-23.54781330771077],[-46.55524824599782,-23.547878468352405],[-46.55524824599782,-23.547943628994037],[-46.55520212609395,-23.548139110918946],[-46.55520212609395,-23.548204271560582],[-46.555156006190096,-23.54839975348549],[-46.55510988628624,-23.54839975348549],[-46.55510988628624,-23.548530074768763],[-46.55506376638238,-23.548725556693668],[-46.555017646478525,-23.548790717335304],[-46.555017646478525,-23.54885587797694],[-46.55497152657467,-23.548921038618577],[-46.55497152657467,-23.548986199260213],[-46.55492540667081,-23.549116520543485],[-46.55492540667081,-23.549246841826758],[-46.55483316686309,-23.5495074843933],[-46.55483316686309,-23.54963780567657],[-46.554787046959234,-23.549702966318208],[-46.554787046959234,-23.54983328760148],[-46.55474092705538,-23.54983328760148],[-46.55474092705538,-23.549898448243116],[-46.55469480715152,-23.54996360888475],[-46.55469480715152,-23.550028769526385],[-46.55464868724766,-23.550159090809657],[-46.55455644743995,-23.55061521530111],[-46.55446420763223,-23.550810697226016],[-46.55446420763223,-23.55094101850929],[-46.55441808772837,-23.551136500434197],[-46.554371967824515,-23.551201661075833],[-46.55432584792066,-23.551331982359102],[-46.55432584792066,-23.551397143000738],[-46.55432584792066,-23.551462303642374],[-46.5542797280168,-23.551592624925647],[-46.554233608112945,-23.55172294620892],[-46.554233608112945,-23.55185326749219],[-46.55418748820909,-23.55198358877546],[-46.55414136830523,-23.552113910058733],[-46.55414136830523,-23.55217907070037],[-46.55409524840137,-23.552244231342005],[-46.55404912849751,-23.552374552625277],[-46.55404912849751,-23.55250487390855],[-46.554003008593654,-23.552635195191822],[-46.5539568886898,-23.55276551647509],[-46.5539568886898,-23.552830677116727],[-46.5539568886898,-23.552895837758363],[-46.5539568886898,-23.55315648032491],[-46.554003008593654,-23.55328680160818],[-46.554003008593654,-23.553677765457994],[-46.55404912849751,-23.553808086741267],[-46.55404912849751,-23.553873247382903],[-46.55404912849751,-23.55393840802454],[-46.55404912849751,-23.55400356866617],[-46.55409524840137,-23.55439453251599],[-46.55409524840137,-23.554590014440898],[-46.55414136830523,-23.55485065700744],[-46.55414136830523,-23.55498097829071],[-46.55414136830523,-23.555111299573984],[-46.55414136830523,-23.555371942140525],[-46.55414136830523,-23.55543710278216],[-46.55418748820909,-23.555567424065433],[-46.55418748820909,-23.555697745348706],[-46.55418748820909,-23.555762905990342],[-46.55418748820909,-23.555828066631978],[-46.55418748820909,-23.555893227273614],[-46.55418748820909,-23.556023548556883],[-46.554233608112945,-23.55608870919852],[-46.554233608112945,-23.556153869840156],[-46.5542797280168,-23.556153869840156],[-46.5542797280168,-23.55621903048179],[-46.5542797280168,-23.556153869840156],[-46.55432584792066,-23.556153869840156],[-46.55441808772837,-23.556153869840156],[-46.55446420763223,-23.556153869840156],[-46.55451032753609,-23.556153869840156],[-46.55460256734381,-23.556153869840156],[-46.55474092705538,-23.55608870919852],[-46.554879286766955,-23.55608870919852],[-46.55492540667081,-23.55608870919852],[-46.555017646478525,-23.55608870919852],[-46.555156006190096,-23.556023548556883],[-46.55520212609395,-23.556023548556883],[-46.55538660570939,-23.556023548556883],[-46.555432725613244,-23.556023548556883],[-46.55570944503639,-23.55595838791525],[-46.555801684844106,-23.555893227273614],[-46.55584780474796,-23.555893227273614],[-46.555940044555676,-23.555893227273614],[-46.55598616445954,-23.555893227273614],[-46.5560322843634,-23.555893227273614],[-46.55626288388268,-23.555828066631978],[-46.556447363498116,-23.555762905990342],[-46.556724082921264,-23.555697745348706],[-46.55677020282512,-23.555697745348706],[-46.556862442632834,-23.55563258470707],[-46.55695468244055,-23.55563258470707],[-46.55704692224827,-23.55563258470707],[-46.55732364167141,-23.555567424065433],[-46.55746200138299,-23.555502263423797],[-46.55760036109456,-23.55543710278216],[-46.55773872080613,-23.55543710278216],[-46.557877080517706,-23.555371942140525],[-46.558015440229276,-23.555371942140525],[-46.55819991984471,-23.555306781498892],[-46.558292159652424,-23.555306781498892],[-46.55838439946014,-23.555241620857256],[-46.558430519363995,-23.555241620857256],[-46.558522759171716,-23.555241620857256],[-46.558661118883286,-23.55517646021562],[-46.55870723878714,-23.55517646021562],[-46.55879947859486,-23.55517646021562],[-46.55879947859486,-23.555111299573984],[-46.55889171840258,-23.555111299573984],[-46.558937838306434,-23.555111299573984],[-46.55903007811415,-23.555111299573984],[-46.559076198018005,-23.555046138932347],[-46.55916843782572,-23.555046138932347],[-46.559214557729575,-23.555046138932347],[-46.559306797537296,-23.55498097829071],[-46.55939903734501,-23.55498097829071],[-46.55944515724887,-23.55498097829071],[-46.55944515724887,-23.554915817649075],[-46.55949127715272,-23.554915817649075],[-46.55953739705658,-23.554915817649075],[-46.55958351696044,-23.554915817649075],[-46.55958351696044,-23.55485065700744],[-46.5596296368643,-23.55485065700744],[-46.55967575676816,-23.55485065700744],[-46.559721876672015,-23.55485065700744],[-46.55976799657587,-23.554785496365803],[-46.55981411647973,-23.554785496365803],[-46.559860236383585,-23.554785496365803],[-46.559860236383585,-23.554720335724166],[-46.55990635628744,-23.554720335724166],[-46.5599524761913,-23.554720335724166],[-46.55999859609516,-23.554655175082534],[-46.56004471599902,-23.554655175082534],[-46.56013695580673,-23.554590014440898],[-46.56018307571059,-23.554590014440898],[-46.56022919561445,-23.554590014440898],[-46.56022919561445,-23.55452485379926],[-46.560275315518304,-23.55452485379926],[-46.560367555326025,-23.55452485379926],[-46.56041367522988,-23.554459693157625],[-46.56059815484531,-23.554329371874353],[-46.56069039465302,-23.554264211232717],[-46.560736514556886,-23.554264211232717],[-46.56078263446074,-23.55419905059108],[-46.5608287543646,-23.55419905059108],[-46.56087487426846,-23.554133889949444],[-46.56101323398003,-23.554068729307808],[-46.56110547378775,-23.55400356866617],[-46.56124383349932,-23.55393840802454],[-46.56124383349932,-23.553873247382903],[-46.56133607330703,-23.553873247382903],[-46.56138219321089,-23.553808086741267],[-46.561566672826324,-23.553677765457994],[-46.56161279273018,-23.553677765457994],[-46.561705032537894,-23.553612604816358],[-46.56175115244175,-23.553547444174722],[-46.56188951215333,-23.553482283533086],[-46.561935632057185,-23.55341712289145],[-46.56198175196104,-23.55341712289145],[-46.5620278718649,-23.55341712289145],[-46.5620278718649,-23.553351962249813],[-46.56216623157648,-23.553351962249813],[-46.56239683109576,-23.553351962249813],[-46.56253519080734,-23.553351962249813],[-46.56267355051891,-23.55328680160818],[-46.5629041500382,-23.55328680160818],[-46.562996389845914,-23.55328680160818],[-46.56304250974977,-23.55328680160818],[-46.56308862965363,-23.55328680160818],[-46.5632269893652,-23.55328680160818],[-46.56345758888449,-23.553221640966544],[-46.563642068499924,-23.553221640966544],[-46.56368818840378,-23.553221640966544],[-46.56382654811535,-23.553221640966544],[-46.563918787923065,-23.55315648032491],[-46.56396490782692,-23.55315648032491],[-46.5641032675385,-23.55315648032491],[-46.564149387442356,-23.55315648032491],[-46.56419550734621,-23.55315648032491],[-46.56424162725007,-23.55315648032491],[-46.56428774715393,-23.55315648032491],[-46.56433386705778,-23.55315648032491],[-46.56437998696165,-23.55315648032491],[-46.564426106865504,-23.55315648032491],[-46.56447222676936,-23.55315648032491],[-46.56461058648093,-23.55315648032491],[-46.564702826288645,-23.553091319683272],[-46.56488730590408,-23.553091319683272],[-46.56497954571179,-23.553091319683272],[-46.56511790542337,-23.553091319683272],[-46.565210145231084,-23.553091319683272],[-46.56525626513494,-23.553091319683272],[-46.56544074475037,-23.553026159041636],[-46.5656252243658,-23.553026159041636],[-46.565855823885094,-23.553026159041636],[-46.56608642340438,-23.5529609984],[-46.566132543308235,-23.5529609984],[-46.56627090301981,-23.5529609984],[-46.56631702292367,-23.5529609984],[-46.56636314282753,-23.5529609984],[-46.5665015025391,-23.5529609984],[-46.566547622442954,-23.5529609984],[-46.56673210205839,-23.552895837758363],[-46.56700882148154,-23.552895837758363],[-46.56705494138539,-23.552895837758363],[-46.56714718119311,-23.552895837758363],[-46.567193301096964,-23.552895837758363],[-46.56723942100082,-23.552895837758363],[-46.567423900616255,-23.5529609984],[-46.56747002052011,-23.5529609984],[-46.56751614042397,-23.553026159041636],[-46.567562260327826,-23.553026159041636],[-46.5677006200394,-23.553091319683272],[-46.56779285984712,-23.553091319683272],[-46.567838979750974,-23.553091319683272],[-46.567977339462544,-23.55315648032491],[-46.56903809725127,-23.553612604816358],[-46.56908421715513,-23.553612604816358],[-46.56913033705899,-23.553612604816358],[-46.56913033705899,-23.553677765457994],[-46.56913033705899,-23.55374292609963],[-46.56917645696285,-23.553873247382903],[-46.56931481667442,-23.554459693157625],[-46.56954541619371,-23.55517646021562],[-46.56968377590528,-23.555762905990342],[-46.56996049532843,-23.556740315614878],[-46.56986825552072,-23.556935797539786],[-46.569776015712996,-23.557000958181423],[-46.569499296289855,-23.557326761389604],[-46.56880749773199,-23.55810868908923],[-46.5685768982127,-23.558173849730867],[-46.568207938981836,-23.55830417101414],[-46.56793121955869,-23.558499652939048],[-46.567654500135546,-23.55876029550559],[-46.567193301096964,-23.559346741280315],[-46.56705494138539,-23.55954222320522],[-46.56700882148154,-23.559607383846856],[-46.56696270157768,-23.559672544488492],[-46.566916581673816,-23.55973770513013],[-46.5668243418661,-23.55973770513013],[-46.566778221962245,-23.559802865771765],[-46.56668598215453,-23.5598680264134],[-46.56659374234682,-23.559998347696673],[-46.56645538263524,-23.56019382962158],[-46.56640926273138,-23.560258990263215],[-46.566132543308235,-23.560584793471396],[-46.56604030350052,-23.560845436037937],[-46.565994183596665,-23.56097575732121],[-46.56594806369281,-23.561040917962845],[-46.56594806369281,-23.56110607860448],[-46.56590194378895,-23.561171239246118],[-46.565855823885094,-23.561236399887754],[-46.56580970398123,-23.56130156052939],[-46.565763584077374,-23.561366721171026],[-46.56571746417352,-23.56143188181266],[-46.56567134426966,-23.561497042454295],[-46.565579104461946,-23.56156220309593],[-46.56553298455809,-23.561627363737568],[-46.56548686465423,-23.561692524379204],[-46.56539462484651,-23.56175768502084],[-46.565348504942655,-23.561822845662476],[-46.5653023850388,-23.561822845662476],[-46.565210145231084,-23.561888006304113],[-46.56516402532723,-23.561888006304113],[-46.56511790542337,-23.56195316694575],[-46.56507178551951,-23.56195316694575],[-46.56461058648093,-23.56221380951229],[-46.56428774715393,-23.5624092914372],[-46.56424162725007,-23.5624092914372],[-46.56405714763464,-23.562474452078835],[-46.564011027730785,-23.56253961272047],[-46.56331922917292,-23.56286541592865],[-46.56308862965363,-23.56299573721192],[-46.562996389845914,-23.563060897853557],[-46.56281191023048,-23.563126058495193],[-46.562719670422766,-23.56319121913683],[-46.56267355051891,-23.56319121913683],[-46.562581310711195,-23.563256379778466],[-46.56244295099962,-23.5633215404201],[-46.56230459128805,-23.563386701061738],[-46.561935632057185,-23.563582182986643],[-46.56179727234561,-23.56364734362828],[-46.561705032537894,-23.563712504269915],[-46.56165891263404,-23.563712504269915],[-46.56152055292247,-23.56377766491155],[-46.56147443301861,-23.563842825553188],[-46.561428313114746,-23.563842825553188],[-46.56133607330703,-23.563907986194824],[-46.561151593691605,-23.56397314683646],[-46.5608287543646,-23.564168628761365],[-46.560644274749166,-23.564233789403],[-46.56041367522988,-23.564364110686274],[-46.56022919561445,-23.56442927132791],[-46.559860236383585,-23.56462475325282],[-46.559306797537296,-23.56488539581936],[-46.55926067763344,-23.564950556460996],[-46.55912231792186,-23.565015717102632],[-46.55884559849871,-23.56508087774427],[-46.55861499897943,-23.56521119902754],[-46.55833827955628,-23.565341520310813],[-46.558015440229276,-23.56553700223572],[-46.55796932032542,-23.56553700223572],[-46.55783096061385,-23.565602162877354],[-46.5575542411907,-23.565797644802263],[-46.557093042152125,-23.56599312672717],[-46.55663184311354,-23.566253769293713],[-46.55653960330583,-23.56631892993535],[-46.55640124359426,-23.566384090576985],[-46.55617064407497,-23.566579572501894],[-46.5560322843634,-23.5667750544268],[-46.55524824599782,-23.567491821484793],[-46.55404912849751,-23.568599552392605],[-46.5542797280168,-23.56879503431751],[-46.55432584792066,-23.56879503431751],[-46.55460256734381,-23.569511801375505],[-46.55469480715152,-23.569642122658777],[-46.55474092705538,-23.56977244394205],[-46.554787046959234,-23.56977244394205],[-46.554787046959234,-23.569902765225322],[-46.55483316686309,-23.570033086508595],[-46.55497152657467,-23.5702285684335],[-46.55510988628624,-23.57055437164168],[-46.555432725613244,-23.57133629934131],[-46.555571085324814,-23.571596941907853],[-46.55561720522868,-23.571727263191125],[-46.555663325132535,-23.571727263191125],[-46.555663325132535,-23.57179242383276],[-46.55570944503639,-23.571857584474397],[-46.55575556494025,-23.57198790575767],[-46.555940044555676,-23.572313708965847],[-46.55617064407497,-23.572834994098933],[-46.556216763978824,-23.572965315382206],[-46.55626288388268,-23.573030476023842],[-46.55663184311354,-23.573942725006745],[-46.55677020282512,-23.574203367573286],[-46.55681632272898,-23.574268528214922],[-46.556862442632834,-23.57433368885656],[-46.557000802344405,-23.574268528214922],[-46.557093042152125,-23.574268528214922],[-46.55713916205598,-23.574268528214922],[-46.55713916205598,-23.574594331423103],[-46.55718528195984,-23.57492013463128],[-46.557231401863696,-23.575311098481098],[-46.55727752176755,-23.575376259122734],[-46.55727752176755,-23.575506580406007],[-46.55727752176755,-23.57557174104764],[-46.557369761575266,-23.576418829388906],[-46.55746200138299,-23.577070435805265],[-46.557508121286844,-23.5771355964469],[-46.5575542411907,-23.57759172093835],[-46.5575542411907,-23.577656881579987],[-46.5575542411907,-23.57778720286326],[-46.5575542411907,-23.577852363504896],[-46.55760036109456,-23.577852363504896],[-46.55760036109456,-23.577982684788168],[-46.55760036109456,-23.578178166713077],[-46.557646480998415,-23.578503969921254],[-46.55769260090227,-23.5787646124878],[-46.55769260090227,-23.578829773129435],[-46.55769260090227,-23.578894933771068],[-46.55773872080613,-23.578894933771068],[-46.55773872080613,-23.578960094412704],[-46.55773872080613,-23.57902525505434],[-46.55773872080613,-23.57922073697925],[-46.55778484070999,-23.579481379545793],[-46.55783096061385,-23.579872343395607],[-46.557877080517706,-23.58000266467888],[-46.557877080517706,-23.580067825320516],[-46.557877080517706,-23.580132985962152],[-46.55792320042156,-23.580328467887057],[-46.55796932032542,-23.580719431736874],[-46.55796932032542,-23.58078459237851],[-46.55796932032542,-23.580849753020146],[-46.55796932032542,-23.58091491366178],[-46.558153799940854,-23.580849753020146],[-46.55861499897943,-23.580849753020146],[-46.55884559849871,-23.58078459237851],[-46.55898395821029,-23.58078459237851],[-46.55903007811415,-23.58078459237851],[-46.559076198018005,-23.58078459237851],[-46.559214557729575,-23.58078459237851],[-46.55958351696044,-23.580719431736874],[-46.55976799657587,-23.580719431736874],[-46.55981411647973,-23.580719431736874],[-46.55990635628744,-23.580719431736874],[-46.5599524761913,-23.580719431736874],[-46.55999859609516,-23.580719431736874],[-46.56004471599902,-23.580719431736874],[-46.56013695580673,-23.580719431736874],[-46.56022919561445,-23.580719431736874],[-46.560275315518304,-23.580719431736874],[-46.56032143542216,-23.580719431736874],[-46.56045979513374,-23.58078459237851],[-46.560736514556886,-23.580849753020146],[-46.56087487426846,-23.580849753020146],[-46.56101323398003,-23.58091491366178],[-46.561059353883884,-23.58091491366178],[-46.56110547378775,-23.58091491366178],[-46.56119771359546,-23.580980074303415],[-46.56124383349932,-23.580980074303415],[-46.561289953403175,-23.580980074303415],[-46.56133607330703,-23.580980074303415],[-46.56152055292247,-23.58104523494505],[-46.56179727234561,-23.581110395586688],[-46.562350711191904,-23.58124071686996],[-46.56253519080734,-23.58124071686996],[-46.562581310711195,-23.58124071686996],[-46.56262743061505,-23.581305877511596],[-46.56281191023048,-23.581305877511596],[-46.56308862965363,-23.581371038153232],[-46.563134749557484,-23.581371038153232],[-46.56327310926906,-23.58143619879487],[-46.56341146898063,-23.58143619879487],[-46.56345758888449,-23.58143619879487],[-46.563503708788346,-23.58143619879487],[-46.56359594859606,-23.58143619879487],[-46.56373430830764,-23.58143619879487],[-46.56387266801921,-23.58143619879487],[-46.56428774715393,-23.58143619879487],[-46.56437998696165,-23.58143619879487],[-46.56451834667322,-23.58143619879487],[-46.56465670638479,-23.58143619879487],[-46.564933425807936,-23.58143619879487],[-46.56497954571179,-23.58143619879487],[-46.56511790542337,-23.58143619879487],[-46.56516402532723,-23.58143619879487],[-46.56539462484651,-23.581371038153232],[-46.56548686465423,-23.581371038153232],[-46.5656252243658,-23.581371038153232],[-46.56571746417352,-23.581371038153232],[-46.565763584077374,-23.581371038153232],[-46.565855823885094,-23.581371038153232],[-46.566132543308235,-23.581305877511596],[-46.56631702292367,-23.581305877511596],[-46.56640926273138,-23.581305877511596],[-46.56645538263524,-23.58124071686996],[-46.56659374234682,-23.58124071686996],[-46.56700882148154,-23.581175556228324],[-46.56705494138539,-23.581175556228324],[-46.56723942100082,-23.581175556228324],[-46.56728554090468,-23.581110395586688],[-46.56733166080854,-23.581110395586688],[-46.5673777807124,-23.581110395586688],[-46.567423900616255,-23.581110395586688],[-46.56747002052011,-23.581110395586688],[-46.56779285984712,-23.580980074303415],[-46.567838979750974,-23.58091491366178],[-46.56788509965483,-23.58091491366178],[-46.567977339462544,-23.580849753020146],[-46.56802345936641,-23.580849753020146],[-46.568853617635845,-23.58045878917033],[-46.56903809725127,-23.580393628528693],[-46.56917645696285,-23.580328467887057],[-46.56931481667442,-23.58026330724542],[-46.569407056482135,-23.58026330724542],[-46.569637656001426,-23.580132985962152],[-46.569914375424574,-23.580067825320516],[-46.570052735136144,-23.58000266467888],[-46.57023721475158,-23.579937504037243],[-46.570421694367006,-23.579937504037243],[-46.570836773501725,-23.57980718275397],[-46.57115961282873,-23.579742022112335],[-46.57120573273259,-23.579742022112335],[-46.571344092444164,-23.5796768614707],[-46.571713051675026,-23.579611700829062],[-46.57194365119431,-23.579546540187426],[-46.57198977109817,-23.579546540187426],[-46.572266490521315,-23.579481379545793],[-46.57254320994446,-23.579416218904157],[-46.57258932984832,-23.579416218904157],[-46.572681569656034,-23.57935105826252],[-46.57281992936761,-23.579285897620885],[-46.57309664879075,-23.579155576337612],[-46.57323500850233,-23.579090415695976],[-46.573327248310044,-23.57902525505434],[-46.57360396773319,-23.578894933771068],[-46.57365008763705,-23.578829773129435],[-46.5739268070602,-23.578699451846163],[-46.5742496463872,-23.57856913056289],[-46.574895325041204,-23.57824332735471],[-46.57503368475278,-23.578178166713077],[-46.57521816436821,-23.578047845429804],[-46.57558712359907,-23.577852363504896],[-46.57586384302222,-23.577722042221623],[-46.57600220273379,-23.577656881579987],[-46.57604832263765,-23.57759172093835],[-46.57609444254151,-23.577656881579987],[-46.576186682349224,-23.577656881579987],[-46.57623280225308,-23.577722042221623],[-46.57627892215694,-23.577722042221623],[-46.576325042060795,-23.577722042221623],[-46.57641728186851,-23.577722042221623],[-46.57646340177237,-23.577722042221623],[-46.57650952167623,-23.577722042221623],[-46.576555641580086,-23.577722042221623],[-46.57660176148394,-23.577722042221623],[-46.5766478813878,-23.577722042221623],[-46.57674012119551,-23.577656881579987],[-46.576832361003234,-23.577656881579987],[-46.57692460081095,-23.577656881579987],[-46.577339679945666,-23.576940114521992],[-46.577524159561094,-23.57654915067218],[-46.57766251927267,-23.576288508105634],[-46.57770863917653,-23.576223347463998],[-46.577754759080385,-23.576158186822365],[-46.57780087898424,-23.57609302618073],[-46.5778469988881,-23.57609302618073],[-46.5778469988881,-23.576027865539093],[-46.57789311879196,-23.576027865539093],[-46.57793923869582,-23.576027865539093],[-46.577985358599676,-23.576027865539093],[-46.57807759840739,-23.576027865539093],[-46.57835431783054,-23.57609302618073],[-46.578400437734395,-23.57609302618073],[-46.57844655763825,-23.57609302618073],[-46.57849267754211,-23.57609302618073],[-46.5787232770614,-23.57609302618073],[-46.57899999648455,-23.576027865539093],[-46.57913835619612,-23.575962704897456],[-46.57927671590769,-23.575962704897456],[-46.579415075619266,-23.57589754425582],[-46.57950731542698,-23.575832383614184],[-46.57955343533084,-23.57570206233091],[-46.579599555234694,-23.575636901689276],[-46.579599555234694,-23.57557174104764],[-46.57955343533084,-23.57544141976437],[-46.57955343533084,-23.575311098481098],[-46.57955343533084,-23.575245937839462],[-46.57950731542698,-23.575180777197826],[-46.57950731542698,-23.575050455914553],[-46.57946119552312,-23.574985295272917],[-46.57946119552312,-23.57492013463128],[-46.579415075619266,-23.574854973989645],[-46.57936895571541,-23.574789813348012],[-46.579322835811546,-23.57465949206474],[-46.579322835811546,-23.574594331423103],[-46.57946119552312,-23.57446401013983],[-46.579599555234694,-23.57433368885656],[-46.57987627465784,-23.574073046290017],[-46.5799223945617,-23.574073046290017],[-46.579968514465556,-23.574073046290017],[-46.58001463436941,-23.57400788564838],[-46.58006075427327,-23.57400788564838],[-46.58010687417713,-23.57400788564838],[-46.58019911398485,-23.573942725006745],[-46.580245233888704,-23.573942725006745],[-46.58033747369642,-23.573942725006745],[-46.58042971350413,-23.573942725006745],[-46.580614193119565,-23.57387756436511],[-46.58089091254271,-23.5736820824402],[-46.581121512062,-23.57342143987366],[-46.581167631965855,-23.57342143987366],[-46.58135211158129,-23.57322595794875],[-46.581444351389,-23.573160797307114],[-46.58149047129286,-23.573160797307114],[-46.58149047129286,-23.573095636665478],[-46.581536591196716,-23.573095636665478],[-46.58158271110058,-23.573030476023842],[-46.58162883100444,-23.573030476023842],[-46.5819977902353,-23.57322595794875],[-46.58213614994687,-23.573291118590387],[-46.58255122908159,-23.57342143987366],[-46.58278182860088,-23.573551761156928],[-46.58305854802403,-23.5736820824402],[-46.58342750725489,-23.573812403723473],[-46.5835197470626,-23.57387756436511],[-46.58365810677417,-23.573942725006745],[-46.58379646648575,-23.57400788564838],[-46.58384258638961,-23.57400788564838],[-46.584027066005035,-23.574073046290017],[-46.58421154562047,-23.574138206931654],[-46.58462662475519,-23.57433368885656],[-46.5847188645629,-23.574398849498195],[-46.58476498446676,-23.574398849498195],[-46.584811104370615,-23.574398849498195],[-46.584903344178336,-23.57446401013983],[-46.58499558398605,-23.57446401013983],[-46.58499558398605,-23.574529170781467],[-46.58494946408219,-23.574594331423103],[-46.58494946408219,-23.57465949206474],[-46.58494946408219,-23.574724652706376],[-46.584903344178336,-23.574789813348012],[-46.584903344178336,-23.574854973989645],[-46.584903344178336,-23.57492013463128],[-46.584903344178336,-23.575050455914553],[-46.584903344178336,-23.57511561655619],[-46.584903344178336,-23.575180777197826],[-46.584903344178336,-23.575245937839462],[-46.584903344178336,-23.575376259122734],[-46.584903344178336,-23.57544141976437],[-46.58494946408219,-23.57544141976437],[-46.58494946408219,-23.575506580406007],[-46.58494946408219,-23.575636901689276],[-46.58499558398605,-23.57570206233091],[-46.58499558398605,-23.575767222972548],[-46.58499558398605,-23.575832383614184],[-46.58504170388991,-23.57589754425582],[-46.585087823793764,-23.576027865539093],[-46.58513394369762,-23.57609302618073],[-46.58518006360148,-23.576158186822365],[-46.58518006360148,-23.576223347463998],[-46.58518006360148,-23.576288508105634],[-46.58522618350534,-23.576288508105634],[-46.5852723034092,-23.57635366874727],[-46.585318423313055,-23.576418829388906],[-46.58536454321691,-23.57654915067218],[-46.58541066312077,-23.576614311313815],[-46.585456783024625,-23.57667947195545],[-46.58550290292848,-23.576744632597087],[-46.5855951427362,-23.576940114521992],[-46.58564126264006,-23.576940114521992],[-46.58564126264006,-23.57700527516363],[-46.58573350244777,-23.5771355964469],[-46.58582574225549,-23.577265917730173],[-46.585871862159344,-23.57733107837181],[-46.58601022187092,-23.577526560296718],[-46.58614858158249,-23.577722042221623],[-46.58614858158249,-23.57778720286326],[-46.58619470148635,-23.577852363504896],[-46.586240821390206,-23.577852363504896],[-46.58656366071721,-23.578438809279618],[-46.586655900524924,-23.578503969921254],[-46.58684038014036,-23.578894933771068],[-46.586886500044216,-23.578894933771068],[-46.586886500044216,-23.578960094412704],[-46.58693261994807,-23.578960094412704],[-46.58693261994807,-23.57902525505434],[-46.587024859755786,-23.579155576337612],[-46.58707097965965,-23.579155576337612],[-46.587163219467364,-23.57935105826252],[-46.587301579178934,-23.579546540187426],[-46.58743993889051,-23.57980718275397],[-46.58757829860208,-23.579937504037243],[-46.58762441850594,-23.580067825320516],[-46.587670538409796,-23.580132985962152],[-46.587670538409796,-23.580198146603788],[-46.58790113792909,-23.58045878917033],[-46.587947257832944,-23.58045878917033],[-46.5879933777368,-23.580523949811965],[-46.58803949764066,-23.5805891104536],[-46.588085617544515,-23.5805891104536],[-46.588177857352235,-23.580654271095238],[-46.58822397725609,-23.580719431736874],[-46.58827009715995,-23.580719431736874],[-46.588316217063806,-23.58078459237851],[-46.58840845687152,-23.580849753020146],[-46.588454576775376,-23.580849753020146],[-46.5885468165831,-23.58091491366178],[-46.588592936486954,-23.58091491366178],[-46.58868517629467,-23.580980074303415],[-46.588731296198524,-23.580980074303415],[-46.58882353600624,-23.580980074303415],[-46.58891577581396,-23.58104523494505],[-46.588961895717816,-23.58104523494505],[-46.58905413552553,-23.58104523494505],[-46.58914637533324,-23.581110395586688],[-46.589238615140964,-23.581110395586688],[-46.58928473504482,-23.581110395586688],[-46.589376974852534,-23.581110395586688],[-46.58946921466025,-23.581110395586688],[-46.589515334564105,-23.581110395586688],[-46.589607574371826,-23.581110395586688],[-46.58965369427568,-23.581110395586688],[-46.58969981417954,-23.581110395586688],[-46.58979205398725,-23.581110395586688],[-46.58983817389111,-23.581110395586688],[-46.58993041369882,-23.581110395586688],[-46.58997653360269,-23.581110395586688],[-46.5900687734104,-23.58104523494505],[-46.59011489331426,-23.58104523494505],[-46.590161013218115,-23.58104523494505],[-46.59025325302583,-23.580980074303415],[-46.59034549283355,-23.580980074303415],[-46.590391612737406,-23.580980074303415],[-46.59043773264126,-23.58091491366178],[-46.59048385254512,-23.58091491366178],[-46.59057609235283,-23.580849753020146],[-46.59062221225669,-23.580849753020146],[-46.59066833216055,-23.58078459237851],[-46.59071445206441,-23.58078459237851],[-46.59071445206441,-23.580849753020146],[-46.59076057196827,-23.580849753020146],[-46.59076057196827,-23.58091491366178],[-46.59052997244898,-23.581371038153232],[-46.590391612737406,-23.581631680719774],[-46.59034549283355,-23.581762002003046],[-46.590299372929685,-23.58189232328632],[-46.59025325302583,-23.58189232328632],[-46.59025325302583,-23.581957483927955],[-46.59020713312197,-23.581957483927955],[-46.59043773264126,-23.581957483927955],[-46.59048385254512,-23.581957483927955],[-46.59057609235283,-23.581957483927955],[-46.59071445206441,-23.581957483927955],[-46.59089893167984,-23.58189232328632],[-46.59112953119913,-23.58189232328632],[-46.591360130718414,-23.58189232328632],[-46.591590730237705,-23.581827162644682],[-46.591729089949276,-23.581827162644682],[-46.592005809372424,-23.581827162644682],[-46.59269760793029,-23.581762002003046],[-46.59306656716115,-23.58169684136141],[-46.59348164629587,-23.58169684136141],[-46.593804485622876,-23.581631680719774],[-46.59403508514217,-23.581631680719774],[-46.5945424040846,-23.581566520078137],[-46.59528032254632,-23.581501359436505],[-46.59560316187333,-23.581501359436505],[-46.595649281777185,-23.581501359436505],[-46.59569540168104,-23.581501359436505],[-46.59634108033505,-23.58143619879487],[-46.59652555995048,-23.58143619879487],[-46.5966177997582,-23.58143619879487],[-46.596663919662056,-23.58143619879487],[-46.59671003956591,-23.581501359436505],[-46.59675615946977,-23.581501359436505],[-46.59680227937363,-23.581501359436505],[-46.596848399277484,-23.581501359436505],[-46.59689451918134,-23.581501359436505],[-46.596940639085204,-23.581501359436505],[-46.59698675898906,-23.581501359436505],[-46.59703287889292,-23.581501359436505],[-46.597078998796775,-23.581501359436505],[-46.59712511870063,-23.581501359436505],[-46.59717123860449,-23.581501359436505],[-46.597217358508345,-23.581501359436505],[-46.597217358508345,-23.581566520078137],[-46.5972634784122,-23.581566520078137],[-46.59735571821992,-23.581371038153232],[-46.59855483572022,-23.578829773129435],[-46.60003067264367,-23.575767222972548],[-46.60159874937483,-23.57244403024912],[-46.60302846639442,-23.569446640733872],[-46.603581905240716,-23.568273749184424],[-46.60408922418315,-23.567231178918252],[-46.604135344087005,-23.56710085763498],[-46.6043659436063,-23.56664473314353],[-46.60487326254873,-23.565602162877354],[-46.605196101875734,-23.56488539581936],[-46.60565730091431,-23.563842825553188],[-46.6058879004336,-23.563386701061738],[-46.60625685966446,-23.562669934003743],[-46.60639521937603,-23.562278970153926],[-46.60653357908761,-23.562083488229018],[-46.6070870179339,-23.56097575732121],[-46.60759433687634,-23.5598680264134],[-46.60814777572263,-23.558695134863953],[-46.60847061504963,-23.557978367805962],[-46.60888569418435,-23.557131279464695],[-46.609070173799786,-23.556740315614878],[-46.60920853351136,-23.5564145124067],[-46.60930077331907,-23.556284191123428],[-46.609485252934505,-23.556023548556883],[-46.60966973254993,-23.555762905990342],[-46.60994645197308,-23.555306781498892],[-46.6103615311078,-23.554720335724166],[-46.610914969954095,-23.554655175082534],[-46.61096108985795,-23.554720335724166],[-46.61096108985795,-23.554785496365803],[-46.61100720976181,-23.55485065700744],[-46.611330049088814,-23.55485065700744],[-46.61142228889653,-23.554720335724166],[-46.611468408800384,-23.554720335724166],[-46.61160676851196,-23.554655175082534],[-46.61179124812739,-23.554655175082534],[-46.612114087454394,-23.554655175082534],[-46.61239080687754,-23.554590014440898],[-46.612621406396826,-23.554590014440898],[-46.61294424572383,-23.55452485379926],[-46.61317484524312,-23.55452485379926],[-46.61345156466627,-23.55439453251599],[-46.61349768457013,-23.55439453251599],[-46.61349768457013,-23.554329371874353],[-46.61382052389713,-23.554329371874353],[-46.61409724332028,-23.554329371874353],[-46.614189483127994,-23.554329371874353],[-46.61428172293571,-23.554264211232717],[-46.61442008264728,-23.554264211232717],[-46.61460456226271,-23.554264211232717],[-46.61492740158972,-23.55419905059108],[-46.615158001109,-23.55419905059108],[-46.615204121012866,-23.55419905059108],[-46.61548084043601,-23.55419905059108],[-46.6160342792823,-23.554133889949444],[-46.61626487880159,-23.554068729307808],[-46.616541598224735,-23.554068729307808],[-46.6169105574556,-23.55400356866617],[-46.61709503707103,-23.55400356866617],[-46.61727951668646,-23.55400356866617],[-46.61769459582118,-23.55393840802454],[-46.618248034667474,-23.553873247382903],[-46.6189859531292,-23.553873247382903],[-46.61912431284077,-23.553808086741267],[-46.61949327207163,-23.553808086741267],[-46.61986223130249,-23.553808086741267],[-46.62013895072564,-23.55374292609963],[-46.62041567014879,-23.55374292609963],[-46.62055402986036,-23.55374292609963],[-46.62073850947579,-23.55374292609963],[-46.621107468706654,-23.55374292609963],[-46.62143030803366,-23.553677765457994],[-46.621476427937516,-23.553677765457994],[-46.62198374687995,-23.553677765457994],[-46.62262942553396,-23.553612604816358],[-46.622813905149386,-23.553612604816358],[-46.62286002505324,-23.553612604816358],[-46.62355182361111,-23.553547444174722],[-46.62382854303426,-23.553547444174722],[-46.623874662938114,-23.553547444174722],[-46.62392078284197,-23.553547444174722],[-46.62392078284197,-23.55374292609963],[-46.62405914255355,-23.553808086741267],[-46.62405914255355,-23.55374292609963],[-46.624105262457405,-23.55374292609963],[-46.62415138236126,-23.55374292609963],[-46.62415138236126,-23.553677765457994],[-46.62419750226512,-23.553677765457994],[-46.62438198188055,-23.553677765457994],[-46.62442810178441,-23.553677765457994],[-46.62447422168827,-23.553677765457994],[-46.624520341592124,-23.553677765457994],[-46.62456646149598,-23.553612604816358],[-46.62461258139984,-23.553612604816358],[-46.624889300822986,-23.553612604816358],[-46.62493542072684,-23.553612604816358],[-46.6249815406307,-23.553612604816358],[-46.62507378043842,-23.553547444174722],[-46.62511990034228,-23.553482283533086],[-46.625166020246134,-23.553482283533086],[-46.625166020246134,-23.55341712289145],[-46.62521214014999,-23.55341712289145],[-46.62525826005385,-23.55341712289145],[-46.62539661976542,-23.553351962249813],[-46.62539661976542,-23.553221640966544],[-46.62539661976542,-23.55315648032491],[-46.62539661976542,-23.553091319683272],[-46.62535049986156,-23.553091319683272],[-46.625304379957704,-23.552830677116727],[-46.625166020246134,-23.55217907070037],[-46.625166020246134,-23.552113910058733],[-46.62521214014999,-23.552113910058733],[-46.62525826005385,-23.552113910058733],[-46.62544273966928,-23.552113910058733],[-46.62544273966928,-23.55198358877546],[-46.62535049986156,-23.55172294620892],[-46.62535049986156,-23.551657785567283],[-46.62525826005385,-23.551331982359102],[-46.62525826005385,-23.55126682171747],[-46.62511990034228,-23.55126682171747],[-46.625027660534556,-23.551201661075833],[-46.62511990034228,-23.550875857867652],[-46.62511990034228,-23.550810697226016],[-46.625166020246134,-23.550680375942743],[-46.62525826005385,-23.550354572734566],[-46.62539661976542,-23.550028769526385],[-46.62548885957314,-23.549768126959844],[-46.625534979476996,-23.549572645034935],[-46.62558109938085,-23.5495074843933],[-46.62562721928471,-23.549377163110027],[-46.62562721928471,-23.54931200246839],[-46.62571945909242,-23.54918168118512],[-46.62590393870786,-23.54885587797694],[-46.62613453822714,-23.5485952354104],[-46.626180658131005,-23.548464914127127],[-46.62627289793872,-23.54839975348549],[-46.62636513774643,-23.548139110918946],[-46.62641125765029,-23.54807395027731],[-46.62641125765029,-23.548008789635674],[-46.626457377554146,-23.547943628994037],[-46.626457377554146,-23.547878468352405],[-46.626457377554146,-23.54781330771077],[-46.626457377554146,-23.547748147069132],[-46.626457377554146,-23.547682986427496],[-46.626457377554146,-23.54761782578586],[-46.626457377554146,-23.547552665144224],[-46.626457377554146,-23.547487504502588],[-46.626457377554146,-23.54742234386095],[-46.62668797707344,-23.54742234386095],[-46.62668797707344,-23.547357183219315],[-46.62668797707344,-23.54729202257768],[-46.62668797707344,-23.547226861936046],[-46.62668797707344,-23.547096540652774],[-46.62664185716958,-23.5469662193695],[-46.62664185716958,-23.546901058727865],[-46.62664185716958,-23.546770737444593],[-46.62664185716958,-23.546705576802957],[-46.626595737265724,-23.546249452311507],[-46.626595737265724,-23.54618429166987],[-46.62654961736187,-23.545793327820057],[-46.62654961736187,-23.545532685253512],[-46.62654961736187,-23.545467524611876],[-46.626503497458,-23.54494623947879],[-46.62641125765029,-23.54494623947879],[-46.62636513774643,-23.54475075755388],[-46.626503497458,-23.54429463306243],[-46.626595737265724,-23.54396882985425],[-46.62664185716958,-23.543903669212618],[-46.62668797707344,-23.54370818728771],[-46.62678021688115,-23.543317223437892],[-46.62682633678501,-23.543252062796256],[-46.62682633678501,-23.543121741512987],[-46.62682633678501,-23.54305658087135],[-46.62691857659273,-23.542795938304806],[-46.6270569363043,-23.542535295738265],[-46.6270569363043,-23.54247013509663],[-46.627103056208156,-23.542404974454993],[-46.62714917611201,-23.542404974454993],[-46.62714917611201,-23.542339813813356],[-46.62719529601587,-23.542339813813356],[-46.62724141591973,-23.54227465317172],[-46.62728753582359,-23.542209492530084],[-46.62733365572745,-23.542209492530084],[-46.62733365572745,-23.542144331888448],[-46.627379775631304,-23.542144331888448],[-46.627518135342875,-23.542014010605175],[-46.62770261495831,-23.54181852868027],[-46.627748734862166,-23.54181852868027],[-46.62779485476602,-23.541688207396998],[-46.62784097466988,-23.54162304675536],[-46.62788709457374,-23.54162304675536],[-46.62793321447759,-23.541557886113726],[-46.62797933438145,-23.541427564830453],[-46.628025454285314,-23.541362404188817],[-46.62807157418917,-23.541362404188817],[-46.62807157418917,-23.54129724354718],[-46.62793321447759,-23.54103660098064],[-46.627748734862166,-23.540515315847554],[-46.62770261495831,-23.540515315847554],[-46.62770261495831,-23.540450155205917],[-46.62765649505445,-23.54038499456428],[-46.627379775631304,-23.53979854878956],[-46.62733365572745,-23.539733388147923],[-46.62719529601587,-23.53940758493974],[-46.627103056208156,-23.539212103014833],[-46.627103056208156,-23.5391469423732],[-46.6270569363043,-23.539081781731564],[-46.626964696496586,-23.53882113916502],[-46.626734096977295,-23.53836501467357],[-46.62668797707344,-23.538234693390297],[-46.62664185716958,-23.53816953274866],[-46.62664185716958,-23.538104372107025],[-46.62664185716958,-23.53803921146539],[-46.62654961736187,-23.537908890182116],[-46.626503497458,-23.537778568898847],[-46.626457377554146,-23.53771340825721],[-46.626457377554146,-23.537648247615575],[-46.62641125765029,-23.537648247615575],[-46.62641125765029,-23.53758308697394],[-46.62636513774643,-23.537517926332303],[-46.62636513774643,-23.537452765690666],[-46.62627289793872,-23.537322444407394],[-46.62627289793872,-23.537257283765758],[-46.62613453822714,-23.536996641199217],[-46.62613453822714,-23.53693148055758],[-46.626088418323285,-23.53693148055758],[-46.626088418323285,-23.536866319915944],[-46.62599617851557,-23.536670837991036],[-46.62590393870786,-23.53647535606613],[-46.62590393870786,-23.536410195424494],[-46.62558109938085,-23.535823749649772],[-46.62558109938085,-23.535758589008136],[-46.625534979476996,-23.5356934283665],[-46.62548885957314,-23.535563107083227],[-46.625304379957704,-23.53517214323341],[-46.62525826005385,-23.535106982591778],[-46.62521214014999,-23.534976661308505],[-46.62521214014999,-23.53491150066687],[-46.625166020246134,-23.534846340025233],[-46.625166020246134,-23.53471601874196],[-46.62511990034228,-23.534585697458688],[-46.62511990034228,-23.534520536817052],[-46.62511990034228,-23.53445537617542],[-46.625027660534556,-23.53445537617542],[-46.625027660534556,-23.534390215533783],[-46.625027660534556,-23.534194733608874],[-46.625027660534556,-23.533999251683966],[-46.625027660534556,-23.53380376975906],[-46.625027660534556,-23.533608287834152],[-46.625027660534556,-23.53347796655088],[-46.62507378043842,-23.533347645267607],[-46.62507378043842,-23.53328248462597],[-46.62511990034228,-23.533087002701066],[-46.625166020246134,-23.532891520776158],[-46.62521214014999,-23.532761199492885],[-46.62525826005385,-23.532630878209613],[-46.625304379957704,-23.53250055692634],[-46.62539661976542,-23.532305075001435],[-46.625534979476996,-23.5322399143598],[-46.62558109938085,-23.532174753718163],[-46.62562721928471,-23.532109593076527],[-46.62571945909242,-23.531979271793254],[-46.625811698900144,-23.53178378986835],[-46.625857818804,-23.531718629226713],[-46.62590393870786,-23.53145798666017],[-46.62590393870786,-23.531392826018532],[-46.625950058611714,-23.531327665376896],[-46.62590393870786,-23.531132183451987],[-46.62590393870786,-23.53080638024381],[-46.62590393870786,-23.530415416393996],[-46.62590393870786,-23.530219934469088],[-46.62590393870786,-23.53015477382745],[-46.62590393870786,-23.53002445254418],[-46.62590393870786,-23.529959291902543],[-46.625857818804,-23.52924252484455],[-46.625857818804,-23.528721239711462],[-46.625857818804,-23.528656079069826],[-46.625857818804,-23.52859091842819],[-46.625857818804,-23.528460597144917],[-46.625811698900144,-23.52793931201183],[-46.625811698900144,-23.527548348162018],[-46.625811698900144,-23.527418026878745],[-46.625811698900144,-23.52735286623711],[-46.625811698900144,-23.52689674174566],[-46.62576557899628,-23.526636099179115],[-46.62576557899628,-23.52657093853748],[-46.62576557899628,-23.526505777895842],[-46.62576557899628,-23.526440617254206],[-46.62576557899628,-23.526310295970937],[-46.62576557899628,-23.526179974687665],[-46.62576557899628,-23.526049653404392],[-46.62576557899628,-23.525984492762756],[-46.62576557899628,-23.52591933212112],[-46.62576557899628,-23.525789010837848],[-46.62576557899628,-23.52565868955458],[-46.62576557899628,-23.525593528912943],[-46.62576557899628,-23.525528368271306],[-46.62576557899628,-23.525398046988034],[-46.62576557899628,-23.52526772570476],[-46.62571945909242,-23.52500708313822],[-46.62571945909242,-23.52481160121331],[-46.62571945909242,-23.52468127993004],[-46.62571945909242,-23.524616119288403],[-46.62571945909242,-23.524550958646767],[-46.62571945909242,-23.524290316080226],[-46.62571945909242,-23.524094834155317],[-46.62571945909242,-23.523964512872045],[-46.62571945909242,-23.52389935223041],[-46.62571945909242,-23.523834191588772],[-46.62571945909242,-23.523769030947136],[-46.62571945909242,-23.523703870305503],[-46.625673339188566,-23.523638709663867],[-46.625673339188566,-23.52344322773896],[-46.625673339188566,-23.523312906455686],[-46.625673339188566,-23.523182585172414],[-46.625673339188566,-23.523117424530778],[-46.625673339188566,-23.523052263889145],[-46.625673339188566,-23.52298710324751],[-46.625673339188566,-23.522856781964236],[-46.625673339188566,-23.5227916213226],[-46.625673339188566,-23.522726460680964],[-46.625673339188566,-23.52259613939769],[-46.625673339188566,-23.52233549683115],[-46.625673339188566,-23.522270336189514],[-46.625673339188566,-23.522205175547878],[-46.62562721928471,-23.52200969362297],[-46.62562721928471,-23.521944532981333],[-46.62562721928471,-23.52181421169806],[-46.62562721928471,-23.521683890414792],[-46.62562721928471,-23.521618729773156],[-46.62558109938085,-23.521423247848247],[-46.62558109938085,-23.52135808720661],[-46.62558109938085,-23.52122776592334],[-46.62558109938085,-23.521032283998434],[-46.62558109938085,-23.520967123356797],[-46.62558109938085,-23.520836802073525],[-46.62558109938085,-23.52077164143189],[-46.62558109938085,-23.520706480790253],[-46.62558109938085,-23.520641320148616],[-46.62558109938085,-23.52038067758207],[-46.62558109938085,-23.52031551694044],[-46.62558109938085,-23.520250356298803],[-46.62558109938085,-23.520185195657167],[-46.62558109938085,-23.52012003501553],[-46.62558109938085,-23.520054874373894],[-46.625534979476996,-23.519989713732258],[-46.625534979476996,-23.519859392448986],[-46.625534979476996,-23.51979423180735],[-46.625534979476996,-23.519729071165713],[-46.625534979476996,-23.51966391052408],[-46.625534979476996,-23.519598749882444],[-46.625534979476996,-23.519468428599172],[-46.625534979476996,-23.519403267957536]]]}}]}