{"type":"FeatureCollection","features":[{"type":"Feature","properties":{"DATA_ULT_A":"2009/10/09","DATA_CRIAC":"2009/10/09","id":21,"name":"Penha","area":42.8,"pop_2010":474659,"pop_density_2010":11090,"budget_2015":51479490},"geometry":{"type":"Polygon","coordinates":[[[-46.50004272108011,-23.47704885089423],[-46.50022720069554,-23.477309493460776],[-46.50022720069554,-23.47737465410241],[-46.500319440503254,-23.477439814744045],[-46.50036556040712,-23.47750497538568],[-46.500411680310975,-23.477570136027317],[-46.50045780021483,-23.477635296668954],[-46.50045780021483,-23.47770045731059],[-46.50050392011869,-23.47770045731059],[-46.5005961599264,-23.477830778593862],[-46.5005961599264,-23.4778959392355],[-46.50064227983026,-23.4778959392355],[-46.50064227983026,-23.477961099877135],[-46.5005961599264,-23.477961099877135],[-46.500550040022546,-23.477961099877135],[-46.500550040022546,-23.478026260518767],[-46.50050392011869,-23.478026260518767],[-46.50050392011869,-23.478091421160403],[-46.50050392011869,-23.47815658180204],[-46.50050392011869,-23.478221742443676],[-46.5005961599264,-23.478286903085312],[-46.5005961599264,-23.47835206372695],[-46.50064227983026,-23.478417224368584],[-46.500688399734116,-23.47848238501022],[-46.50073451963798,-23.478547545651857],[-46.50078063954184,-23.478612706293493],[-46.500826759445694,-23.47867786693513],[-46.50078063954184,-23.47867786693513],[-46.5005961599264,-23.478743027576762],[-46.5005961599264,-23.478808188218398],[-46.500550040022546,-23.478808188218398],[-46.50050392011869,-23.478873348860034],[-46.50045780021483,-23.478873348860034],[-46.50045780021483,-23.47893850950167],[-46.500411680310975,-23.479003670143307],[-46.50036556040712,-23.479068830784943],[-46.500319440503254,-23.47913399142658],[-46.50022720069554,-23.47926431270985],[-46.50013496088783,-23.479459794634757],[-46.50008884098397,-23.479459794634757],[-46.49999660117626,-23.47959011591803],[-46.49995048127239,-23.479655276559665],[-46.49995048127239,-23.4797204372013],[-46.499904361368536,-23.479785597842938],[-46.49985824146468,-23.479785597842938],[-46.49985824146468,-23.479850758484574],[-46.49981212156082,-23.47991591912621],[-46.499766001656965,-23.479981079767846],[-46.49971988175311,-23.48004624040948],[-46.49967376184925,-23.48004624040948],[-46.49958152204153,-23.48017656169275],[-46.499535402137674,-23.480241722334387],[-46.499535402137674,-23.480306882976024],[-46.49944316232996,-23.480437204259296],[-46.499397042426104,-23.480502364900932],[-46.49935092252225,-23.48056752554257],[-46.499258682714526,-23.48069784682584],[-46.49921256281067,-23.480763007467473],[-46.49902808319524,-23.481088810675654],[-46.498981963291385,-23.481088810675654],[-46.49893584338753,-23.48115397131729],[-46.498889723483664,-23.481284292600563],[-46.49884360357981,-23.481284292600563],[-46.49879748367595,-23.4813494532422],[-46.49870524386824,-23.481544935167104],[-46.49865912396438,-23.481544935167104],[-46.49865912396438,-23.48161009580874],[-46.49861300406052,-23.481675256450377],[-46.498566884156666,-23.481740417092013],[-46.498474644348946,-23.481870738375285],[-46.498336284637375,-23.48206622030019],[-46.49829016473352,-23.482131380941826],[-46.49824404482966,-23.482196541583463],[-46.49815180502194,-23.482326862866735],[-46.49805956521423,-23.482457184150007],[-46.49805956521423,-23.482522344791644],[-46.49801344531037,-23.482522344791644],[-46.49801344531037,-23.48258750543328],[-46.4978750855988,-23.482782987358185],[-46.49773672588722,-23.482913308641457],[-46.49773672588722,-23.482978469283093],[-46.497690605983365,-23.482978469283093],[-46.497690605983365,-23.48304362992473],[-46.49764448607951,-23.48304362992473],[-46.49764448607951,-23.483108790566366],[-46.49759836617565,-23.483108790566366],[-46.49750612636794,-23.483239111849638],[-46.49741388656022,-23.483434593774543],[-46.49736776665636,-23.483434593774543],[-46.49736776665636,-23.48349975441618],[-46.4973216467525,-23.483564915057816],[-46.49718328704093,-23.483695236341088],[-46.497137167137076,-23.48382555762436],[-46.49709104723322,-23.483890718265997],[-46.497044927329355,-23.483955878907633],[-46.4969988074255,-23.48402103954927],[-46.49695268752164,-23.4840862001909],[-46.496906567617785,-23.4840862001909],[-46.49686044771393,-23.484151360832538],[-46.49681432781007,-23.484151360832538],[-46.496768207906214,-23.484151360832538],[-46.49672208800236,-23.484151360832538],[-46.49672208800236,-23.484216521474174],[-46.496675968098494,-23.484216521474174],[-46.49662984819464,-23.484216521474174],[-46.49658372829078,-23.484216521474174],[-46.49653760838692,-23.484216521474174],[-46.496491488483066,-23.484216521474174],[-46.49644536857921,-23.484216521474174],[-46.49639924867535,-23.484216521474174],[-46.49630700886763,-23.48428168211581],[-46.496260888963775,-23.48428168211581],[-46.49639924867535,-23.484412003399083],[-46.496491488483066,-23.48447716404072],[-46.49658372829078,-23.48460748532399],[-46.49672208800236,-23.484672645965627],[-46.49681432781007,-23.484737806607264],[-46.496906567617785,-23.484802967248896],[-46.49695268752164,-23.484868127890532],[-46.4969988074255,-23.484868127890532],[-46.497044927329355,-23.48493328853217],[-46.497137167137076,-23.484998449173805],[-46.4973216467525,-23.48506360981544],[-46.49750612636794,-23.485193931098713],[-46.49759836617565,-23.48525909174035],[-46.49764448607951,-23.48525909174035],[-46.49782896569494,-23.485324252381986],[-46.49796732540651,-23.485389413023622],[-46.498105685118084,-23.485389413023622],[-46.498197924925805,-23.485389413023622],[-46.49829016473352,-23.485454573665255],[-46.49842852444509,-23.485454573665255],[-46.4985207642528,-23.485454573665255],[-46.498566884156666,-23.485454573665255],[-46.498751363772094,-23.48551973430689],[-46.498981963291385,-23.48551973430689],[-46.4990742030991,-23.48551973430689],[-46.49935092252225,-23.48551973430689],[-46.49948928223382,-23.48551973430689],[-46.49981212156082,-23.48551973430689],[-46.50008884098397,-23.48551973430689],[-46.50036556040712,-23.48551973430689],[-46.5005961599264,-23.48551973430689],[-46.5017952774267,-23.48551973430689],[-46.50188751723442,-23.48551973430689],[-46.50202587694599,-23.48551973430689],[-46.502348716273,-23.48551973430689],[-46.50244095608071,-23.48551973430689],[-46.5026715556,-23.48551973430689],[-46.50290215511929,-23.485584894948527],[-46.50313275463858,-23.485584894948527],[-46.50336335415787,-23.4857152162318],[-46.50364007358101,-23.485780376873436],[-46.503824553196445,-23.485910698156708],[-46.50400903281187,-23.485975858798344],[-46.504055152715736,-23.48604101943998],[-46.50414739252345,-23.486106180081613],[-46.50428575223502,-23.48617134072325],[-46.5044241119466,-23.486366822648158],[-46.504470231850455,-23.486431983289794],[-46.50456247165817,-23.486431983289794],[-46.504608591562025,-23.486562304573066],[-46.50479307117746,-23.486757786497975],[-46.50488531098517,-23.48695326842288],[-46.505023670696744,-23.48714875034779],[-46.505115910504465,-23.487344232272697],[-46.505254270216035,-23.487670035480875],[-46.50530039011989,-23.487865517405783],[-46.50548486973533,-23.488321641897233],[-46.50553098963918,-23.48838680253887],[-46.50553098963918,-23.488451963180506],[-46.50543874983146,-23.488451963180506],[-46.50543874983146,-23.48851712382214],[-46.505392629927606,-23.48851712382214],[-46.505392629927606,-23.488582284463778],[-46.50534651002375,-23.488647445105414],[-46.50530039011989,-23.48871260574705],[-46.50520815031218,-23.48884292703032],[-46.50516203040832,-23.488908087671955],[-46.505115910504465,-23.488908087671955],[-46.505115910504465,-23.48897324831359],[-46.5050697906006,-23.48897324831359],[-46.5050697906006,-23.489038408955228],[-46.505023670696744,-23.489038408955228],[-46.50497755079289,-23.489103569596864],[-46.50493143088903,-23.4891687302385],[-46.50488531098517,-23.489233890880136],[-46.50483919108132,-23.489233890880136],[-46.50483919108132,-23.489299051521773],[-46.50479307117746,-23.489299051521773],[-46.504746951273596,-23.48936421216341],[-46.50451635175431,-23.48936421216341],[-46.504470231850455,-23.48936421216341],[-46.50410127261959,-23.489494533446678],[-46.50373231338873,-23.489559694088314],[-46.5035478337733,-23.48962485472995],[-46.50299439492701,-23.489755176013222],[-46.50294827502315,-23.489755176013222],[-46.50285603521543,-23.48982033665486],[-46.5026715556,-23.489885497296495],[-46.50248707598457,-23.489885497296495],[-46.502256476465284,-23.489885497296495],[-46.50216423665756,-23.48995065793813],[-46.50202587694599,-23.490080979221403],[-46.50193363713828,-23.490146139863036],[-46.501841397330566,-23.490211300504672],[-46.501749157522845,-23.49027646114631],[-46.50165691771513,-23.490341621787945],[-46.50138019829198,-23.490471943071217],[-46.501195718676556,-23.49060226435449],[-46.50110347886884,-23.490667424996126],[-46.50105735896498,-23.490667424996126],[-46.50105735896498,-23.490732585637762],[-46.50101123906112,-23.490732585637762],[-46.500965119157264,-23.490732585637762],[-46.50091899925341,-23.490797746279394],[-46.500826759445694,-23.490797746279394],[-46.50078063954184,-23.49086290692103],[-46.500688399734116,-23.490928067562667],[-46.5005961599264,-23.490928067562667],[-46.500550040022546,-23.490928067562667],[-46.50050392011869,-23.490993228204303],[-46.50045780021483,-23.490993228204303],[-46.500411680310975,-23.490993228204303],[-46.50036556040712,-23.490993228204303],[-46.500319440503254,-23.49105838884594],[-46.5002733205994,-23.49105838884594],[-46.50022720069554,-23.49105838884594],[-46.500181080791684,-23.49105838884594],[-46.50013496088783,-23.49105838884594],[-46.50008884098397,-23.49105838884594],[-46.50004272108011,-23.49105838884594],[-46.49999660117626,-23.49105838884594],[-46.49995048127239,-23.49105838884594],[-46.49995048127239,-23.491123549487575],[-46.499904361368536,-23.491123549487575],[-46.49985824146468,-23.491123549487575],[-46.49981212156082,-23.491123549487575],[-46.499766001656965,-23.49118871012921],[-46.49971988175311,-23.49118871012921],[-46.49958152204153,-23.491253870770848],[-46.49948928223382,-23.491253870770848],[-46.49935092252225,-23.491319031412484],[-46.49930480261839,-23.491319031412484],[-46.49921256281067,-23.491319031412484],[-46.499120323002956,-23.49138419205412],[-46.4990742030991,-23.49138419205412],[-46.498981963291385,-23.491449352695753],[-46.49893584338753,-23.491449352695753],[-46.498889723483664,-23.491449352695753],[-46.49884360357981,-23.49151451333739],[-46.49879748367595,-23.49151451333739],[-46.498751363772094,-23.49151451333739],[-46.49870524386824,-23.491579673979025],[-46.49865912396438,-23.491579673979025],[-46.49861300406052,-23.491579673979025],[-46.498566884156666,-23.491579673979025],[-46.498566884156666,-23.49164483462066],[-46.4985207642528,-23.49164483462066],[-46.4985207642528,-23.491709995262298],[-46.4985207642528,-23.491775155903934],[-46.4985207642528,-23.49184031654557],[-46.4985207642528,-23.491905477187206],[-46.4985207642528,-23.491970637828842],[-46.498474644348946,-23.491970637828842],[-46.498474644348946,-23.49203579847048],[-46.498474644348946,-23.492100959112115],[-46.498474644348946,-23.492166119753747],[-46.498474644348946,-23.492231280395384],[-46.498474644348946,-23.49229644103702],[-46.498474644348946,-23.492361601678656],[-46.498474644348946,-23.49249192296193],[-46.498474644348946,-23.492557083603565],[-46.49842852444509,-23.492687404886837],[-46.49842852444509,-23.492752565528473],[-46.49842852444509,-23.492882886811742],[-46.49842852444509,-23.49294804745338],[-46.49842852444509,-23.493013208095014],[-46.49838240454123,-23.493143529378287],[-46.49838240454123,-23.49307836873665],[-46.49829016473352,-23.49307836873665],[-46.49829016473352,-23.493143529378287],[-46.49829016473352,-23.493339011303195],[-46.49829016473352,-23.49372997515301],[-46.49829016473352,-23.49386029643628],[-46.49829016473352,-23.493925457077918],[-46.49829016473352,-23.493990617719554],[-46.49829016473352,-23.494120939002826],[-46.49824404482966,-23.49418609964446],[-46.49824404482966,-23.49431642092773],[-46.49824404482966,-23.494381581569368],[-46.49824404482966,-23.49451190285264],[-46.49824404482966,-23.494577063494276],[-46.49824404482966,-23.494642224135912],[-46.498197924925805,-23.494772545419185],[-46.498197924925805,-23.494837706060817],[-46.498197924925805,-23.494902866702454],[-46.49815180502194,-23.494902866702454],[-46.49815180502194,-23.49496802734409],[-46.49815180502194,-23.495033187985726],[-46.498105685118084,-23.495098348627362],[-46.49805956521423,-23.495163509269],[-46.49805956521423,-23.49529383055227],[-46.49801344531037,-23.495358991193907],[-46.49801344531037,-23.495424151835543],[-46.49796732540651,-23.495554473118812],[-46.49792120550266,-23.495619633760448],[-46.49792120550266,-23.495684794402084],[-46.49792120550266,-23.49574995504372],[-46.4978750855988,-23.49574995504372],[-46.4978750855988,-23.495880276326993],[-46.49782896569494,-23.496010597610265],[-46.49778284579108,-23.4960757582519],[-46.49773672588722,-23.496140918893538],[-46.497690605983365,-23.49620607953517],[-46.49759836617565,-23.496336400818443],[-46.49750612636794,-23.49640156146008],[-46.49746000646408,-23.496466722101715],[-46.49741388656022,-23.496597043384988],[-46.4973216467525,-23.496662204026624],[-46.49727552684865,-23.49672736466826],[-46.49722940694479,-23.49672736466826],[-46.497137167137076,-23.49685768595153],[-46.49709104723322,-23.4969880072348],[-46.497044927329355,-23.4969880072348],[-46.49695268752164,-23.497118328518074],[-46.49686044771393,-23.497248649801346],[-46.496768207906214,-23.497313810442982],[-46.496675968098494,-23.497444131726255],[-46.49662984819464,-23.497509292367887],[-46.49644536857921,-23.497704774292796],[-46.49639924867535,-23.497769934934432],[-46.49630700886763,-23.497900256217704],[-46.496260888963775,-23.497900256217704],[-46.49621476905992,-23.497900256217704],[-46.49621476905992,-23.497835095576068],[-46.49616864915606,-23.497835095576068],[-46.49616864915606,-23.497769934934432],[-46.496122529252204,-23.497769934934432],[-46.49607640934835,-23.497835095576068],[-46.49607640934835,-23.497900256217704],[-46.495984169540634,-23.49796541685934],[-46.49593804963677,-23.498030577500977],[-46.495845809829056,-23.498226059425882],[-46.49575357002134,-23.498356380709154],[-46.49575357002134,-23.49842154135079],[-46.49566133021363,-23.498551862634063],[-46.49561521030977,-23.498551862634063],[-46.49561521030977,-23.4986170232757],[-46.49556909040591,-23.498682183917335],[-46.49543073069434,-23.49887766584224],[-46.49529237098277,-23.499007987125513],[-46.495061771463476,-23.49920346905042],[-46.49496953165576,-23.499268629692057],[-46.49464669232876,-23.499464111616966],[-46.49446221271332,-23.499594432900235],[-46.494416092809466,-23.49965959354187],[-46.49436997290561,-23.49965959354187],[-46.49432385300175,-23.499724754183507],[-46.49423161319404,-23.499789914825143],[-46.49423161319404,-23.49985507546678],[-46.49413937338632,-23.499920236108416],[-46.49413937338632,-23.499985396750052],[-46.49413937338632,-23.50005055739169],[-46.49409325348246,-23.500115718033324],[-46.49409325348246,-23.50018087867496],[-46.49409325348246,-23.500246039316593],[-46.494047133578604,-23.50031119995823],[-46.494047133578604,-23.500376360599866],[-46.494047133578604,-23.500441521241502],[-46.49409325348246,-23.500571842524774],[-46.49413937338632,-23.50083248509132],[-46.49423161319404,-23.501158288299496],[-46.49423161319404,-23.501223448941133],[-46.49423161319404,-23.501353770224405],[-46.49423161319404,-23.50154925214931],[-46.49423161319404,-23.50187505535749],[-46.49418549329018,-23.502135697924036],[-46.49418549329018,-23.502200858565672],[-46.49418549329018,-23.502591822415486],[-46.49413937338632,-23.502917625623663],[-46.49413937338632,-23.503178268190208],[-46.49413937338632,-23.503373750115117],[-46.49413937338632,-23.50350407139839],[-46.49409325348246,-23.50350407139839],[-46.49409325348246,-23.50356923204002],[-46.494047133578604,-23.50356923204002],[-46.494047133578604,-23.50376471396493],[-46.494047133578604,-23.503895035248203],[-46.494047133578604,-23.504025356531475],[-46.494047133578604,-23.504155677814747],[-46.494277733097896,-23.505133087439283],[-46.49432385300175,-23.505328569364192],[-46.49436997290561,-23.505589211930733],[-46.494416092809466,-23.505719533214005],[-46.49446221271332,-23.50578469385564],[-46.49450833261719,-23.505915015138914],[-46.494554452521044,-23.50598017578055],[-46.4946005724249,-23.50617565770546],[-46.494692812232614,-23.506371139630364],[-46.494692812232614,-23.506501460913636],[-46.494554452521044,-23.50676210348018],[-46.4946005724249,-23.50676210348018],[-46.49464669232876,-23.50676210348018],[-46.494692812232614,-23.50676210348018],[-46.49473893213647,-23.50676210348018],[-46.49478505204033,-23.50676210348018],[-46.49487729184805,-23.50676210348018],[-46.494923411751905,-23.50676210348018],[-46.49496953165576,-23.50676210348018],[-46.49501565155962,-23.50676210348018],[-46.495061771463476,-23.50676210348018],[-46.495061771463476,-23.506696942838545],[-46.49515401127119,-23.506696942838545],[-46.49520013117505,-23.506696942838545],[-46.49524625107891,-23.506696942838545],[-46.49529237098277,-23.506696942838545],[-46.495338490886624,-23.506696942838545],[-46.49538461079048,-23.50676210348018],[-46.49543073069434,-23.50676210348018],[-46.495476850598195,-23.50676210348018],[-46.49552297050205,-23.50676210348018],[-46.49556909040591,-23.50676210348018],[-46.49561521030977,-23.506827264121817],[-46.49566133021363,-23.506827264121817],[-46.495707450117486,-23.506827264121817],[-46.4957996899252,-23.506827264121817],[-46.495845809829056,-23.506892424763453],[-46.49589192973291,-23.506892424763453],[-46.49593804963677,-23.506892424763453],[-46.495984169540634,-23.506892424763453],[-46.49603028944449,-23.506892424763453],[-46.496122529252204,-23.506957585405086],[-46.49616864915606,-23.506957585405086],[-46.49621476905992,-23.506957585405086],[-46.496260888963775,-23.506957585405086],[-46.49630700886763,-23.506957585405086],[-46.49639924867535,-23.507022746046722],[-46.49644536857921,-23.507022746046722],[-46.49658372829078,-23.50708790668836],[-46.49662984819464,-23.507153067329995],[-46.496675968098494,-23.507153067329995],[-46.49681432781007,-23.50721822797163],[-46.49686044771393,-23.507283388613267],[-46.496906567617785,-23.507283388613267],[-46.49695268752164,-23.507348549254903],[-46.4969988074255,-23.507348549254903],[-46.497044927329355,-23.50741370989654],[-46.497137167137076,-23.507478870538176],[-46.49722940694479,-23.507544031179812],[-46.49727552684865,-23.507544031179812],[-46.4973216467525,-23.507544031179812],[-46.49736776665636,-23.507544031179812],[-46.49741388656022,-23.507544031179812],[-46.497552246271795,-23.507544031179812],[-46.49759836617565,-23.507544031179812],[-46.49764448607951,-23.507544031179812],[-46.49778284579108,-23.507544031179812],[-46.4978750855988,-23.507544031179812],[-46.49796732540651,-23.507544031179812],[-46.49801344531037,-23.507544031179812],[-46.498105685118084,-23.507544031179812],[-46.49815180502194,-23.507544031179812],[-46.498197924925805,-23.507544031179812],[-46.49829016473352,-23.507544031179812],[-46.49838240454123,-23.507544031179812],[-46.498474644348946,-23.507609191821444],[-46.4985207642528,-23.507609191821444],[-46.498566884156666,-23.507609191821444],[-46.49861300406052,-23.50767435246308],[-46.49865912396438,-23.50767435246308],[-46.49870524386824,-23.50767435246308],[-46.49879748367595,-23.50767435246308],[-46.49884360357981,-23.50767435246308],[-46.498889723483664,-23.50767435246308],[-46.498981963291385,-23.50767435246308],[-46.49902808319524,-23.50767435246308],[-46.499120323002956,-23.50767435246308],[-46.49916644290681,-23.507739513104717],[-46.499258682714526,-23.507739513104717],[-46.49930480261839,-23.507739513104717],[-46.49935092252225,-23.507739513104717],[-46.499397042426104,-23.507739513104717],[-46.49944316232996,-23.507739513104717],[-46.49948928223382,-23.507739513104717],[-46.499535402137674,-23.507739513104717],[-46.49958152204153,-23.507739513104717],[-46.499627641945395,-23.507739513104717],[-46.49967376184925,-23.50767435246308],[-46.49971988175311,-23.50767435246308],[-46.499766001656965,-23.50767435246308],[-46.49981212156082,-23.507609191821444],[-46.49985824146468,-23.507609191821444],[-46.499904361368536,-23.507609191821444],[-46.49995048127239,-23.507609191821444],[-46.49999660117626,-23.507544031179812],[-46.50004272108011,-23.507544031179812],[-46.50008884098397,-23.507544031179812],[-46.50013496088783,-23.507609191821444],[-46.500181080791684,-23.507609191821444],[-46.500181080791684,-23.50767435246308],[-46.50022720069554,-23.507739513104717],[-46.50022720069554,-23.50786983438799],[-46.50022720069554,-23.507934995029625],[-46.50022720069554,-23.50800015567126],[-46.5002733205994,-23.50800015567126],[-46.5002733205994,-23.508065316312898],[-46.500319440503254,-23.508065316312898],[-46.50036556040712,-23.508065316312898],[-46.50045780021483,-23.508130476954534],[-46.50050392011869,-23.50819563759617],[-46.50050392011869,-23.508260798237806],[-46.500550040022546,-23.50832595887944],[-46.500550040022546,-23.508391119521075],[-46.5005961599264,-23.508391119521075],[-46.50064227983026,-23.50845628016271],[-46.500688399734116,-23.50845628016271],[-46.50073451963798,-23.508521440804348],[-46.50078063954184,-23.508521440804348],[-46.500826759445694,-23.508586601445984],[-46.50091899925341,-23.508586601445984],[-46.500965119157264,-23.50865176208762],[-46.50105735896498,-23.508716922729256],[-46.5011495987727,-23.508782083370892],[-46.501195718676556,-23.508782083370892],[-46.50128795848427,-23.50884724401253],[-46.501334078388126,-23.50884724401253],[-46.50138019829198,-23.50884724401253],[-46.50142631819584,-23.50884724401253],[-46.501472438099704,-23.50884724401253],[-46.50151855800356,-23.50884724401253],[-46.50156467790742,-23.50884724401253],[-46.5017952774267,-23.508782083370892],[-46.501841397330566,-23.508782083370892],[-46.50193363713828,-23.508782083370892],[-46.50216423665756,-23.508716922729256],[-46.50221035656143,-23.508716922729256],[-46.50230259636914,-23.508716922729256],[-46.502348716273,-23.508716922729256],[-46.50244095608071,-23.508716922729256],[-46.502533195888425,-23.508716922729256],[-46.5026715556,-23.50865176208762],[-46.50290215511929,-23.508586601445984],[-46.50294827502315,-23.508521440804348],[-46.50299439492701,-23.508521440804348],[-46.503040514830865,-23.508521440804348],[-46.503178874542435,-23.508521440804348],[-46.50322499444629,-23.508521440804348],[-46.50331723425401,-23.50845628016271],[-46.50336335415787,-23.50845628016271],[-46.503409474061726,-23.50845628016271],[-46.50350171386944,-23.50845628016271],[-46.50350171386944,-23.508391119521075],[-46.503593953677154,-23.508391119521075],[-46.50364007358101,-23.508391119521075],[-46.503686193484874,-23.508391119521075],[-46.50373231338873,-23.50832595887944],[-46.50377843329259,-23.50832595887944],[-46.50391679300416,-23.50832595887944],[-46.503962912908015,-23.50832595887944],[-46.50400903281187,-23.50832595887944],[-46.50410127261959,-23.508391119521075],[-46.50419351242731,-23.508391119521075],[-46.50428575223502,-23.508391119521075],[-46.504377992042734,-23.508391119521075],[-46.504470231850455,-23.50845628016271],[-46.50456247165817,-23.50845628016271],[-46.50465471146588,-23.50845628016271],[-46.504746951273596,-23.50845628016271],[-46.50483919108132,-23.508521440804348],[-46.50488531098517,-23.508521440804348],[-46.50497755079289,-23.508521440804348],[-46.5050697906006,-23.508521440804348],[-46.505115910504465,-23.508521440804348],[-46.50520815031218,-23.508521440804348],[-46.505254270216035,-23.508521440804348],[-46.50534651002375,-23.508521440804348],[-46.505392629927606,-23.508586601445984],[-46.50548486973533,-23.508586601445984],[-46.50557710954304,-23.508586601445984],[-46.5056232294469,-23.50865176208762],[-46.505669349350754,-23.508716922729256],[-46.50571546925461,-23.508782083370892],[-46.50576158915847,-23.50884724401253],[-46.505807709062324,-23.50884724401253],[-46.505899948870045,-23.508912404654165],[-46.50599218867776,-23.508977565295798],[-46.506038308581616,-23.508977565295798],[-46.50608442848547,-23.508977565295798],[-46.50613054838933,-23.508977565295798],[-46.506176668293186,-23.508977565295798],[-46.50622278819705,-23.508977565295798],[-46.506315028004764,-23.508977565295798],[-46.50636114790862,-23.508977565295798],[-46.50659174742791,-23.508977565295798],[-46.50663786733177,-23.508977565295798],[-46.506683987235625,-23.508977565295798],[-46.50673010713948,-23.508977565295798],[-46.50677622704334,-23.508977565295798],[-46.50677622704334,-23.509042725937434],[-46.506822346947196,-23.509042725937434],[-46.50686846685105,-23.50910788657907],[-46.50686846685105,-23.509173047220706],[-46.50691458675491,-23.509173047220706],[-46.506960706658774,-23.509238207862342],[-46.50700682656263,-23.509238207862342],[-46.50705294646649,-23.50930336850398],[-46.507099066370344,-23.509368529145615],[-46.5071451862742,-23.509368529145615],[-46.50719130617806,-23.509368529145615],[-46.50728354598577,-23.509368529145615],[-46.507329665889635,-23.50943368978725],[-46.50742190569735,-23.50943368978725],[-46.50751414550506,-23.50943368978725],[-46.50756026540892,-23.50943368978725],[-46.507606385312776,-23.509498850428887],[-46.50765250521663,-23.509498850428887],[-46.5076986251205,-23.509498850428887],[-46.507744745024354,-23.509498850428887],[-46.50783698483207,-23.509498850428887],[-46.507883104735924,-23.509564011070523],[-46.50792922463978,-23.509564011070523],[-46.50797534454364,-23.509564011070523],[-46.508021464447495,-23.509564011070523],[-46.508113704255216,-23.509629171712156],[-46.50815982415907,-23.509629171712156],[-46.508252063966786,-23.509629171712156],[-46.50829818387064,-23.509629171712156],[-46.5083443037745,-23.509629171712156],[-46.50839042367836,-23.509629171712156],[-46.50843654358222,-23.509629171712156],[-46.508528783389934,-23.509564011070523],[-46.50857490329379,-23.509564011070523],[-46.50862102319765,-23.509564011070523],[-46.508667143101505,-23.509564011070523],[-46.508667143101505,-23.509498850428887],[-46.50871326300536,-23.509498850428887],[-46.50875938290922,-23.509498850428887],[-46.50880550281308,-23.509498850428887],[-46.50880550281308,-23.50943368978725],[-46.50885162271694,-23.50943368978725],[-46.508897742620796,-23.50943368978725],[-46.50894386252465,-23.50943368978725],[-46.50898998242851,-23.509498850428887],[-46.50912834214008,-23.509498850428887],[-46.509174462043944,-23.509498850428887],[-46.50926670185166,-23.509498850428887],[-46.509312821755515,-23.509498850428887],[-46.50940506156323,-23.509564011070523],[-46.509451181467085,-23.509564011070523],[-46.50949730137094,-23.509564011070523],[-46.509543421274806,-23.509564011070523],[-46.50958954117866,-23.509564011070523],[-46.50963566108252,-23.509564011070523],[-46.50968178098638,-23.509564011070523],[-46.50972790089023,-23.509564011070523],[-46.50977402079409,-23.509564011070523],[-46.50982014069795,-23.509564011070523],[-46.509866260601804,-23.509564011070523],[-46.509866260601804,-23.509629171712156],[-46.50991238050567,-23.50975949299543],[-46.509958500409525,-23.509824653637065],[-46.509958500409525,-23.5098898142787],[-46.51000462031338,-23.5098898142787],[-46.51000462031338,-23.509954974920337],[-46.51005074021724,-23.509954974920337],[-46.510096860121095,-23.510020135561973],[-46.51014298002495,-23.510020135561973],[-46.51018909992881,-23.510020135561973],[-46.510235219832666,-23.510020135561973],[-46.51028133973653,-23.510020135561973],[-46.510327459640386,-23.510020135561973],[-46.51037357954424,-23.510020135561973],[-46.5104196994481,-23.510020135561973],[-46.51046581935196,-23.510020135561973],[-46.51055805915967,-23.510020135561973],[-46.510604179063535,-23.510020135561973],[-46.510880898486676,-23.51008529620361],[-46.51092701839053,-23.51008529620361],[-46.510973138294396,-23.51008529620361],[-46.51101925819825,-23.51008529620361],[-46.51106537810211,-23.51008529620361],[-46.51106537810211,-23.510150456845246],[-46.51120373781368,-23.510150456845246],[-46.511295977621394,-23.510150456845246],[-46.511388217429115,-23.510150456845246],[-46.51143433733297,-23.510150456845246],[-46.51148045723683,-23.510150456845246],[-46.511526577140685,-23.510150456845246],[-46.51157269704454,-23.51021561748688],[-46.5116188169484,-23.510280778128518],[-46.51175717665998,-23.51034593877015],[-46.51184941646769,-23.510476260053423],[-46.51198777617926,-23.51054142069506],[-46.512172255794695,-23.51067174197833],[-46.51221837569855,-23.51067174197833],[-46.512310615506266,-23.510736902619968],[-46.51240285531398,-23.510736902619968],[-46.5124950951217,-23.510802063261604],[-46.512587334929414,-23.510802063261604],[-46.512817934448705,-23.51086722390324],[-46.51291017425642,-23.51099754518651],[-46.51304853396799,-23.511062705828145],[-46.5131407737757,-23.511062705828145],[-46.51318689367957,-23.511062705828145],[-46.51327913348728,-23.51112786646978],[-46.513371373294994,-23.51112786646978],[-46.51341749319885,-23.51112786646978],[-46.513509733006565,-23.51112786646978],[-46.513601972814286,-23.51112786646978],[-46.51364809271814,-23.51112786646978],[-46.513740332525856,-23.511062705828145],[-46.51378645242971,-23.511062705828145],[-46.51387869223743,-23.511062705828145],[-46.51392481214129,-23.51099754518651],[-46.51397093204515,-23.51099754518651],[-46.514017051949004,-23.51099754518651],[-46.51406317185286,-23.511062705828145],[-46.51410929175672,-23.511062705828145],[-46.51420153156443,-23.51112786646978],[-46.51429377137215,-23.51112786646978],[-46.514386011179866,-23.51112786646978],[-46.51447825098758,-23.511193027111418],[-46.51461661069915,-23.511193027111418],[-46.514662730603014,-23.511193027111418],[-46.514801090314585,-23.511258187753054],[-46.5148933301223,-23.51132334839469],[-46.515031689833876,-23.511388509036326],[-46.515170049545446,-23.511453669677962],[-46.51530840925702,-23.511453669677962],[-46.51540064906474,-23.5115188303196],[-46.515585128680165,-23.511583990961235],[-46.51572348839174,-23.511649151602867],[-46.5157696082956,-23.511714312244504],[-46.515815728199456,-23.511714312244504],[-46.51586184810331,-23.511649151602867],[-46.51590796800717,-23.511714312244504],[-46.51600020781488,-23.511714312244504],[-46.516092447622604,-23.511714312244504],[-46.516230807334175,-23.51177947288614],[-46.51627692723803,-23.51177947288614],[-46.516369167045745,-23.51177947288614],[-46.5164152869496,-23.511844633527776],[-46.51650752675732,-23.511844633527776],[-46.51659976656504,-23.511909794169412],[-46.51664588646889,-23.511909794169412],[-46.51673812627661,-23.51197495481105],[-46.516784246180464,-23.51197495481105],[-46.51683036608433,-23.51197495481105],[-46.516876485988185,-23.512040115452685],[-46.51692260589204,-23.512040115452685],[-46.517014845699755,-23.51210527609432],[-46.51710708550747,-23.51210527609432],[-46.517153205411326,-23.512170436735957],[-46.51724544521905,-23.512170436735957],[-46.5172915651229,-23.512235597377593],[-46.51738380493062,-23.51230075801923],[-46.51747604473833,-23.512365918660862],[-46.51756828454605,-23.512431079302498],[-46.517660524353765,-23.512496239944134],[-46.51775276416148,-23.512496239944134],[-46.517798884065336,-23.51256140058577],[-46.51789112387305,-23.512626561227407],[-46.51798336368077,-23.512691721869043],[-46.518075603488484,-23.51275688251068],[-46.518213963200054,-23.512822043152315],[-46.51826008310391,-23.512822043152315],[-46.518306203007775,-23.51288720379395],[-46.51835232291163,-23.51288720379395],[-46.51839844281549,-23.51288720379395],[-46.518444562719345,-23.51288720379395],[-46.5184906826232,-23.51288720379395],[-46.518582922430916,-23.512952364435588],[-46.51876740204635,-23.51301752507722],[-46.51890576175792,-23.513082685718857],[-46.518998001565635,-23.513147846360493],[-46.5190441214695,-23.513147846360493],[-46.51913636127721,-23.51321300700213],[-46.519228601084926,-23.513278167643765],[-46.51932084089264,-23.5133433282854],[-46.519366960796496,-23.513408488927038],[-46.519505320508074,-23.513473649568674],[-46.51955144041193,-23.51353881021031],[-46.5196898001235,-23.513603970851946],[-46.51982815983508,-23.51379945277685],[-46.51996651954665,-23.513929774060124],[-46.520012639450506,-23.513929774060124],[-46.52005875935436,-23.51399493470176],[-46.52019711906594,-23.51399493470176],[-46.52038159868137,-23.514060095343396],[-46.520519958392946,-23.514125255985032],[-46.52070443800837,-23.514125255985032],[-46.52084279771995,-23.51419041662667],[-46.520935037527664,-23.51419041662667],[-46.52098115743152,-23.514255577268305],[-46.52111951714309,-23.514255577268305],[-46.52116563704695,-23.514255577268305],[-46.520935037527664,-23.514385898551573],[-46.52061219820066,-23.514581380476482],[-46.52038159868137,-23.51477686240139],[-46.51978203993122,-23.51523298689284],[-46.51918248118107,-23.515493629459385],[-46.518213963200054,-23.515949753950835],[-46.51775276416148,-23.516145235875744],[-46.51738380493062,-23.516405878442285],[-46.51710708550747,-23.516536199725557],[-46.51664588646889,-23.516796842292102],[-46.51590796800717,-23.51712264550028],[-46.515354529160874,-23.517383288066824],[-46.51498556993001,-23.517578769991733],[-46.514155411660575,-23.51810005512482],[-46.51387869223743,-23.518295537049728],[-46.513694212622,-23.518425858332996],[-46.51346361310271,-23.518621340257905],[-46.513233013583424,-23.518816822182814],[-46.51300241406413,-23.519012304107722],[-46.512725694640984,-23.51914262539099],[-46.5124950951217,-23.519272946674263],[-46.51221837569855,-23.5193381073159],[-46.51175717665998,-23.519403267957536],[-46.51101925819825,-23.519468428599172],[-46.51083477858282,-23.519533589240808],[-46.51065029896739,-23.519598749882444],[-46.5104196994481,-23.51966391052408],[-46.51014298002495,-23.51979423180735],[-46.50972790089023,-23.519924553090622],[-46.50958954117866,-23.519924553090622],[-46.50885162271694,-23.52012003501553],[-46.50862102319765,-23.520250356298803],[-46.50797534454364,-23.520445838223708],[-46.5076986251205,-23.520510998865344],[-46.50742190569735,-23.520510998865344],[-46.50691458675491,-23.52057615950698],[-46.5059460687739,-23.52057615950698],[-46.505115910504465,-23.52057615950698],[-46.504608591562025,-23.520641320148616],[-46.50414739252345,-23.520641320148616],[-46.503824553196445,-23.520641320148616],[-46.50345559396558,-23.520641320148616],[-46.50299439492701,-23.52057615950698],[-46.50257931579229,-23.520510998865344],[-46.50101123906112,-23.52031551694044],[-46.50036556040712,-23.520185195657167],[-46.50022720069554,-23.520185195657167],[-46.50004272108011,-23.520185195657167],[-46.499904361368536,-23.520185195657167],[-46.499627641945395,-23.520250356298803],[-46.499120323002956,-23.520445838223708],[-46.49824404482966,-23.520706480790253],[-46.49801344531037,-23.52077164143189],[-46.4969988074255,-23.521097444640066],[-46.49662984819464,-23.521162605281702],[-46.49644536857921,-23.52122776592334],[-46.495984169540634,-23.52135808720661],[-46.495476850598195,-23.521618729773156],[-46.49524625107891,-23.52181421169806],[-46.495061771463476,-23.52200969362297],[-46.49496953165576,-23.522140014906242],[-46.494923411751905,-23.522400657472783],[-46.49478505204033,-23.522661300039328],[-46.49473893213647,-23.5227916213226],[-46.494554452521044,-23.523052263889145],[-46.49436997290561,-23.52324774581405],[-46.494047133578604,-23.523508388380595],[-46.49358593454003,-23.523834191588772],[-46.49335533502074,-23.523964512872045],[-46.4930786155976,-23.52422515543859],[-46.49229457723201,-23.52481160121331],[-46.492063977712725,-23.525072243779857],[-46.49169501848186,-23.525332886346398],[-46.491326059251,-23.525789010837848],[-46.49095710002014,-23.5262451353293],[-46.490772620404705,-23.52657093853748],[-46.49040366117384,-23.52702706302893],[-46.49017306165456,-23.52735286623711],[-46.49003470194298,-23.527613508803654],[-46.49003470194298,-23.52767866944529],[-46.48994246213527,-23.527743830086926],[-46.48975798251984,-23.527743830086926],[-46.48971186261598,-23.527743830086926],[-46.48966574271212,-23.527743830086926],[-46.489573502904406,-23.527743830086926],[-46.48952738300055,-23.527743830086926],[-46.48948126309669,-23.52767866944529],[-46.489435143192836,-23.527613508803654],[-46.48938902328898,-23.527613508803654],[-46.489342903385115,-23.527548348162018],[-46.48929678348126,-23.52748318752038],[-46.48929678348126,-23.527418026878745],[-46.4892506635774,-23.527418026878745],[-46.4892506635774,-23.52735286623711],[-46.489204543673544,-23.52735286623711],[-46.48915842376969,-23.527287705595473],[-46.48911230386583,-23.527287705595473],[-46.48911230386583,-23.527222544953837],[-46.489066183961974,-23.5271573843122],[-46.48902006405811,-23.5271573843122],[-46.48902006405811,-23.527092223670564],[-46.48897394415425,-23.527092223670564],[-46.48897394415425,-23.52702706302893],[-46.48897394415425,-23.526961902387296],[-46.488927824250396,-23.526961902387296],[-46.48888170434654,-23.52689674174566],[-46.48883558444268,-23.52689674174566],[-46.488789464538826,-23.52689674174566],[-46.488789464538826,-23.526831581104023],[-46.48874334463497,-23.526766420462387],[-46.48874334463497,-23.52670125982075],[-46.48869722473111,-23.52670125982075],[-46.48865110482725,-23.52670125982075],[-46.48865110482725,-23.526636099179115],[-46.48860498492339,-23.52657093853748],[-46.488558865019534,-23.526505777895842],[-46.48851274511568,-23.526505777895842],[-46.48851274511568,-23.526440617254206],[-46.48846662521182,-23.526440617254206],[-46.48846662521182,-23.526375456612573],[-46.488420505307964,-23.526375456612573],[-46.488420505307964,-23.526310295970937],[-46.48837438540411,-23.5262451353293],[-46.48837438540411,-23.526179974687665],[-46.48832826550025,-23.52611481404603],[-46.48832826550025,-23.526049653404392],[-46.488282145596386,-23.526049653404392],[-46.488282145596386,-23.525984492762756],[-46.48823602569253,-23.525984492762756],[-46.48823602569253,-23.52591933212112],[-46.48818990578867,-23.52591933212112],[-46.488143785884816,-23.525854171479484],[-46.48809766598096,-23.525854171479484],[-46.4880515460771,-23.525789010837848],[-46.488005426173245,-23.525854171479484],[-46.48786706646167,-23.525984492762756],[-46.48782094655781,-23.525984492762756],[-46.4877287067501,-23.52611481404603],[-46.48759034703853,-23.526179974687665],[-46.48754422713466,-23.526179974687665],[-46.48745198732695,-23.5262451353293],[-46.487359747519235,-23.526310295970937],[-46.48726750771152,-23.526310295970937],[-46.4871752679038,-23.526310295970937],[-46.48708302809609,-23.526310295970937],[-46.486990788288374,-23.526310295970937],[-46.48694466838452,-23.526310295970937],[-46.48680630867294,-23.526310295970937],[-46.48676018876908,-23.526310295970937],[-46.486575709153655,-23.526310295970937],[-46.48643734944208,-23.5262451353293],[-46.486345109634364,-23.5262451353293],[-46.48625286982665,-23.5262451353293],[-46.48620674992279,-23.5262451353293],[-46.48611451011508,-23.526179974687665],[-46.486068390211216,-23.526179974687665],[-46.48602227030736,-23.526179974687665],[-46.485930030499645,-23.52611481404603],[-46.48583779069193,-23.52611481404603],[-46.485699430980354,-23.526049653404392],[-46.48560719117264,-23.525984492762756],[-46.48556107126878,-23.525984492762756],[-46.48542271155721,-23.52591933212112],[-46.485376591653356,-23.525854171479484],[-46.48523823194178,-23.525789010837848],[-46.48505375232635,-23.525723850196215],[-46.48496151251863,-23.52565868955458],[-46.484915392614774,-23.52565868955458],[-46.48482315280706,-23.525593528912943],[-46.48468479309549,-23.525528368271306],[-46.48454643338391,-23.52546320762967],[-46.48440807367234,-23.525398046988034],[-46.484361953768484,-23.525398046988034],[-46.48417747415305,-23.52526772570476],[-46.48413135424919,-23.52526772570476],[-46.484085234345336,-23.52526772570476],[-46.48403911444148,-23.52526772570476],[-46.48399299453762,-23.52526772570476],[-46.4839007547299,-23.525332886346398],[-46.48376239501833,-23.525398046988034],[-46.48367015521062,-23.52546320762967],[-46.48348567559518,-23.525528368271306],[-46.48334731588361,-23.52565868955458],[-46.4832550760759,-23.52565868955458],[-46.483070596460465,-23.525789010837848],[-46.48297835665275,-23.525854171479484],[-46.48283999694118,-23.52591933212112],[-46.4827016372296,-23.525984492762756],[-46.482655517325746,-23.525984492762756],[-46.48260939742189,-23.526049653404392],[-46.48256327751803,-23.526049653404392],[-46.482517157614176,-23.526049653404392],[-46.48247103771032,-23.526049653404392],[-46.482424917806455,-23.526049653404392],[-46.48233267799874,-23.526049653404392],[-46.48210207847946,-23.526049653404392],[-46.48191759886402,-23.526049653404392],[-46.48182535905631,-23.526049653404392],[-46.481733119248595,-23.525984492762756],[-46.48154863963316,-23.525984492762756],[-46.48145639982545,-23.525984492762756],[-46.481225800306156,-23.525984492762756],[-46.4811796804023,-23.525984492762756],[-46.48113356049844,-23.525984492762756],[-46.481087440594585,-23.52591933212112],[-46.48104132069073,-23.52591933212112],[-46.48094908088301,-23.52591933212112],[-46.48076460126758,-23.525854171479484],[-46.48067236145987,-23.525789010837848],[-46.48048788184443,-23.525723850196215],[-46.480303402229005,-23.52565868955458],[-46.48016504251743,-23.525593528912943],[-46.48011892261357,-23.525593528912943],[-46.47993444299814,-23.525528368271306],[-46.47974996338271,-23.52546320762967],[-46.47961160367114,-23.525398046988034],[-46.479519363863425,-23.525398046988034],[-46.47933488424799,-23.525332886346398],[-46.47915040463256,-23.52526772570476],[-46.47905816482484,-23.525202565063125],[-46.478873685209415,-23.52513740442149],[-46.478781445401694,-23.52513740442149],[-46.47859696578627,-23.525072243779857],[-46.47850472597855,-23.52500708313822],[-46.47841248617083,-23.52500708313822],[-46.478228006555405,-23.524941922496584],[-46.47804352693997,-23.52481160121331],[-46.4779051672284,-23.52481160121331],[-46.47776680751683,-23.524746440571676],[-46.47767456770911,-23.52468127993004],[-46.47749008809368,-23.524616119288403],[-46.47739784828597,-23.524616119288403],[-46.47735172838211,-23.524616119288403],[-46.47721336867053,-23.524550958646767],[-46.477028889055106,-23.52448579800513],[-46.47698276915125,-23.52448579800513],[-46.476798289535814,-23.524420637363495],[-46.47661380992039,-23.524355476721862],[-46.47642933030495,-23.524290316080226],[-46.47629097059338,-23.52422515543859],[-46.47610649097795,-23.524159994796953],[-46.47606037107409,-23.524159994796953],[-46.4758297715548,-23.524094834155317],[-46.4758297715548,-23.52402967351368],[-46.47569141184323,-23.52402967351368],[-46.47555305213166,-23.523964512872045],[-46.475368572516224,-23.52389935223041],[-46.47527633270851,-23.52389935223041],[-46.47513797299694,-23.523834191588772],[-46.47513797299694,-23.52389935223041],[-46.475091853093076,-23.524094834155317],[-46.475091853093076,-23.52422515543859],[-46.47504573318922,-23.524420637363495],[-46.47504573318922,-23.52448579800513],[-46.47499961328536,-23.52468127993004],[-46.474953493381506,-23.52481160121331],[-46.474953493381506,-23.52500708313822],[-46.47490737347765,-23.52513740442149],[-46.47486125357379,-23.525332886346398],[-46.47486125357379,-23.525528368271306],[-46.474815133669935,-23.52565868955458],[-46.47476901376608,-23.525854171479484],[-46.47476901376608,-23.52591933212112],[-46.474722893862214,-23.52611481404603],[-46.474722893862214,-23.5262451353293],[-46.47467677395836,-23.526440617254206],[-46.4746306540545,-23.52657093853748],[-46.4746306540545,-23.52670125982075],[-46.4746306540545,-23.526766420462387],[-46.474584534150644,-23.526961902387296],[-46.47453841424679,-23.527092223670564],[-46.47453841424679,-23.527222544953837],[-46.47449229434293,-23.527418026878745],[-46.47444617443907,-23.527613508803654],[-46.47444617443907,-23.52767866944529],[-46.47440005453522,-23.527874151370195],[-46.47435393463135,-23.528069633295104],[-46.47435393463135,-23.528199954578376],[-46.47435393463135,-23.528265115220012],[-46.474307814727496,-23.52833027586165],[-46.474307814727496,-23.528395436503285],[-46.474307814727496,-23.528460597144917],[-46.474307814727496,-23.528525757786554],[-46.47426169482364,-23.528656079069826],[-46.47421557491978,-23.528851560994735],[-46.474169455015925,-23.528981882278007],[-46.474169455015925,-23.529047042919643],[-46.474169455015925,-23.529177364202912],[-46.47412333511207,-23.52937284612782],[-46.47407721520821,-23.52956832805273],[-46.474031095304355,-23.529763809977638],[-46.474031095304355,-23.52982897061927],[-46.47398497540049,-23.530089613185815],[-46.473938855496634,-23.530285095110724],[-46.473938855496634,-23.53035025575236],[-46.47389273559278,-23.530545737677265],[-46.47389273559278,-23.530676058960537],[-46.47384661568892,-23.530871540885446],[-46.47384661568892,-23.53100186216872],[-46.47380049578506,-23.531197344093624],[-46.47375437588121,-23.531327665376896],[-46.47375437588121,-23.53145798666017],[-46.47370825597735,-23.531653468585077],[-46.47370825597735,-23.531718629226713],[-46.473662136073486,-23.531718629226713],[-46.473662136073486,-23.53178378986835],[-46.473662136073486,-23.531848950509982],[-46.473662136073486,-23.531914111151618],[-46.473662136073486,-23.531979271793254],[-46.47361601616963,-23.53204443243489],[-46.47361601616963,-23.532109593076527],[-46.47361601616963,-23.532174753718163],[-46.47361601616963,-23.53250055692634],[-46.47361601616963,-23.532630878209613],[-46.47361601616963,-23.53269603885125],[-46.47361601616963,-23.532891520776158],[-46.47361601616963,-23.533087002701066],[-46.47361601616963,-23.533217323984335],[-46.47361601616963,-23.533412805909244],[-46.47361601616963,-23.53347796655088],[-46.473662136073486,-23.53367344847579],[-46.473662136073486,-23.533868930400693],[-46.47370825597735,-23.53393409104233],[-46.47370825597735,-23.533999251683966],[-46.47375437588121,-23.534194733608874],[-46.47375437588121,-23.53425989425051],[-46.47380049578506,-23.53445537617542],[-46.47384661568892,-23.534650858100324],[-46.47389273559278,-23.53471601874196],[-46.473938855496634,-23.534846340025233],[-46.473938855496634,-23.534976661308505],[-46.47398497540049,-23.535106982591778],[-46.474031095304355,-23.535237303875046],[-46.47412333511207,-23.53536762515832],[-46.474169455015925,-23.53549794644159],[-46.47426169482364,-23.535823749649772],[-46.474307814727496,-23.535823749649772],[-46.474307814727496,-23.535888910291405],[-46.47440005453522,-23.536019231574677],[-46.47444617443907,-23.536084392216313],[-46.47449229434293,-23.53614955285795],[-46.47453841424679,-23.536214713499586],[-46.474584534150644,-23.536279874141222],[-46.4746306540545,-23.536279874141222],[-46.47467677395836,-23.536345034782858],[-46.474722893862214,-23.536345034782858],[-46.47476901376608,-23.53647535606613],[-46.47490737347765,-23.5366056773494],[-46.474953493381506,-23.536670837991036],[-46.475091853093076,-23.536801159274308],[-46.47513797299694,-23.536866319915944],[-46.47532245261237,-23.536996641199217],[-46.47490737347765,-23.538104372107025],[-46.47440005453522,-23.53882113916502],[-46.47361601616963,-23.539733388147923],[-46.473662136073486,-23.539994030714464],[-46.47380049578506,-23.540906279697367],[-46.47389273559278,-23.54162304675536],[-46.47398497540049,-23.542014010605175],[-46.47412333511207,-23.542339813813356],[-46.47421557491978,-23.54273077766317],[-46.47435393463135,-23.543121741512987],[-46.47453841424679,-23.5435127053628],[-46.475599172035515,-23.544555275628976],[-46.476383210401096,-23.545076560762062],[-46.476659929824244,-23.545858488461693],[-46.47698276915125,-23.546444934236415],[-46.47739784828597,-23.54742234386095],[-46.47762844780525,-23.54826943220222],[-46.47762844780525,-23.548660396052032],[-46.47776680751683,-23.548986199260213],[-46.47785904732454,-23.54931200246839],[-46.478089646843834,-23.5495074843933],[-46.47827412645926,-23.549898448243116],[-46.47841248617083,-23.550159090809657],[-46.47850472597855,-23.55028941209293],[-46.47855084588241,-23.550419733376202],[-46.478781445401694,-23.550810697226016],[-46.47919652453642,-23.551397143000738],[-46.479242644440276,-23.551462303642374],[-46.47919652453642,-23.551462303642374],[-46.47915040463256,-23.551462303642374],[-46.47905816482484,-23.55152746428401],[-46.47905816482484,-23.55172294620892],[-46.4791042847287,-23.55185326749219],[-46.47919652453642,-23.55198358877546],[-46.47933488424799,-23.55230939198364],[-46.479427124055704,-23.552635195191822],[-46.479519363863425,-23.552830677116727],[-46.47956548376728,-23.552895837758363],[-46.47956548376728,-23.5529609984],[-46.47961160367114,-23.553091319683272],[-46.479657723574995,-23.553091319683272],[-46.479657723574995,-23.55315648032491],[-46.47970384347885,-23.55315648032491],[-46.47970384347885,-23.553221640966544],[-46.47974996338271,-23.553221640966544],[-46.479796083286566,-23.55328680160818],[-46.47984220319042,-23.55328680160818],[-46.479888323094286,-23.553351962249813],[-46.47993444299814,-23.553351962249813],[-46.47993444299814,-23.55341712289145],[-46.479980562902,-23.55341712289145],[-46.48002668280586,-23.55341712289145],[-46.48011892261357,-23.553482283533086],[-46.48016504251743,-23.553482283533086],[-46.48016504251743,-23.553547444174722],[-46.480211162421284,-23.553547444174722],[-46.48025728232515,-23.553547444174722],[-46.480303402229005,-23.553612604816358],[-46.48034952213286,-23.553612604816358],[-46.48039564203672,-23.553612604816358],[-46.48048788184443,-23.553677765457994],[-46.480580121652146,-23.553677765457994],[-46.48071848136372,-23.55374292609963],[-46.48090296097915,-23.553808086741267],[-46.48094908088301,-23.553873247382903],[-46.48099520078687,-23.55393840802454],[-46.48099520078687,-23.55400356866617],[-46.48099520078687,-23.554133889949444],[-46.48104132069073,-23.554133889949444],[-46.48104132069073,-23.55419905059108],[-46.481087440594585,-23.55419905059108],[-46.48113356049844,-23.55419905059108],[-46.4811796804023,-23.55419905059108],[-46.481225800306156,-23.55419905059108],[-46.48131804011387,-23.55419905059108],[-46.48168699934473,-23.554068729307808],[-46.481733119248595,-23.55400356866617],[-46.48177923915245,-23.55393840802454],[-46.481871478960166,-23.55393840802454],[-46.48191759886402,-23.553873247382903],[-46.48210207847946,-23.553808086741267],[-46.482148198383314,-23.553808086741267],[-46.48219431828717,-23.553808086741267],[-46.482517157614176,-23.55374292609963],[-46.48279387703732,-23.553873247382903],[-46.48297835665275,-23.55393840802454],[-46.48334731588361,-23.554133889949444],[-46.48348567559518,-23.554264211232717],[-46.483577915402904,-23.554329371874353],[-46.48367015521062,-23.554459693157625],[-46.483716275114475,-23.554459693157625],[-46.483716275114475,-23.55452485379926],[-46.48376239501833,-23.55452485379926],[-46.48380851492219,-23.554590014440898],[-46.483854634826045,-23.554590014440898],[-46.4839007547299,-23.554655175082534],[-46.483946874633766,-23.554655175082534],[-46.48399299453762,-23.554655175082534],[-46.48403911444148,-23.554655175082534],[-46.484085234345336,-23.554720335724166],[-46.48413135424919,-23.554720335724166],[-46.48417747415305,-23.554720335724166],[-46.48426971396077,-23.554720335724166],[-46.48431583386463,-23.554720335724166],[-46.484361953768484,-23.554720335724166],[-46.48459255328777,-23.554720335724166],[-46.48463867319163,-23.554720335724166],[-46.484730912999346,-23.554720335724166],[-46.4847770329032,-23.554720335724166],[-46.48486927271092,-23.554720335724166],[-46.484915392614774,-23.554655175082534],[-46.485007632422494,-23.554655175082534],[-46.48509987223021,-23.554655175082534],[-46.48519211203792,-23.554590014440898],[-46.48523823194178,-23.554590014440898],[-46.485284351845635,-23.554590014440898],[-46.48533047174949,-23.554590014440898],[-46.485376591653356,-23.554590014440898],[-46.48542271155721,-23.55452485379926],[-46.48551495136493,-23.55452485379926],[-46.4856533110765,-23.554459693157625],[-46.485930030499645,-23.554329371874353],[-46.48620674992279,-23.554264211232717],[-46.48643734944208,-23.55419905059108],[-46.48676018876908,-23.554133889949444],[-46.48708302809609,-23.554068729307808],[-46.48759034703853,-23.55400356866617],[-46.48809766598096,-23.55393840802454],[-46.48846662521182,-23.55393840802454],[-46.489435143192836,-23.553808086741267],[-46.49008082184684,-23.55374292609963],[-46.49017306165456,-23.55374292609963],[-46.490495900981564,-23.553677765457994],[-46.49081874030856,-23.553677765457994],[-46.49091098011628,-23.553677765457994],[-46.49123381944329,-23.553612604816358],[-46.491279939347145,-23.553612604816358],[-46.491556658770286,-23.553612604816358],[-46.49169501848186,-23.553547444174722],[-46.49201785780887,-23.553482283533086],[-46.49215621752044,-23.553482283533086],[-46.49243293694359,-23.553351962249813],[-46.49266353646287,-23.55328680160818],[-46.49294025588602,-23.553221640966544],[-46.49321697530917,-23.553091319683272],[-46.493401454924594,-23.5529609984],[-46.493632054443886,-23.552895837758363],[-46.49395489377089,-23.552635195191822],[-46.49418549329018,-23.55250487390855],[-46.4946005724249,-23.552244231342005],[-46.494923411751905,-23.552048749417096],[-46.49520013117505,-23.55185326749219],[-46.49538461079048,-23.551788106850555],[-46.49561521030977,-23.551592624925647],[-46.4957996899252,-23.55152746428401],[-46.49603028944449,-23.551331982359102],[-46.49621476905992,-23.55126682171747],[-46.496353128771496,-23.551136500434197],[-46.49644536857921,-23.55107133979256],[-46.49672208800236,-23.550875857867652],[-46.496906567617785,-23.55074553658438],[-46.49722940694479,-23.550550054659475],[-46.49727552684865,-23.55048489401784],[-46.49741388656022,-23.550419733376202],[-46.49773672588722,-23.550224251451294],[-46.4978750855988,-23.550224251451294],[-46.49796732540651,-23.550159090809657],[-46.498105685118084,-23.55009393016802],[-46.49829016473352,-23.55009393016802],[-46.498566884156666,-23.54996360888475],[-46.498751363772094,-23.549898448243116],[-46.49893584338753,-23.549898448243116],[-46.49916644290681,-23.54983328760148],[-46.49930480261839,-23.54983328760148],[-46.49948928223382,-23.54983328760148],[-46.49981212156082,-23.54983328760148],[-46.500181080791684,-23.54983328760148],[-46.500319440503254,-23.54983328760148],[-46.500550040022546,-23.54983328760148],[-46.50064227983026,-23.54983328760148],[-46.500826759445694,-23.54983328760148],[-46.50105735896498,-23.54983328760148],[-46.50124183858041,-23.549768126959844],[-46.50142631819584,-23.549702966318208],[-46.50156467790742,-23.549702966318208],[-46.50170303761899,-23.54963780567657],[-46.50188751723442,-23.549572645034935],[-46.50207199684985,-23.5495074843933],[-46.502348716273,-23.549442323751663],[-46.502394836176855,-23.549377163110027],[-46.50248707598457,-23.549377163110027],[-46.502625435696146,-23.54931200246839],[-46.50290215511929,-23.549246841826758],[-46.50331723425401,-23.54918168118512],[-46.50364007358101,-23.549116520543485],[-46.50414739252345,-23.548986199260213],[-46.504746951273596,-23.548921038618577],[-46.50493143088903,-23.54885587797694],[-46.50548486973533,-23.548790717335304],[-46.50576158915847,-23.548790717335304],[-46.505899948870045,-23.548790717335304],[-46.506453387716334,-23.54885587797694],[-46.506683987235625,-23.548986199260213],[-46.506822346947196,-23.548986199260213],[-46.50728354598577,-23.549246841826758],[-46.507606385312776,-23.549442323751663],[-46.507883104735924,-23.54963780567657],[-46.508113704255216,-23.54983328760148],[-46.50820594406293,-23.54996360888475],[-46.50829818387064,-23.550028769526385],[-46.50843654358222,-23.55009393016802],[-46.50857490329379,-23.550159090809657],[-46.50875938290922,-23.550159090809657],[-46.50880550281308,-23.550224251451294],[-46.50885162271694,-23.550224251451294],[-46.50898998242851,-23.550224251451294],[-46.509174462043944,-23.550224251451294],[-46.50926670185166,-23.550224251451294],[-46.50940506156323,-23.550224251451294],[-46.50958954117866,-23.550224251451294],[-46.51014298002495,-23.550224251451294],[-46.51037357954424,-23.550224251451294],[-46.51069641887125,-23.550224251451294],[-46.51092701839053,-23.55028941209293],[-46.51111149800597,-23.55028941209293],[-46.51134209752526,-23.550354572734566],[-46.511526577140685,-23.55048489401784],[-46.511664936852256,-23.550550054659475],[-46.51189553637155,-23.55074553658438],[-46.51203389608312,-23.550875857867652],[-46.51212613589084,-23.551006179150924],[-46.512310615506266,-23.551136500434197],[-46.51254121502556,-23.551331982359102],[-46.512725694640984,-23.55152746428401],[-46.51291017425642,-23.55172294620892],[-46.512956294160276,-23.551788106850555],[-46.5131407737757,-23.551918428133828],[-46.51327913348728,-23.552113910058733],[-46.51341749319885,-23.552244231342005],[-46.513509733006565,-23.552439713266914],[-46.51364809271814,-23.552635195191822],[-46.513694212622,-23.55276551647509],[-46.51378645242971,-23.553026159041636],[-46.51383257233357,-23.553091319683272],[-46.51392481214129,-23.553351962249813],[-46.514017051949004,-23.553547444174722],[-46.51406317185286,-23.553612604816358],[-46.514155411660575,-23.553677765457994],[-46.51424765146829,-23.553808086741267],[-46.514386011179866,-23.553873247382903],[-46.51457049079529,-23.55400356866617],[-46.514939450026155,-23.554133889949444],[-46.5152161694493,-23.554264211232717],[-46.515585128680165,-23.554459693157625],[-46.51590796800717,-23.554590014440898],[-46.51600020781488,-23.554590014440898],[-46.516092447622604,-23.554655175082534],[-46.516230807334175,-23.554720335724166],[-46.51632304714189,-23.554720335724166],[-46.516461406853466,-23.554785496365803],[-46.51659976656504,-23.554785496365803],[-46.51673812627661,-23.55485065700744],[-46.516876485988185,-23.55485065700744],[-46.517153205411326,-23.55498097829071],[-46.51724544521905,-23.55485065700744],[-46.51733768502676,-23.554720335724166],[-46.51752216464219,-23.55439453251599],[-46.51770664425762,-23.554133889949444],[-46.517798884065336,-23.55400356866617],[-46.51793724377691,-23.553808086741267],[-46.51812172339234,-23.553612604816358],[-46.518075603488484,-23.553547444174722],[-46.51802948358463,-23.553547444174722],[-46.51798336368077,-23.553482283533086],[-46.51802948358463,-23.55341712289145],[-46.51812172339234,-23.55328680160818],[-46.518213963200054,-23.55315648032491],[-46.518306203007775,-23.553091319683272],[-46.518582922430916,-23.552830677116727],[-46.51890576175792,-23.552570034550186],[-46.51918248118107,-23.55230939198364],[-46.519228601084926,-23.55230939198364],[-46.51927472098878,-23.552439713266914],[-46.51932084089264,-23.55250487390855],[-46.519366960796496,-23.55250487390855],[-46.51941308070036,-23.55250487390855],[-46.51973592002736,-23.55230939198364],[-46.52010487925822,-23.552113910058733],[-46.520427718585225,-23.551918428133828],[-46.521073397239235,-23.55152746428401],[-46.52139623656624,-23.551331982359102],[-46.52190355550867,-23.55107133979256],[-46.522364754547255,-23.550810697226016],[-46.522733713778116,-23.55061521530111],[-46.52347163223984,-23.550224251451294],[-46.52365611185527,-23.55009393016802],[-46.523794471566845,-23.550028769526385],[-46.52388671137456,-23.54996360888475],[-46.52397895118227,-23.549898448243116],[-46.524071190989986,-23.54983328760148],[-46.52416343079771,-23.549768126959844],[-46.52420955070156,-23.549702966318208],[-46.52430179050928,-23.549572645034935],[-46.52439403031699,-23.5495074843933],[-46.524486270124704,-23.549377163110027],[-46.52453239002857,-23.549246841826758],[-46.52462462983628,-23.54918168118512],[-46.52476298954785,-23.548986199260213],[-46.525039708971,-23.5485952354104],[-46.525639267721154,-23.547878468352405],[-46.52596210704816,-23.547682986427496],[-46.52633106627902,-23.54742234386095],[-46.52670002550988,-23.54716170129441],[-46.52702286483688,-23.5469662193695],[-46.527207344452314,-23.54683589808623],[-46.52729958426003,-23.546770737444593],[-46.527345704163885,-23.546705576802957],[-46.527437943971606,-23.546575255519688],[-46.52753018377932,-23.54651009487805],[-46.52766854349089,-23.54637977359478],[-46.5277607832986,-23.546314612953143],[-46.528221982337186,-23.545793327820057],[-46.52868318137576,-23.545272042686967],[-46.529190500318194,-23.54475075755388],[-46.52960557945291,-23.544424954345704],[-46.530066778491495,-23.544099151137523],[-46.53066633724164,-23.543838508570982],[-46.53145037560723,-23.5435127053628],[-46.53195769454966,-23.543252062796256],[-46.53251113339595,-23.54305658087135],[-46.53320293195382,-23.54273077766317],[-46.53338741156925,-23.542665617021534],[-46.53338741156925,-23.542600456379898],[-46.53343353147311,-23.542600456379898],[-46.53352577128082,-23.542535295738265],[-46.533618011088535,-23.54247013509663],[-46.53380249070397,-23.542339813813356],[-46.53394085041554,-23.54227465317172],[-46.534125330030975,-23.542144331888448],[-46.5343098096464,-23.542014010605175],[-46.53472488878112,-23.541688207396998],[-46.53523220772356,-23.54129724354718],[-46.53615460580071,-23.540971440339003],[-46.53661580483929,-23.540906279697367],[-46.53703088397401,-23.540906279697367],[-46.53721536358944,-23.540906279697367],[-46.53823000147431,-23.540906279697367],[-46.538322241282025,-23.540906279697367],[-46.538829560224464,-23.540906279697367],[-46.53887568012832,-23.540906279697367],[-46.53892180003218,-23.540906279697367],[-46.538967919936034,-23.540906279697367],[-46.53901403983989,-23.540906279697367],[-46.53906015974375,-23.540906279697367],[-46.539106279647605,-23.540906279697367],[-46.53915239955147,-23.540906279697367],[-46.539198519455326,-23.540906279697367],[-46.53924463935918,-23.540906279697367],[-46.53929075926304,-23.54084111905573],[-46.539336879166896,-23.54084111905573],[-46.53938299907075,-23.54084111905573],[-46.53942911897461,-23.54084111905573],[-46.53947523887847,-23.54084111905573],[-46.53956747868619,-23.540775958414095],[-46.539613598590044,-23.540775958414095],[-46.53970583839776,-23.540775958414095],[-46.539751958301615,-23.54071079777246],[-46.54002867772476,-23.540645637130822],[-46.54030539714791,-23.540515315847554],[-46.54067435637877,-23.54038499456428],[-46.54099719570578,-23.54025467328101],[-46.541181675321205,-23.540124351997736],[-46.54136615493664,-23.5400591913561],[-46.54210407339836,-23.539733388147923],[-46.54288811176394,-23.53940758493974],[-46.54311871128323,-23.539342424298106],[-46.54316483118709,-23.539342424298106],[-46.54321095109095,-23.539342424298106],[-46.543257070994805,-23.53927726365647],[-46.54334931080252,-23.53927726365647],[-46.54334931080252,-23.539212103014833],[-46.54344155061023,-23.539212103014833],[-46.54353379041795,-23.5391469423732],[-46.54357991032181,-23.5391469423732],[-46.543672150129524,-23.539081781731564],[-46.544594548206675,-23.538755978523383],[-46.5453324666684,-23.538430175315206],[-46.54542470647612,-23.538430175315206],[-46.545470826379976,-23.53836501467357],[-46.54551694628383,-23.53836501467357],[-46.54556306618769,-23.53836501467357],[-46.545609186091546,-23.53836501467357],[-46.545609186091546,-23.538299854031933],[-46.5456553059954,-23.538299854031933],[-46.545747545803124,-23.538234693390297],[-46.54593202541855,-23.538104372107025],[-46.54597814532241,-23.538104372107025],[-46.5462087448417,-23.537908890182116],[-46.54634710455327,-23.537843729540484],[-46.54639322445713,-23.537778568898847],[-46.54643934436099,-23.537778568898847],[-46.54643934436099,-23.53771340825721],[-46.54648546426485,-23.53771340825721],[-46.546531584168704,-23.53771340825721],[-46.546531584168704,-23.537648247615575],[-46.54657770407256,-23.537648247615575],[-46.54671606378413,-23.537517926332303],[-46.54671606378413,-23.537452765690666],[-46.54676218368799,-23.537452765690666],[-46.54680830359185,-23.53738760504903],[-46.54685442349571,-23.537322444407394],[-46.546900543399566,-23.537257283765758],[-46.54694666330342,-23.53719212312412],[-46.54694666330342,-23.53712696248249],[-46.54699278320728,-23.53712696248249],[-46.54699278320728,-23.537061801840853],[-46.54703890311114,-23.537061801840853],[-46.54703890311114,-23.536996641199217],[-46.54703890311114,-23.53693148055758],[-46.54708502301499,-23.53693148055758],[-46.54708502301499,-23.536866319915944],[-46.54722338272657,-23.536540516707763],[-46.547546222053576,-23.5356934283665],[-46.54763846186129,-23.53536762515832],[-46.54768458176515,-23.535302464516683],[-46.547730701669,-23.53517214323341],[-46.54777682157286,-23.535106982591778],[-46.54791518128444,-23.535106982591778],[-46.54805354099601,-23.535106982591778],[-46.548238020611436,-23.535106982591778],[-46.54837638032301,-23.535106982591778],[-46.54842250022687,-23.535106982591778],[-46.54856085993844,-23.534585697458688],[-46.54856085993844,-23.534520536817052],[-46.5486069798423,-23.534520536817052],[-46.5486069798423,-23.53445537617542],[-46.5486069798423,-23.534390215533783],[-46.54865309974616,-23.53425989425051],[-46.54869921965002,-23.534194733608874],[-46.548745339553875,-23.534129572967238],[-46.548745339553875,-23.534064412325602],[-46.54883757936159,-23.533999251683966],[-46.548883699265446,-23.53393409104233],[-46.548883699265446,-23.533868930400693],[-46.54897593907316,-23.533738609117425],[-46.54902205897702,-23.53367344847579],[-46.54906817888088,-23.53367344847579],[-46.54906817888088,-23.533608287834152],[-46.54911429878474,-23.533608287834152],[-46.549160418688594,-23.533543127192516],[-46.54925265849631,-23.53347796655088],[-46.549298778400164,-23.533412805909244],[-46.549391018207885,-23.533347645267607],[-46.5494832580156,-23.53328248462597],[-46.54957549782331,-23.533217323984335],[-46.549667737631026,-23.5331521633427],[-46.54975997743875,-23.5331521633427],[-46.54985221724646,-23.533087002701066],[-46.54999057695803,-23.53302184205943],[-46.550082816765745,-23.532956681417794],[-46.550313416285036,-23.532891520776158],[-46.55105133474676,-23.532630878209613],[-46.551235814362194,-23.532565717567977],[-46.55132805416991,-23.53250055692634],[-46.551374174073764,-23.53250055692634],[-46.551512533785335,-23.532435396284708],[-46.5515586536892,-23.532435396284708],[-46.551604773593056,-23.532435396284708],[-46.55165089349691,-23.532435396284708],[-46.55165089349691,-23.53237023564307],[-46.55169701340077,-23.53237023564307],[-46.551743133304626,-23.53237023564307],[-46.55183537311234,-23.532305075001435],[-46.55192761292006,-23.5322399143598],[-46.552019852727774,-23.532174753718163],[-46.55211209253549,-23.532109593076527],[-46.5522043323432,-23.53204443243489],[-46.55225045224706,-23.53204443243489],[-46.55225045224706,-23.531979271793254],[-46.55229657215092,-23.531979271793254],[-46.552388811958636,-23.531914111151618],[-46.55243493186249,-23.531848950509982],[-46.55248105176635,-23.53178378986835],[-46.55252717167021,-23.531718629226713],[-46.55257329157406,-23.531653468585077],[-46.55261941147792,-23.531653468585077],[-46.552665531381784,-23.531523147301804],[-46.55271165128564,-23.53145798666017],[-46.553587929458935,-23.53145798666017],[-46.553587929458935,-23.531392826018532],[-46.55363404936279,-23.531392826018532],[-46.55368016926665,-23.531392826018532],[-46.55386464888208,-23.531067022810355],[-46.554003008593654,-23.53048057703563],[-46.55404912849751,-23.53015477382745],[-46.55409524840137,-23.529959291902543],[-46.55418748820909,-23.529698649336],[-46.5542797280168,-23.529503167411093],[-46.5542797280168,-23.529438006769457],[-46.55446420763223,-23.52924252484455],[-46.55460256734381,-23.528981882278007],[-46.55474092705538,-23.528851560994735],[-46.55483316686309,-23.528656079069826],[-46.55497152657467,-23.528460597144917],[-46.55524824599782,-23.528004472653468],[-46.5554788455171,-23.52767866944529],[-46.55570944503639,-23.52735286623711],[-46.55589392465182,-23.527092223670564],[-46.5560322843634,-23.526961902387296],[-46.55612452417111,-23.526766420462387],[-46.55626288388268,-23.52657093853748],[-46.55630900378654,-23.52657093853748],[-46.5563551236904,-23.526440617254206],[-46.556447363498116,-23.526310295970937],[-46.55649348340197,-23.5262451353293],[-46.556585723209686,-23.52611481404603],[-46.55663184311354,-23.526049653404392],[-46.556724082921264,-23.52591933212112],[-46.55681632272898,-23.525789010837848],[-46.55690856253669,-23.525593528912943],[-46.557000802344405,-23.52546320762967],[-46.55704692224827,-23.525398046988034],[-46.557093042152125,-23.525332886346398],[-46.55713916205598,-23.52526772570476],[-46.557231401863696,-23.525202565063125],[-46.557231401863696,-23.52513740442149],[-46.55732364167141,-23.525072243779857],[-46.55732364167141,-23.524941922496584],[-46.557369761575266,-23.524941922496584],[-46.55741588147913,-23.524876761854948],[-46.55741588147913,-23.52481160121331],[-46.55746200138299,-23.524746440571676],[-46.557508121286844,-23.52468127993004],[-46.5575542411907,-23.524616119288403],[-46.557646480998415,-23.52448579800513],[-46.55773872080613,-23.524290316080226],[-46.55778484070999,-23.52422515543859],[-46.55783096061385,-23.524159994796953],[-46.55783096061385,-23.524094834155317],[-46.557877080517706,-23.52402967351368],[-46.558522759171716,-23.523117424530778],[-46.558015440229276,-23.522726460680964],[-46.55727752176755,-23.52233549683115],[-46.55704692224827,-23.522074854264606],[-46.55667796301741,-23.521683890414792],[-46.556447363498116,-23.52135808720661],[-46.55617064407497,-23.520836802073525],[-46.55589392465182,-23.520185195657167],[-46.55584780474796,-23.519729071165713],[-46.55584780474796,-23.51888198282445],[-46.55584780474796,-23.518751661541177],[-46.5560322843634,-23.51790457319991],[-46.55612452417111,-23.51744844870846],[-46.556216763978824,-23.51699232421701],[-46.55640124359426,-23.516145235875744],[-46.556447363498116,-23.515949753950835],[-46.556585723209686,-23.515493629459385],[-46.55663184311354,-23.515102665609568],[-46.55663184311354,-23.51432073790994],[-46.55663184311354,-23.51379945277685],[-46.55653960330583,-23.512952364435588],[-46.55640124359426,-23.512365918660862],[-46.5563551236904,-23.512235597377593],[-46.55626288388268,-23.511714312244504],[-46.5560322843634,-23.511193027111418],[-46.55598616445954,-23.51099754518651],[-46.55584780474796,-23.510606581336695],[-46.55561720522868,-23.51008529620361],[-46.555432725613244,-23.50975949299543],[-46.55534048580553,-23.509629171712156],[-46.55506376638238,-23.509238207862342],[-46.55469480715152,-23.50884724401253],[-46.55451032753609,-23.50865176208762],[-46.55464868724766,-23.508521440804348],[-46.55483316686309,-23.508391119521075],[-46.555017646478525,-23.508130476954534],[-46.55506376638238,-23.508130476954534],[-46.55506376638238,-23.508065316312898],[-46.555017646478525,-23.50800015567126],[-46.555017646478525,-23.507934995029625],[-46.55497152657467,-23.507934995029625],[-46.55492540667081,-23.507934995029625],[-46.55492540667081,-23.50786983438799],[-46.554879286766955,-23.50786983438799],[-46.55483316686309,-23.507804673746353],[-46.554787046959234,-23.507739513104717],[-46.55469480715152,-23.50767435246308],[-46.55464868724766,-23.50767435246308],[-46.55460256734381,-23.507609191821444],[-46.55451032753609,-23.507609191821444],[-46.55446420763223,-23.507544031179812],[-46.55441808772837,-23.507478870538176],[-46.554371967824515,-23.507478870538176],[-46.55432584792066,-23.50741370989654],[-46.554233608112945,-23.507348549254903],[-46.55418748820909,-23.507348549254903],[-46.55418748820909,-23.507283388613267],[-46.55414136830523,-23.507283388613267],[-46.55404912849751,-23.50721822797163],[-46.554003008593654,-23.507153067329995],[-46.55391076878594,-23.50708790668836],[-46.55386464888208,-23.50708790668836],[-46.55377240907437,-23.507022746046722],[-46.553726289170505,-23.507022746046722],[-46.55363404936279,-23.506957585405086],[-46.553587929458935,-23.506957585405086],[-46.55354180955508,-23.506892424763453],[-46.553449569747364,-23.506892424763453],[-46.55340344984351,-23.506892424763453],[-46.553357329939644,-23.506827264121817],[-46.55331121003579,-23.506827264121817],[-46.55326509013193,-23.50676210348018],[-46.55321897022807,-23.506696942838545],[-46.553172850324216,-23.50663178219691],[-46.55312673042036,-23.50663178219691],[-46.5530806105165,-23.506566621555272],[-46.553034490612646,-23.506501460913636],[-46.55298837070878,-23.506501460913636],[-46.55298837070878,-23.506436300272],[-46.552942250804925,-23.506371139630364],[-46.55289613090107,-23.506371139630364],[-46.55289613090107,-23.506305978988728],[-46.55285001099721,-23.506305978988728],[-46.552803891093355,-23.506305978988728],[-46.5527577711895,-23.506240818347095],[-46.55271165128564,-23.506110497063823],[-46.55271165128564,-23.506045336422186],[-46.552665531381784,-23.50598017578055],[-46.552665531381784,-23.505915015138914],[-46.55261941147792,-23.505849854497278],[-46.55261941147792,-23.50578469385564],[-46.55257329157406,-23.505719533214005],[-46.55252717167021,-23.50565437257237],[-46.55252717167021,-23.505589211930733],[-46.55252717167021,-23.5055240512891],[-46.55248105176635,-23.505458890647464],[-46.55243493186249,-23.505393730005828],[-46.552388811958636,-23.505328569364192],[-46.55234269205478,-23.505263408722556],[-46.55229657215092,-23.50519824808092],[-46.5522043323432,-23.505133087439283],[-46.5522043323432,-23.505067926797647],[-46.552158212439345,-23.505067926797647],[-46.552158212439345,-23.50500276615601],[-46.55211209253549,-23.50500276615601],[-46.55211209253549,-23.504937605514375],[-46.552019852727774,-23.504937605514375],[-46.55183537311234,-23.504872444872742],[-46.55178925320848,-23.504872444872742],[-46.551743133304626,-23.504872444872742],[-46.55169701340077,-23.504937605514375],[-46.5515586536892,-23.504937605514375],[-46.55142029397762,-23.504937605514375],[-46.55132805416991,-23.504937605514375],[-46.551374174073764,-23.505067926797647],[-46.551374174073764,-23.505133087439283],[-46.55132805416991,-23.505133087439283],[-46.55128193426605,-23.505133087439283],[-46.55128193426605,-23.50519824808092],[-46.551235814362194,-23.50519824808092],[-46.55118969445833,-23.50519824808092],[-46.55114357455447,-23.50519824808092],[-46.551097454650616,-23.50519824808092],[-46.55105133474676,-23.505133087439283],[-46.55054401580433,-23.5055240512891],[-46.54985221724646,-23.506045336422186],[-46.5498060973426,-23.506045336422186],[-46.54975997743875,-23.506045336422186],[-46.5498060973426,-23.506110497063823],[-46.54975997743875,-23.506371139630364],[-46.54971385753488,-23.506436300272],[-46.54971385753488,-23.506501460913636],[-46.549667737631026,-23.506566621555272],[-46.54962161772717,-23.50663178219691],[-46.54962161772717,-23.506827264121817],[-46.54883757936159,-23.50676210348018],[-46.54750010214971,-23.506566621555272],[-46.54676218368799,-23.506305978988728],[-46.54676218368799,-23.505915015138914],[-46.54680830359185,-23.505589211930733],[-46.546900543399566,-23.505393730005828],[-46.54722338272657,-23.50500276615601],[-46.54726950263043,-23.50500276615601],[-46.547315622534285,-23.504872444872742],[-46.547315622534285,-23.504807284231106],[-46.547315622534285,-23.50474212358947],[-46.54726950263043,-23.50454664166456],[-46.547177262822714,-23.50441632038129],[-46.54713114291885,-23.504285999098016],[-46.54694666330342,-23.50409051717311],[-46.54685442349571,-23.504025356531475],[-46.54680830359185,-23.503895035248203],[-46.54676218368799,-23.503829874606566],[-46.54671606378413,-23.503699553323294],[-46.54662382397642,-23.50356923204002],[-46.546531584168704,-23.50350407139839],[-46.54648546426485,-23.503373750115117],[-46.54634710455327,-23.503243428831844],[-46.5462087448417,-23.50311310754857],[-46.546116505033986,-23.5029827862653],[-46.546024265226265,-23.50285246498203],[-46.54597814532241,-23.502722143698758],[-46.54597814532241,-23.502656983057122],[-46.54597814532241,-23.502591822415486],[-46.54593202541855,-23.502591822415486],[-46.545885905514695,-23.50252666177385],[-46.545885905514695,-23.502461501132213],[-46.545885905514695,-23.502396340490577],[-46.545885905514695,-23.50233117984894],[-46.545885905514695,-23.502200858565672],[-46.54597814532241,-23.502135697924036],[-46.546116505033986,-23.502005376640764],[-46.5462087448417,-23.501809894715855],[-46.546254864745556,-23.501614412790946],[-46.54630098464941,-23.50154925214931],[-46.54634710455327,-23.50128860958277],[-46.54639322445713,-23.501223448941133],[-46.54643934436099,-23.501158288299496],[-46.54648546426485,-23.501158288299496],[-46.54657770407256,-23.50109312765786],[-46.546669943880275,-23.501158288299496],[-46.54671606378413,-23.501158288299496],[-46.54676218368799,-23.501223448941133],[-46.54680830359185,-23.501223448941133],[-46.54685442349571,-23.501223448941133],[-46.54703890311114,-23.50109312765786],[-46.547315622534285,-23.50083248509132],[-46.547453982245855,-23.500767324449683],[-46.54750010214971,-23.50063700316641],[-46.547546222053576,-23.500571842524774],[-46.54763846186129,-23.500441521241502],[-46.54763846186129,-23.500376360599866],[-46.54763846186129,-23.500246039316593],[-46.54763846186129,-23.50018087867496],[-46.54763846186129,-23.49985507546678],[-46.54763846186129,-23.49965959354187],[-46.54763846186129,-23.499594432900235],[-46.54759234195743,-23.499464111616966],[-46.54759234195743,-23.499268629692057],[-46.54759234195743,-23.499007987125513],[-46.547546222053576,-23.49887766584224],[-46.54750010214971,-23.49874734455897],[-46.547407862342,-23.498682183917335],[-46.54726950263043,-23.4986170232757],[-46.54703890311114,-23.4986170232757],[-46.54694666330342,-23.4986170232757],[-46.54671606378413,-23.498551862634063],[-46.54648546426485,-23.49842154135079],[-46.546254864745556,-23.498291220067518],[-46.54607038513012,-23.49816089878425],[-46.54583978561084,-23.497900256217704],[-46.54528634676454,-23.497444131726255],[-46.545101867149114,-23.497313810442982],[-46.544825147725966,-23.497053167876437],[-46.544456188495104,-23.49672736466826],[-46.54436394868739,-23.49672736466826],[-46.544317828783534,-23.496662204026624],[-46.54422558897581,-23.496597043384988],[-46.54408722926424,-23.49640156146008],[-46.54385662974495,-23.496271240176807],[-46.543672150129524,-23.4960757582519],[-46.54357991032181,-23.496010597610265],[-46.54344155061023,-23.495880276326993],[-46.543257070994805,-23.495684794402084],[-46.54311871128323,-23.495554473118812],[-46.54288811176394,-23.495358991193907],[-46.54270363214851,-23.495228669910635],[-46.54251915253308,-23.495098348627362],[-46.54242691272537,-23.49496802734409],[-46.54233467291765,-23.494902866702454],[-46.54215019330222,-23.494772545419185],[-46.54191959378293,-23.494642224135912],[-46.541827353975215,-23.494577063494276],[-46.54178123407136,-23.49451190285264],[-46.5417351141675,-23.494446742211004],[-46.5417351141675,-23.49431642092773],[-46.541688994263644,-23.494120939002826],[-46.54164287435978,-23.49386029643628],[-46.54164287435978,-23.49372997515301],[-46.54155063455207,-23.493599653869737],[-46.54145839474435,-23.49340417194483],[-46.54136615493664,-23.49327385066156],[-46.54122779522506,-23.493208690019923],[-46.54113555541735,-23.493143529378287],[-46.54099719570578,-23.49307836873665],[-46.54072047628263,-23.49294804745338],[-46.54048987676334,-23.492817726170106],[-46.540397636955625,-23.492817726170106],[-46.54035151705177,-23.492752565528473],[-46.54012091753248,-23.4926222442452],[-46.54007479762862,-23.492557083603565],[-46.53989031801319,-23.49249192296193],[-46.53984419810933,-23.492426762320292],[-46.539751958301615,-23.49229644103702],[-46.539751958301615,-23.492231280395384],[-46.539613598590044,-23.492100959112115],[-46.53952135878233,-23.49203579847048],[-46.53947523887847,-23.49203579847048],[-46.53942911897461,-23.491970637828842],[-46.539336879166896,-23.491905477187206],[-46.53915239955147,-23.49184031654557],[-46.53901403983989,-23.491775155903934],[-46.53878344032061,-23.49164483462066],[-46.53827612137817,-23.49151451333739],[-46.538183881570454,-23.491449352695753],[-46.53804552185888,-23.49138419205412],[-46.53763044272416,-23.491253870770848],[-46.53749208301259,-23.49118871012921],[-46.53730760339716,-23.491123549487575],[-46.53721536358944,-23.49105838884594],[-46.537123123781726,-23.490993228204303],[-46.53703088397401,-23.49086290692103],[-46.536984764070155,-23.490797746279394],[-46.5369386441663,-23.490732585637762],[-46.536892524262434,-23.490667424996126],[-46.53684640435858,-23.49060226435449],[-46.53680028445472,-23.490537103712853],[-46.53680028445472,-23.490471943071217],[-46.536754164550864,-23.49040678242958],[-46.536754164550864,-23.490341621787945],[-46.53670804464701,-23.49027646114631],[-46.53670804464701,-23.490211300504672],[-46.53670804464701,-23.490146139863036],[-46.53670804464701,-23.490080979221403],[-46.536754164550864,-23.490015818579767],[-46.53680028445472,-23.490015818579767],[-46.53680028445472,-23.48995065793813],[-46.53684640435858,-23.489885497296495],[-46.536892524262434,-23.489885497296495],[-46.536984764070155,-23.48982033665486],[-46.53703088397401,-23.489755176013222],[-46.53707700387787,-23.489755176013222],[-46.537261483493296,-23.48962485472995],[-46.5375843228203,-23.489559694088314],[-46.53772268253188,-23.489429372805045],[-46.537768802435735,-23.4891687302385],[-46.537768802435735,-23.489103569596864],[-46.53772268253188,-23.488777766388687],[-46.53772268253188,-23.48871260574705],[-46.53763044272416,-23.48838680253887],[-46.53749208301259,-23.487865517405783],[-46.53744596310873,-23.48760487483924],[-46.53744596310873,-23.487539714197602],[-46.537399843204874,-23.487474553555966],[-46.53735372330102,-23.48727907163106],[-46.53721536358944,-23.48714875034779],[-46.53703088397401,-23.487018429064516],[-46.53684640435858,-23.48695326842288],[-46.53680028445472,-23.486888107781244],[-46.53666192474315,-23.48695326842288],[-46.536477445127716,-23.487018429064516],[-46.536339085416145,-23.487083589706153],[-46.53624684560843,-23.48714875034779],[-46.536108485896854,-23.48727907163106],[-46.53587788637757,-23.48760487483924],[-46.53578564656985,-23.48773519612251],[-46.535693406762135,-23.487865517405783],[-46.53564728685828,-23.488060999330692],[-46.53560116695442,-23.48819132061396],[-46.53550892714671,-23.488321641897233],[-46.53532444753127,-23.488451963180506],[-46.53527832762742,-23.48851712382214],[-46.5351860878197,-23.48851712382214],[-46.535047728108125,-23.488647445105414],[-46.53481712858884,-23.48871260574705],[-46.534678768877264,-23.488777766388687],[-46.534494289261836,-23.48884292703032],[-46.53435592955026,-23.48884292703032],[-46.534263689742545,-23.488777766388687],[-46.53421756983869,-23.488777766388687],[-46.53407921012712,-23.48871260574705],[-46.53394085041554,-23.488647445105414],[-46.53375637080011,-23.48851712382214],[-46.53352577128082,-23.48838680253887],[-46.533064572242246,-23.488126159972325],[-46.532833972722955,-23.487995838689056],[-46.5327878528191,-23.48793067804742],[-46.532833972722955,-23.487474553555966],[-46.532833972722955,-23.48727907163106],[-46.53288009262681,-23.486822947139608],[-46.532833972722955,-23.48669262585634],[-46.532833972722955,-23.486562304573066],[-46.5327878528191,-23.48630166200652],[-46.53264949310753,-23.485975858798344],[-46.532557253299814,-23.4857152162318],[-46.532557253299814,-23.485454573665255],[-46.532557253299814,-23.485128770457077],[-46.532557253299814,-23.48493328853217],[-46.53260337320367,-23.484737806607264],[-46.53260337320367,-23.484672645965627],[-46.53260337320367,-23.484542324682355],[-46.53264949310753,-23.484216521474174],[-46.53264949310753,-23.48402103954927],[-46.53264949310753,-23.483955878907633],[-46.53260337320367,-23.483890718265997],[-46.53251113339595,-23.48382555762436],[-46.532280533876666,-23.483695236341088],[-46.53218829406895,-23.483695236341088],[-46.532049934357374,-23.483695236341088],[-46.53195769454966,-23.483695236341088],[-46.53181933483809,-23.483695236341088],[-46.531773214934226,-23.483760396982724],[-46.53168097512651,-23.48382555762436],[-46.53168097512651,-23.483890718265997],[-46.531634855222656,-23.48402103954927],[-46.531634855222656,-23.4840862001909],[-46.531634855222656,-23.484151360832538],[-46.531634855222656,-23.484346842757446],[-46.531634855222656,-23.484672645965627],[-46.531634855222656,-23.484737806607264],[-46.5315887353188,-23.48493328853217],[-46.531496495511085,-23.48525909174035],[-46.531404255703364,-23.48551973430689],[-46.531265895991794,-23.485650055590163],[-46.53112753628022,-23.4857152162318],[-46.53108141637637,-23.485780376873436],[-46.530989176568646,-23.485780376873436],[-46.530850816857075,-23.485910698156708],[-46.53080469695322,-23.485910698156708],[-46.5307124571455,-23.485910698156708],[-46.53057409743393,-23.485845537515072],[-46.5303896178185,-23.4857152162318],[-46.53015901829921,-23.48551973430689],[-46.530066778491495,-23.485389413023622],[-46.53002065858764,-23.485389413023622],[-46.529836178972204,-23.48525909174035],[-46.529559459549056,-23.484998449173805],[-46.52946721974134,-23.48493328853217],[-46.52932886002977,-23.484802967248896],[-46.52900602070277,-23.48447716404072],[-46.52895990079891,-23.484412003399083],[-46.52886766099119,-23.484346842757446],[-46.5283142221449,-23.483760396982724],[-46.52794526291404,-23.483434593774543],[-46.5277607832986,-23.483304272491274],[-46.52762242358703,-23.483173951208002],[-46.527576303683176,-23.483108790566366],[-46.527068984740744,-23.482652666074916],[-46.52660778570216,-23.4822617022251],[-46.526284946375156,-23.482001059658558],[-46.52610046675973,-23.481675256450377],[-46.52573150752887,-23.481414613883832],[-46.525639267721154,-23.4813494532422],[-46.52540866820186,-23.481219131958927],[-46.52490134925943,-23.480958489392382],[-46.524486270124704,-23.480763007467473],[-46.52397895118227,-23.48056752554257],[-46.5238405914707,-23.480502364900932],[-46.52342551233598,-23.48037204361766],[-46.52305655310512,-23.48017656169275],[-46.52268759387426,-23.479981079767846],[-46.52213415502796,-23.4797204372013],[-46.52204191522025,-23.479655276559665],[-46.521949675412536,-23.479655276559665],[-46.5217651957971,-23.479524955276393],[-46.521580716181674,-23.479459794634757],[-46.5214423564701,-23.47939463399312],[-46.521303996758526,-23.479329473351488],[-46.52084279771995,-23.47913399142658],[-46.52075055791223,-23.479068830784943],[-46.5205660782968,-23.479003670143307],[-46.52019711906594,-23.478808188218398],[-46.51992039964279,-23.47867786693513],[-46.51941308070036,-23.47835206372695],[-46.51913636127721,-23.478221742443676],[-46.51895188166178,-23.478091421160403],[-46.518721282142494,-23.4778959392355],[-46.518444562719345,-23.47770045731059],[-46.51812172339234,-23.47737465410241],[-46.51793724377691,-23.47724433281914],[-46.51789112387305,-23.477114011535868],[-46.51784500396919,-23.476983690252595],[-46.517798884065336,-23.47691852961096],[-46.51775276416148,-23.476788208327687],[-46.517660524353765,-23.47672304768605],[-46.51747604473833,-23.476527565761145],[-46.51738380493062,-23.47646240511951],[-46.5172915651229,-23.476332083836237],[-46.5172915651229,-23.4762669231946],[-46.51724544521905,-23.47613660191133],[-46.51724544521905,-23.476071441269692],[-46.51724544521905,-23.476006280628056],[-46.51710708550747,-23.476006280628056],[-46.51706096560361,-23.475875959344787],[-46.5169687257959,-23.475615316778242],[-46.516784246180464,-23.475289513570065],[-46.51673812627661,-23.47522435292843],[-46.51664588646889,-23.475159192286792],[-46.51655364666118,-23.475094031645156],[-46.5164152869496,-23.475094031645156],[-46.516230807334175,-23.475094031645156],[-46.51613856752646,-23.475094031645156],[-46.51604632771874,-23.475094031645156],[-46.51590796800717,-23.475094031645156],[-46.51563124858402,-23.474963710361884],[-46.51549288887245,-23.474898549720248],[-46.51540064906474,-23.47483338907861],[-46.515354529160874,-23.47470306779534],[-46.51530840925702,-23.474507585870434],[-46.51530840925702,-23.474116622020617],[-46.51526228935316,-23.473855979454076],[-46.5152161694493,-23.47379081881244],[-46.515170049545446,-23.473725658170803],[-46.51512392964159,-23.473725658170803],[-46.515031689833876,-23.473725658170803],[-46.51498556993001,-23.473725658170803],[-46.51470885050687,-23.473660497529167],[-46.51424765146829,-23.473660497529167],[-46.51420153156443,-23.473660497529167],[-46.51410929175672,-23.473660497529167],[-46.513740332525856,-23.47359533688753],[-46.51341749319885,-23.473530176245895],[-46.513094653871846,-23.47346501560426],[-46.512725694640984,-23.473334694320986],[-46.51221837569855,-23.47313921239608],[-46.51198777617926,-23.473074051754445],[-46.51180329656383,-23.47300889111281],[-46.51171105675612,-23.472943730471172],[-46.51157269704454,-23.472878569829536],[-46.511388217429115,-23.472748248546264],[-46.511295977621394,-23.472683087904628],[-46.511157617909824,-23.47255276662136],[-46.51111149800597,-23.472487605979723],[-46.51106537810211,-23.472422445338086],[-46.51101925819825,-23.472292124054814],[-46.51092701839053,-23.472226963413178],[-46.51092701839053,-23.47203148148827],[-46.510880898486676,-23.471966320846633],[-46.51083477858282,-23.471901160205],[-46.51078865867896,-23.471901160205],[-46.510742538775105,-23.471835999563364],[-46.51069641887125,-23.471770838921728],[-46.51065029896739,-23.471770838921728],[-46.510511939255814,-23.471770838921728],[-46.51037357954424,-23.471770838921728],[-46.51028133973653,-23.471770838921728],[-46.51014298002495,-23.471770838921728],[-46.510096860121095,-23.471770838921728],[-46.50991238050567,-23.471770838921728],[-46.50982014069795,-23.471770838921728],[-46.50972790089023,-23.471770838921728],[-46.50958954117866,-23.471835999563364],[-46.50940506156323,-23.471835999563364],[-46.50926670185166,-23.471835999563364],[-46.5092205819478,-23.471835999563364],[-46.50912834214008,-23.471835999563364],[-46.50898998242851,-23.471835999563364],[-46.50885162271694,-23.471835999563364],[-46.50880550281308,-23.471770838921728],[-46.50871326300536,-23.471770838921728],[-46.508667143101505,-23.471770838921728],[-46.50857490329379,-23.471835999563364],[-46.508528783389934,-23.471835999563364],[-46.50843654358222,-23.471966320846633],[-46.50843654358222,-23.47203148148827],[-46.5083443037745,-23.472096642129905],[-46.50829818387064,-23.47216180277154],[-46.508252063966786,-23.472226963413178],[-46.508252063966786,-23.472292124054814],[-46.50820594406293,-23.472422445338086],[-46.50815982415907,-23.472487605979723],[-46.50815982415907,-23.47255276662136],[-46.50815982415907,-23.472617927262995],[-46.508113704255216,-23.472748248546264],[-46.508113704255216,-23.4728134091879],[-46.50806758435136,-23.472943730471172],[-46.50806758435136,-23.47300889111281],[-46.50806758435136,-23.473074051754445],[-46.50806758435136,-23.473204373037717],[-46.50806758435136,-23.473269533679353],[-46.50806758435136,-23.473334694320986],[-46.50806758435136,-23.473399854962622],[-46.50806758435136,-23.47346501560426],[-46.50806758435136,-23.473530176245895],[-46.50806758435136,-23.47359533688753],[-46.50806758435136,-23.473660497529167],[-46.508113704255216,-23.473725658170803],[-46.508113704255216,-23.47379081881244],[-46.508113704255216,-23.473855979454076],[-46.50815982415907,-23.473855979454076],[-46.50820594406293,-23.47392114009571],[-46.50820594406293,-23.473986300737344],[-46.508252063966786,-23.473986300737344],[-46.50829818387064,-23.473986300737344],[-46.5083443037745,-23.47405146137898],[-46.50839042367836,-23.47405146137898],[-46.50843654358222,-23.474116622020617],[-46.50848266348608,-23.474116622020617],[-46.508528783389934,-23.474181782662253],[-46.50857490329379,-23.474181782662253],[-46.50862102319765,-23.474181782662253],[-46.50871326300536,-23.47424694330389],[-46.50885162271694,-23.47424694330389],[-46.50903610233237,-23.47424694330389],[-46.509174462043944,-23.474312103945525],[-46.50926670185166,-23.474312103945525],[-46.50935894165937,-23.474312103945525],[-46.50949730137094,-23.47437726458716],[-46.50963566108252,-23.47437726458716],[-46.50977402079409,-23.47437726458716],[-46.50982014069795,-23.47437726458716],[-46.509866260601804,-23.47437726458716],[-46.50991238050567,-23.47437726458716],[-46.509958500409525,-23.474442425228798],[-46.51000462031338,-23.474442425228798],[-46.51005074021724,-23.474507585870434],[-46.510096860121095,-23.474507585870434],[-46.51014298002495,-23.474507585870434],[-46.51018909992881,-23.474507585870434],[-46.51018909992881,-23.47457274651207],[-46.510327459640386,-23.47457274651207],[-46.510327459640386,-23.474637907153706],[-46.51037357954424,-23.474637907153706],[-46.510511939255814,-23.47470306779534],[-46.51055805915967,-23.47470306779534],[-46.510604179063535,-23.474768228436975],[-46.51065029896739,-23.474768228436975],[-46.51069641887125,-23.47483338907861],[-46.510742538775105,-23.47483338907861],[-46.510742538775105,-23.474898549720248],[-46.510742538775105,-23.474963710361884],[-46.510742538775105,-23.47502887100352],[-46.510742538775105,-23.475094031645156],[-46.510742538775105,-23.475159192286792],[-46.510742538775105,-23.47522435292843],[-46.510742538775105,-23.475289513570065],[-46.510742538775105,-23.475354674211697],[-46.510742538775105,-23.475419834853334],[-46.51069641887125,-23.47548499549497],[-46.51065029896739,-23.475550156136606],[-46.510604179063535,-23.475615316778242],[-46.510604179063535,-23.47568047741988],[-46.51055805915967,-23.475745638061515],[-46.51055805915967,-23.47581079870315],[-46.510511939255814,-23.47581079870315],[-46.51046581935196,-23.47581079870315],[-46.51037357954424,-23.475875959344787],[-46.51014298002495,-23.47581079870315],[-46.510096860121095,-23.47581079870315],[-46.51005074021724,-23.47581079870315],[-46.509958500409525,-23.475745638061515],[-46.50991238050567,-23.475745638061515],[-46.50982014069795,-23.47568047741988],[-46.50977402079409,-23.47568047741988],[-46.50968178098638,-23.475615316778242],[-46.50958954117866,-23.475615316778242],[-46.50949730137094,-23.475615316778242],[-46.50940506156323,-23.475615316778242],[-46.509312821755515,-23.47568047741988],[-46.50926670185166,-23.47568047741988],[-46.50926670185166,-23.475745638061515],[-46.5092205819478,-23.475745638061515],[-46.5092205819478,-23.47581079870315],[-46.5092205819478,-23.475875959344787],[-46.5092205819478,-23.475941119986423],[-46.5092205819478,-23.476006280628056],[-46.5092205819478,-23.476071441269692],[-46.5092205819478,-23.47613660191133],[-46.5092205819478,-23.476201762552964],[-46.509174462043944,-23.4762669231946],[-46.509174462043944,-23.476332083836237],[-46.50912834214008,-23.476332083836237],[-46.50912834214008,-23.476397244477873],[-46.50908222223622,-23.476397244477873],[-46.50903610233237,-23.47646240511951],[-46.50898998242851,-23.476527565761145],[-46.508897742620796,-23.47659272640278],[-46.50885162271694,-23.476657887044418],[-46.50875938290922,-23.47672304768605],[-46.508528783389934,-23.476853368969323],[-46.508528783389934,-23.47691852961096],[-46.50848266348608,-23.47691852961096],[-46.50839042367836,-23.476983690252595],[-46.50839042367836,-23.47704885089423],[-46.50839042367836,-23.477114011535868],[-46.50839042367836,-23.477179172177504],[-46.50839042367836,-23.47724433281914],[-46.50839042367836,-23.477309493460776],[-46.50839042367836,-23.47737465410241],[-46.5083443037745,-23.477439814744045],[-46.5083443037745,-23.47750497538568],[-46.50829818387064,-23.47750497538568],[-46.50829818387064,-23.477570136027317],[-46.508252063966786,-23.477570136027317],[-46.50820594406293,-23.477635296668954],[-46.50815982415907,-23.477635296668954],[-46.508113704255216,-23.47770045731059],[-46.50797534454364,-23.477765617952226],[-46.50792922463978,-23.477830778593862],[-46.507883104735924,-23.477830778593862],[-46.507606385312776,-23.478026260518767],[-46.50756026540892,-23.478026260518767],[-46.5071451862742,-23.478286903085312],[-46.50673010713948,-23.47815658180204],[-46.50659174742791,-23.478091421160403],[-46.50649950762019,-23.478091421160403],[-46.50613054838933,-23.477961099877135],[-46.50608442848547,-23.477961099877135],[-46.50585382896619,-23.4778959392355],[-46.505807709062324,-23.4778959392355],[-46.50557710954304,-23.477830778593862],[-46.50548486973533,-23.477830778593862],[-46.505392629927606,-23.477765617952226],[-46.50530039011989,-23.477765617952226],[-46.505115910504465,-23.47770045731059],[-46.505023670696744,-23.47770045731059],[-46.503962912908015,-23.477439814744045],[-46.50004272108011,-23.47704885089423]]]}}]}