{"type":"FeatureCollection","features":[{"type":"Feature","properties":{"DATA_ULT_A":"2009/10/09","DATA_CRIAC":"2009/10/09","id":11,"name":"Pinheiros","area":31.7,"pop_2010":289743,"pop_density_2010":9140,"budget_2015":43286638},"geometry":{"type":"Polygon","coordinates":[[[-46.70149446113067,-23.62001129864329],[-46.7013561014191,-23.61975065607675],[-46.70121774170753,-23.61942485286857],[-46.701033262092096,-23.618903567735483],[-46.700894902380526,-23.61818680067749],[-46.70020310382266,-23.614993929237333],[-46.69955742516865,-23.61219202164699],[-46.699326825649365,-23.611475254588996],[-46.6992807057455,-23.611149451380815],[-46.69918846593779,-23.610563005606092],[-46.69886562661078,-23.608933989565198],[-46.69840442757221,-23.60704433095776],[-46.69785098872592,-23.605480475558497],[-46.6960061925716,-23.600202463585994],[-46.69563723334074,-23.599094732678182],[-46.69531439401374,-23.59824764433692],[-46.69434587603273,-23.595445736746576],[-46.694253636225014,-23.59518509418003],[-46.694253636225014,-23.595119933538395],[-46.69379243718643,-23.593881881347315],[-46.69277779930157,-23.59081933119043],[-46.69203988083984,-23.58879935129972],[-46.691763161416695,-23.587952262958453],[-46.69167092160898,-23.58704001397555],[-46.69167092160898,-23.586844532050645],[-46.69167092160898,-23.5865838894841],[-46.69180928132055,-23.58580196178447],[-46.69203988083984,-23.585020034084838],[-46.69227048035913,-23.584629070235025],[-46.69370019737872,-23.58202264456959],[-46.695406633821456,-23.578960094412704],[-46.696836350841046,-23.576483990030543],[-46.69729754987962,-23.57589754425582],[-46.698173828052916,-23.574985295272917],[-46.701033262092096,-23.572378869607483],[-46.70107938199595,-23.572313708965847],[-46.70112550189981,-23.572313708965847],[-46.70112550189981,-23.57224854832421],[-46.701171621803674,-23.572183387682575],[-46.70121774170753,-23.572183387682575],[-46.70149446113067,-23.57179242383276],[-46.701540581034536,-23.57179242383276],[-46.701540581034536,-23.571727263191125],[-46.70237073930397,-23.570358889716772],[-46.703108657765696,-23.568860194959147],[-46.70412329565057,-23.566058287368808],[-46.70504569372772,-23.5633215404201],[-46.7051840534393,-23.563126058495193],[-46.705737492285586,-23.56221380951229],[-46.706521530651166,-23.56130156052939],[-46.70739780882447,-23.560649954113032],[-46.708458566613196,-23.560063508338306],[-46.71113352103694,-23.55876029550559],[-46.711640839979374,-23.558499652939048],[-46.71168695988323,-23.558499652939048],[-46.71173307978709,-23.558434492297412],[-46.71177919969095,-23.558434492297412],[-46.71182531959481,-23.558434492297412],[-46.71219427882567,-23.558239010372503],[-46.71256323805653,-23.558043528447595],[-46.71283995747968,-23.557913207164326],[-46.71302443709511,-23.55784804652269],[-46.713070556998964,-23.55784804652269],[-46.717359708057735,-23.555828066631978],[-46.72072646103935,-23.554068729307808],[-46.72455441305954,-23.552244231342005],[-46.72921252334917,-23.549898448243116],[-46.7302732811379,-23.549377163110027],[-46.73170299815749,-23.548334592843855],[-46.734608552100525,-23.54592364910333],[-46.73451631229281,-23.545858488461693],[-46.733962873446515,-23.545337203328604],[-46.733409434600226,-23.544815918195518],[-46.73336331469637,-23.54475075755388],[-46.73327107488865,-23.544685596912245],[-46.73313271517708,-23.54449011498734],[-46.73299435546551,-23.544359793704068],[-46.73294823556164,-23.544359793704068],[-46.73294823556164,-23.54429463306243],[-46.73285599575393,-23.544229472420795],[-46.73280987585007,-23.54416431177916],[-46.732763755946216,-23.544099151137523],[-46.732625396234646,-23.54396882985425],[-46.732533156426925,-23.543903669212618],[-46.73244091661921,-23.543773347929346],[-46.7323486768115,-23.54370818728771],[-46.732256437003784,-23.543643026646073],[-46.73216419719606,-23.5435127053628],[-46.73184135786906,-23.543252062796256],[-46.73184135786906,-23.543186902154623],[-46.731749118061344,-23.543121741512987],[-46.731610758349774,-23.542991420229715],[-46.73156463844592,-23.54292625958808],[-46.731472398638196,-23.542861098946442],[-46.731334038926626,-23.54273077766317],[-46.730965079695764,-23.542339813813356],[-46.73091895979191,-23.542339813813356],[-46.73078060008034,-23.542209492530084],[-46.73073448017647,-23.542144331888448],[-46.730688360272616,-23.54207917124681],[-46.7305961204649,-23.542014010605175],[-46.73050388065719,-23.54194884996354],[-46.730411640849475,-23.54181852868027],[-46.72995044181089,-23.541362404188817],[-46.72985820200318,-23.54129724354718],[-46.729535362676174,-23.541166922263912],[-46.72948924277232,-23.541166922263912],[-46.72935088306075,-23.541101761622276],[-46.72916640344531,-23.540971440339003],[-46.72902804373374,-23.540906279697367],[-46.72893580392603,-23.54084111905573],[-46.72884356411831,-23.540775958414095],[-46.72875132431059,-23.54071079777246],[-46.72865908450288,-23.540645637130822],[-46.72861296459902,-23.540580476489186],[-46.72861296459902,-23.540515315847554],[-46.7285207247913,-23.540450155205917],[-46.72805952575273,-23.539733388147923],[-46.72801340584887,-23.539668227506287],[-46.72796728594501,-23.539537906223014],[-46.7278750461373,-23.539472745581378],[-46.72773668642572,-23.53927726365647],[-46.727690566521865,-23.53927726365647],[-46.72764444661801,-23.539212103014833],[-46.72750608690644,-23.539081781731564],[-46.726906528156285,-23.538495335956842],[-46.72644532911771,-23.53803921146539],[-46.726260849502275,-23.537908890182116],[-46.72616860969456,-23.537843729540484],[-46.72603024998299,-23.53771340825721],[-46.72593801017527,-23.537648247615575],[-46.7257996504637,-23.53758308697394],[-46.725615170848265,-23.537452765690666],[-46.72538457132898,-23.53738760504903],[-46.7252462116174,-23.537322444407394],[-46.72510785190583,-23.537257283765758],[-46.72496949219426,-23.537257283765758],[-46.72487725238654,-23.53719212312412],[-46.72473889267497,-23.53719212312412],[-46.7246005329634,-23.53719212312412],[-46.72436993344411,-23.53712696248249],[-46.72418545382868,-23.53712696248249],[-46.72390873440553,-23.53712696248249],[-46.72381649459782,-23.53712696248249],[-46.7237242547901,-23.53712696248249],[-46.72321693584767,-23.53719212312412],[-46.72317081594381,-23.537257283765758],[-46.72312469603995,-23.537257283765758],[-46.723078576136096,-23.537257283765758],[-46.722986336328376,-23.537257283765758],[-46.72151049940493,-23.537452765690666],[-46.72118766007792,-23.537517926332303],[-46.72114154017407,-23.537517926332303],[-46.721003180462496,-23.537517926332303],[-46.72095706055864,-23.537517926332303],[-46.720772580943205,-23.537452765690666],[-46.72068034113549,-23.537452765690666],[-46.72049586152006,-23.537452765690666],[-46.72031138190463,-23.53738760504903],[-46.72017302219306,-23.537322444407394],[-46.72008078238534,-23.537257283765758],[-46.72003466248148,-23.537257283765758],[-46.71966570325062,-23.53693148055758],[-46.719573463442906,-23.536735998632672],[-46.71952734353905,-23.536735998632672],[-46.719435103731335,-23.5366056773494],[-46.719342863923615,-23.53647535606613],[-46.71929674401976,-23.53647535606613],[-46.7192506241159,-23.536345034782858],[-46.719204504212044,-23.536345034782858],[-46.71915838430819,-23.536279874141222],[-46.71902002459661,-23.536214713499586],[-46.71897390469275,-23.53614955285795],[-46.718927784788896,-23.536084392216313],[-46.71888166488504,-23.536084392216313],[-46.71883554498118,-23.536084392216313],[-46.71869718526961,-23.536019231574677],[-46.71865106536575,-23.536019231574677],[-46.71823598623103,-23.53595407093304],[-46.71759030757703,-23.535888910291405],[-46.717498067769306,-23.535888910291405],[-46.71666790949987,-23.535758589008136],[-46.71629895026901,-23.5356934283665],[-46.71620671046129,-23.535628267724864],[-46.716160590557436,-23.535628267724864],[-46.716068350749715,-23.535628267724864],[-46.715976110942,-23.535628267724864],[-46.71588387113429,-23.535628267724864],[-46.71556103180728,-23.535563107083227],[-46.715514911903426,-23.535563107083227],[-46.71546879199957,-23.535563107083227],[-46.71537655219185,-23.535563107083227],[-46.715145952672565,-23.53549794644159],[-46.714638633730125,-23.535432785799955],[-46.71454639392241,-23.535432785799955],[-46.7144541541147,-23.535432785799955],[-46.714361914306984,-23.535432785799955],[-46.71431579440313,-23.53536762515832],[-46.71426967449926,-23.53536762515832],[-46.71413131478769,-23.53536762515832],[-46.7139007152684,-23.53536762515832],[-46.713854595364545,-23.53536762515832],[-46.71376235555683,-23.53536762515832],[-46.71353175603754,-23.53536762515832],[-46.71348563613368,-23.535432785799955],[-46.713301156518256,-23.535432785799955],[-46.71320891671054,-23.535432785799955],[-46.71316279680668,-23.535432785799955],[-46.712932197287394,-23.535432785799955],[-46.712793837575816,-23.535432785799955],[-46.7127015977681,-23.535432785799955],[-46.712655477864246,-23.535432785799955],[-46.71260935796039,-23.535432785799955],[-46.712424878344954,-23.53549794644159],[-46.71219427882567,-23.53549794644159],[-46.71214815892181,-23.535563107083227],[-46.71205591911409,-23.535563107083227],[-46.712009799210236,-23.535563107083227],[-46.71196367930638,-23.535563107083227],[-46.711871439498665,-23.535563107083227],[-46.71182531959481,-23.535563107083227],[-46.71177919969095,-23.535563107083227],[-46.71173307978709,-23.535628267724864],[-46.71159472007552,-23.535628267724864],[-46.71154860017166,-23.535628267724864],[-46.711502480267804,-23.535628267724864],[-46.71141024046009,-23.5356934283665],[-46.7111796409408,-23.5356934283665],[-46.71113352103694,-23.535758589008136],[-46.711087401133085,-23.535758589008136],[-46.71094904142151,-23.535758589008136],[-46.71090292151765,-23.535758589008136],[-46.710856801613794,-23.535823749649772],[-46.71081068170994,-23.535823749649772],[-46.71076456180608,-23.535823749649772],[-46.71071844190222,-23.535823749649772],[-46.710672321998366,-23.535823749649772],[-46.710672321998366,-23.535888910291405],[-46.7106262020945,-23.535888910291405],[-46.710580082190646,-23.535888910291405],[-46.710441722479075,-23.53595407093304],[-46.71034948267136,-23.53595407093304],[-46.710303362767505,-23.53595407093304],[-46.710211122959784,-23.536019231574677],[-46.71002664334436,-23.536084392216313],[-46.7099805234405,-23.536084392216313],[-46.70993440353664,-23.536084392216313],[-46.70993440353664,-23.53614955285795],[-46.70988828363278,-23.53614955285795],[-46.70984216372892,-23.53614955285795],[-46.709796043825065,-23.536214713499586],[-46.70974992392121,-23.536214713499586],[-46.70974992392121,-23.536279874141222],[-46.70970380401735,-23.536279874141222],[-46.709657684113495,-23.536345034782858],[-46.70961156420964,-23.536410195424494],[-46.70961156420964,-23.53647535606613],[-46.70956544430578,-23.53647535606613],[-46.70956544430578,-23.536540516707763],[-46.70956544430578,-23.5366056773494],[-46.70956544430578,-23.536670837991036],[-46.70956544430578,-23.536735998632672],[-46.70956544430578,-23.536801159274308],[-46.70956544430578,-23.536866319915944],[-46.70961156420964,-23.536866319915944],[-46.70961156420964,-23.53693148055758],[-46.70961156420964,-23.536996641199217],[-46.709657684113495,-23.537061801840853],[-46.709657684113495,-23.53712696248249],[-46.70961156420964,-23.53719212312412],[-46.70956544430578,-23.537257283765758],[-46.70951932440192,-23.537322444407394],[-46.70947320449806,-23.537322444407394],[-46.70947320449806,-23.53738760504903],[-46.7094270845942,-23.53738760504903],[-46.70938096469035,-23.537452765690666],[-46.70933484478649,-23.537517926332303],[-46.70928872488263,-23.53758308697394],[-46.70919648507492,-23.537648247615575],[-46.709150365171055,-23.53771340825721],[-46.7091042452672,-23.537778568898847],[-46.70896588555563,-23.537908890182116],[-46.70891976565177,-23.53803921146539],[-46.70882752584406,-23.538104372107025],[-46.708781405940194,-23.53816953274866],[-46.70868916613248,-23.538234693390297],[-46.70868916613248,-23.538299854031933],[-46.70855080642091,-23.538430175315206],[-46.70850468651705,-23.538430175315206],[-46.708458566613196,-23.538495335956842],[-46.70841244670933,-23.538495335956842],[-46.70841244670933,-23.538560496598475],[-46.708366326805475,-23.538560496598475],[-46.70832020690162,-23.538560496598475],[-46.70832020690162,-23.53862565724011],[-46.70827408699776,-23.53862565724011],[-46.708227967093904,-23.53862565724011],[-46.708227967093904,-23.538690817881747],[-46.70818184719005,-23.538690817881747],[-46.70813572728619,-23.538690817881747],[-46.708089607382334,-23.538755978523383],[-46.70804348747847,-23.538755978523383],[-46.70799736757461,-23.538755978523383],[-46.707951247670756,-23.538755978523383],[-46.7079051277669,-23.538755978523383],[-46.7079051277669,-23.53882113916502],[-46.70785900786304,-23.53882113916502],[-46.707582288439895,-23.53882113916502],[-46.70725944911289,-23.538886299806656],[-46.70698272968974,-23.538951460448292],[-46.706936609785885,-23.538951460448292],[-46.70684436997817,-23.538951460448292],[-46.706798250074314,-23.538951460448292],[-46.70675213017046,-23.538951460448292],[-46.7067060102666,-23.538951460448292],[-46.706659890362744,-23.538951460448292],[-46.70661377045888,-23.538951460448292],[-46.70661377045888,-23.539016621089928],[-46.70656765055502,-23.539016621089928],[-46.706521530651166,-23.539016621089928],[-46.70647541074731,-23.539016621089928],[-46.70647541074731,-23.539081781731564],[-46.70642929084345,-23.539081781731564],[-46.706383170939596,-23.539081781731564],[-46.706383170939596,-23.5391469423732],[-46.70633705103574,-23.5391469423732],[-46.70629093113188,-23.5391469423732],[-46.70629093113188,-23.539212103014833],[-46.70624481122802,-23.539212103014833],[-46.70624481122802,-23.53927726365647],[-46.70619869132416,-23.53927726365647],[-46.70619869132416,-23.539342424298106],[-46.706152571420304,-23.539342424298106],[-46.70606033161259,-23.539472745581378],[-46.706014211708734,-23.53960306686465],[-46.70592197190102,-23.539668227506287],[-46.705875851997156,-23.539733388147923],[-46.70578361218944,-23.53979854878956],[-46.705737492285586,-23.53979854878956],[-46.70564525247787,-23.539863709431195],[-46.705506892766294,-23.539928870072828],[-46.70546077286244,-23.539994030714464],[-46.70527629324701,-23.5400591913561],[-46.7051840534393,-23.5400591913561],[-46.70513793353543,-23.540124351997736],[-46.705091813631576,-23.540124351997736],[-46.70504569372772,-23.540124351997736],[-46.70499957382386,-23.540124351997736],[-46.704953453920005,-23.540189512639373],[-46.70490733401615,-23.540189512639373],[-46.70486121411229,-23.540189512639373],[-46.704815094208435,-23.540189512639373],[-46.70476897430457,-23.540189512639373],[-46.70476897430457,-23.54025467328101],[-46.704722854400714,-23.54025467328101],[-46.70467673449686,-23.54025467328101],[-46.704630614593,-23.54025467328101],[-46.70440001507371,-23.54025467328101],[-46.70426165536214,-23.540319833922645],[-46.70412329565057,-23.540319833922645],[-46.70407717574671,-23.540319833922645],[-46.70403105584285,-23.54038499456428],[-46.703938816035134,-23.54038499456428],[-46.70389269613128,-23.54038499456428],[-46.70384657622742,-23.54038499456428],[-46.703662096611986,-23.540450155205917],[-46.70356985680427,-23.540450155205917],[-46.703523736900415,-23.540450155205917],[-46.703385377188845,-23.540515315847554],[-46.70333925728499,-23.540515315847554],[-46.70324701747727,-23.540515315847554],[-46.70306253786184,-23.540580476489186],[-46.70292417815026,-23.540645637130822],[-46.70283193834255,-23.540645637130822],[-46.70264745872712,-23.54071079777246],[-46.70250909901554,-23.54071079777246],[-46.70218625968854,-23.540775958414095],[-46.70214013978468,-23.540775958414095],[-46.702094019880825,-23.540775958414095],[-46.70204789997697,-23.54084111905573],[-46.70186342036153,-23.54084111905573],[-46.70181730045768,-23.54084111905573],[-46.70177118055382,-23.54084111905573],[-46.70163282084225,-23.540906279697367],[-46.701448341226815,-23.540906279697367],[-46.701033262092096,-23.540971440339003],[-46.70098714218824,-23.540971440339003],[-46.700894902380526,-23.540971440339003],[-46.70075654266895,-23.540971440339003],[-46.70043370334195,-23.54103660098064],[-46.70034146353423,-23.54103660098064],[-46.70029534363037,-23.54103660098064],[-46.70020310382266,-23.54103660098064],[-46.69992638439951,-23.541101761622276],[-46.699880264495654,-23.541101761622276],[-46.69941906545708,-23.541166922263912],[-46.69937294555322,-23.541166922263912],[-46.6992807057455,-23.541166922263912],[-46.69918846593779,-23.541166922263912],[-46.69905010622622,-23.541166922263912],[-46.69900398632236,-23.541166922263912],[-46.6989578664185,-23.541166922263912],[-46.69877338680307,-23.541101761622276],[-46.698681146995355,-23.54103660098064],[-46.69858890718764,-23.54103660098064],[-46.69854278728378,-23.54103660098064],[-46.698450547476064,-23.540971440339003],[-46.69840442757221,-23.540971440339003],[-46.69835830766835,-23.540971440339003],[-46.69821994795678,-23.540971440339003],[-46.697897108629775,-23.540906279697367],[-46.697804868822054,-23.54084111905573],[-46.69762038920663,-23.54084111905573],[-46.69757426930277,-23.54084111905573],[-46.69752814939891,-23.54084111905573],[-46.697482029495056,-23.54084111905573],[-46.69743590959119,-23.54084111905573],[-46.697389789687335,-23.540906279697367],[-46.69734366978348,-23.540906279697367],[-46.69734366978348,-23.540971440339003],[-46.69720531007191,-23.541166922263912],[-46.69715919016805,-23.541232082905545],[-46.697020830456474,-23.541427564830453],[-46.69697471055262,-23.541557886113726],[-46.69692859064876,-23.54162304675536],[-46.696836350841046,-23.54181852868027],[-46.69679023093719,-23.54181852868027],[-46.69669799112947,-23.542014010605175],[-46.696605751321755,-23.542144331888448],[-46.696605751321755,-23.542209492530084],[-46.6965596314179,-23.542209492530084],[-46.6965596314179,-23.54227465317172],[-46.69651351151404,-23.54227465317172],[-46.69651351151404,-23.542339813813356],[-46.696467391610184,-23.542339813813356],[-46.696467391610184,-23.542404974454993],[-46.69642127170633,-23.542404974454993],[-46.696375151802464,-23.54247013509663],[-46.69632903189861,-23.54247013509663],[-46.69628291199475,-23.542535295738265],[-46.69623679209089,-23.542535295738265],[-46.6960061925716,-23.542665617021534],[-46.695821712956175,-23.542795938304806],[-46.695683353244604,-23.542861098946442],[-46.69531439401374,-23.543121741512987],[-46.69526827410988,-23.543121741512987],[-46.69512991439831,-23.543252062796256],[-46.69508379449445,-23.543252062796256],[-46.695037674590594,-23.543317223437892],[-46.69499155468674,-23.543317223437892],[-46.69494543478288,-23.54338238407953],[-46.69489931487902,-23.543447544721165],[-46.69485319497516,-23.543447544721165],[-46.6948070750713,-23.5435127053628],[-46.69466871535973,-23.543643026646073],[-46.69457647555202,-23.543773347929346],[-46.6944842357443,-23.543903669212618],[-46.69434587603273,-23.544033990495887],[-46.69406915660958,-23.54429463306243],[-46.693838557090295,-23.544555275628976],[-46.693607957571004,-23.544685596912245],[-46.69356183766715,-23.54475075755388],[-46.69342347795557,-23.544881078837154],[-46.69337735805171,-23.544881078837154],[-46.693285118244,-23.54494623947879],[-46.693192878436285,-23.545011400120426],[-46.69310063862857,-23.545076560762062],[-46.692962278916994,-23.545206882045335],[-46.69291615901314,-23.545206882045335],[-46.69277779930157,-23.545272042686967],[-46.692408840070705,-23.545532685253512],[-46.692178240551414,-23.545663006536785],[-46.6920860007437,-23.54572816717842],[-46.69203988083984,-23.54572816717842],[-46.691901521128266,-23.545858488461693],[-46.69185540122441,-23.545858488461693],[-46.69171704151284,-23.545988809744962],[-46.691532561897404,-23.546119131028235],[-46.69144032208969,-23.54618429166987],[-46.69139420218583,-23.546249452311507],[-46.69130196237812,-23.546314612953143],[-46.69116360266654,-23.546444934236415],[-46.690979123051115,-23.546575255519688],[-46.69084076333954,-23.54664041616132],[-46.69070240362797,-23.546770737444593],[-46.69051792401253,-23.546901058727865],[-46.690333444397105,-23.547031380011138],[-46.69014896478167,-23.54716170129441],[-46.689918365262386,-23.547357183219315],[-46.68987224535853,-23.547357183219315],[-46.68978000555081,-23.54742234386095],[-46.689687765743095,-23.547487504502588],[-46.68959552593538,-23.547487504502588],[-46.689549406031524,-23.547487504502588],[-46.689272686608376,-23.54761782578586],[-46.689134326896806,-23.54761782578586],[-46.688903727377514,-23.547682986427496],[-46.688765367665944,-23.547682986427496],[-46.688627007954366,-23.547748147069132],[-46.68853476814665,-23.547748147069132],[-46.68839640843508,-23.547748147069132],[-46.68830416862736,-23.547748147069132],[-46.68821192881965,-23.547748147069132],[-46.68816580891579,-23.547748147069132],[-46.68802744920422,-23.547748147069132],[-46.687981329300364,-23.547748147069132],[-46.687842969588786,-23.547748147069132],[-46.68765848997336,-23.547748147069132],[-46.687474010357924,-23.547748147069132],[-46.68742789045407,-23.547748147069132],[-46.687335650646354,-23.547748147069132],[-46.68724341083864,-23.547748147069132],[-46.687197290934776,-23.547748147069132],[-46.687197290934776,-23.54781330771077],[-46.68710505112706,-23.54781330771077],[-46.687058931223206,-23.54781330771077],[-46.68687445160778,-23.547878468352405],[-46.68645937247305,-23.54807395027731],[-46.686413252569196,-23.54807395027731],[-46.686274892857625,-23.548139110918946],[-46.68618265304991,-23.548204271560582],[-46.68613653314605,-23.548204271560582],[-46.686044293338334,-23.54826943220222],[-46.68585981372291,-23.548334592843855],[-46.68572145401133,-23.548464914127127],[-46.6855369743959,-23.5485952354104],[-46.68535249478047,-23.548725556693668],[-46.6852141350689,-23.54885587797694],[-46.685075775357326,-23.548986199260213],[-46.68489129574189,-23.54918168118512],[-46.684614576318744,-23.549442323751663],[-46.68447621660717,-23.549572645034935],[-46.6843378568956,-23.54963780567657],[-46.684199497184025,-23.549702966318208],[-46.68415337728017,-23.549702966318208],[-46.684061137472455,-23.549702966318208],[-46.6840150175686,-23.549702966318208],[-46.68392277776088,-23.549702966318208],[-46.68383053795316,-23.549702966318208],[-46.683646058337736,-23.549768126959844],[-46.6834615787223,-23.549768126959844],[-46.68323097920302,-23.549768126959844],[-46.68318485929915,-23.549768126959844],[-46.68304649958758,-23.549768126959844],[-46.68295425977987,-23.549768126959844],[-46.68281590006829,-23.549768126959844],[-46.68272366026058,-23.549768126959844],[-46.68244694083743,-23.549768126959844],[-46.682354701029716,-23.549768126959844],[-46.682216341318146,-23.549768126959844],[-46.68207798160657,-23.549768126959844],[-46.681847382087284,-23.549768126959844],[-46.68161678256799,-23.54983328760148],[-46.68152454276028,-23.54983328760148],[-46.68147842285642,-23.54983328760148],[-46.681432302952565,-23.54983328760148],[-46.68138618304871,-23.54983328760148],[-46.681340063144845,-23.54983328760148],[-46.68129394324099,-23.54983328760148],[-46.68097110391398,-23.549898448243116],[-46.680924984010126,-23.549898448243116],[-46.680924984010126,-23.54996360888475],[-46.68087886410627,-23.54996360888475],[-46.68083274420241,-23.54996360888475],[-46.680786624298555,-23.54996360888475],[-46.6807405043947,-23.550028769526385],[-46.68069438449084,-23.550028769526385],[-46.68064826458698,-23.550028769526385],[-46.68060214468312,-23.550028769526385],[-46.680556024779264,-23.550028769526385],[-46.68050990487541,-23.550028769526385],[-46.68046378497155,-23.550028769526385],[-46.680417665067694,-23.550028769526385],[-46.68037154516384,-23.550028769526385],[-46.68032542525998,-23.550028769526385],[-46.68023318545226,-23.550028769526385],[-46.6801870655484,-23.550028769526385],[-46.68009482574069,-23.550028769526385],[-46.68004870583683,-23.550028769526385],[-46.680002585932975,-23.550028769526385],[-46.67995646602912,-23.550028769526385],[-46.679910346125254,-23.550028769526385],[-46.679218547567395,-23.550354572734566],[-46.67908018785582,-23.550354572734566],[-46.67889570824039,-23.550419733376202],[-46.67884958833653,-23.55048489401784],[-46.67875734852881,-23.55048489401784],[-46.678711228624955,-23.550550054659475],[-46.6786651087211,-23.550550054659475],[-46.67852674900953,-23.550680375942743],[-46.67843450920181,-23.55074553658438],[-46.67820390968252,-23.550875857867652],[-46.677927190259375,-23.55107133979256],[-46.677788830547804,-23.551201661075833],[-46.677696590740084,-23.551201661075833],[-46.67760435093237,-23.551331982359102],[-46.67741987131694,-23.551397143000738],[-46.677281511605365,-23.55152746428401],[-46.67723539170151,-23.551592624925647],[-46.67718927179765,-23.551592624925647],[-46.67709703198994,-23.551657785567283],[-46.67695867227836,-23.55172294620892],[-46.67682031256679,-23.551788106850555],[-46.67663583295136,-23.551918428133828],[-46.67654359314364,-23.55198358877546],[-46.67631299362436,-23.552048749417096],[-46.67617463391278,-23.552113910058733],[-46.67599015429735,-23.552244231342005],[-46.675851794585775,-23.55230939198364],[-46.67566731497035,-23.552374552625277],[-46.675575075162634,-23.552374552625277],[-46.67552895525877,-23.552439713266914],[-46.67525223583563,-23.55250487390855],[-46.67515999602791,-23.552570034550186],[-46.67511387612405,-23.552570034550186],[-46.675067756220194,-23.552635195191822],[-46.67502163631634,-23.552635195191822],[-46.67483715670091,-23.552700355833455],[-46.67469879698933,-23.55276551647509],[-46.674652677085476,-23.55276551647509],[-46.67460655718162,-23.55276551647509],[-46.674422077566184,-23.552895837758363],[-46.674283717854614,-23.552895837758363],[-46.67423759795076,-23.5529609984],[-46.6741914780469,-23.5529609984],[-46.674006998431466,-23.553026159041636],[-46.673868638719895,-23.553091319683272],[-46.67359191929675,-23.553221640966544],[-46.67340743968132,-23.55328680160818],[-46.67280788093117,-23.553547444174722],[-46.672577281411876,-23.553612604816358],[-46.672300561988735,-23.55374292609963],[-46.67197772266173,-23.553873247382903],[-46.671793243046295,-23.55393840802454],[-46.67170100323858,-23.55400356866617],[-46.671654883334725,-23.55400356866617],[-46.67156264352701,-23.554068729307808],[-46.67147040371929,-23.554068729307808],[-46.67128592410386,-23.554133889949444],[-46.67110144448843,-23.55419905059108],[-46.670870844969144,-23.554329371874353],[-46.67064024544985,-23.55439453251599],[-46.67050188573828,-23.554459693157625],[-46.670225166315134,-23.554590014440898],[-46.6700406866997,-23.554655175082534],[-46.66990232698813,-23.554720335724166],[-46.66976396727656,-23.554785496365803],[-46.6693950080457,-23.55498097829071],[-46.66897992891098,-23.555111299573984],[-46.66861096968012,-23.555306781498892],[-46.668149770641534,-23.555502263423797],[-46.66791917112225,-23.555567424065433],[-46.667596331795245,-23.555697745348706],[-46.66727349246824,-23.555828066631978],[-46.66727349246824,-23.555893227273614],[-46.66658169391037,-23.556153869840156],[-46.666304974487225,-23.556284191123428],[-46.66625885458337,-23.556284191123428],[-46.66607437496794,-23.556349351765064],[-46.66598213516022,-23.5564145124067],[-46.665936015256364,-23.5564145124067],[-46.66584377544865,-23.556479673048337],[-46.66565929583322,-23.556479673048337],[-46.665520936121645,-23.556544833689973],[-46.66542869631393,-23.556544833689973],[-46.6652442166985,-23.55660999433161],[-46.66515197689078,-23.55660999433161],[-46.66505973708307,-23.55660999433161],[-46.664875257467635,-23.55667515497324],[-46.66469077785221,-23.55667515497324],[-46.66427569871749,-23.55660999433161],[-46.66399897929434,-23.55660999433161],[-46.66386061958277,-23.556479673048337],[-46.66376837977505,-23.556349351765064],[-46.66363002006348,-23.556284191123428],[-46.663537780255766,-23.556284191123428],[-46.663445540448045,-23.55621903048179],[-46.66326106083262,-23.556153869840156],[-46.663168821024904,-23.55608870919852],[-46.66312270112105,-23.55608870919852],[-46.66307658121718,-23.55608870919852],[-46.663030461313326,-23.55608870919852],[-46.66298434140947,-23.55608870919852],[-46.66293822150561,-23.55608870919852],[-46.662892101601756,-23.556153869840156],[-46.662523142370894,-23.556479673048337],[-46.66233866275546,-23.55660999433161],[-46.66220030304389,-23.556740315614878],[-46.66141626467831,-23.557457082672872],[-46.661231785062874,-23.557587403956145],[-46.66118566515902,-23.55765256459778],[-46.66113954525516,-23.55765256459778],[-46.66040162679344,-23.55830417101414],[-46.65961758842786,-23.558955777430498],[-46.65952534862014,-23.55908609871377],[-46.65920250929314,-23.559346741280315],[-46.65915638938928,-23.559411901921948],[-46.65841847092756,-23.560063508338306],[-46.658187871408266,-23.560258990263215],[-46.657818912177405,-23.560584793471396],[-46.65735771313883,-23.56097575732121],[-46.65721935342725,-23.56110607860448],[-46.656896514100254,-23.56143188181266],[-46.65657367477325,-23.561692524379204],[-46.65643531506167,-23.561822845662476],[-46.656112475734666,-23.562083488229018],[-46.65606635583081,-23.562148648870654],[-46.655974116023096,-23.56221380951229],[-46.65578963640767,-23.562344130795562],[-46.65542067717681,-23.562669934003743],[-46.654959478138224,-23.563060897853557],[-46.6547749985228,-23.56319121913683],[-46.65459051890736,-23.5633215404201],[-46.65449827909965,-23.56345186170337],[-46.65408319996493,-23.56377766491155],[-46.65394484025335,-23.563907986194824],[-46.653898720349495,-23.563907986194824],[-46.653622000926354,-23.564168628761365],[-46.653114681983915,-23.564559592611182],[-46.652561243137626,-23.565015717102632],[-46.652469003329905,-23.565146038385905],[-46.65228452371448,-23.565276359669177],[-46.65186944457976,-23.565602162877354],[-46.65163884506047,-23.565797644802263],[-46.65136212563732,-23.566058287368808],[-46.651131526118036,-23.566188608652077],[-46.651131526118036,-23.566253769293713],[-46.65099316640646,-23.56631892993535],[-46.650485847464026,-23.5667750544268],[-46.650255247944735,-23.566970536351707],[-46.65002464842545,-23.567166018276616],[-46.649332849867584,-23.56775246405134],[-46.64928672996373,-23.56775246405134],[-46.649194490156006,-23.567817624692974],[-46.64914837025215,-23.56788278533461],[-46.64928672996373,-23.568013106617883],[-46.649332849867584,-23.56807826725952],[-46.649701809098445,-23.568469231109333],[-46.64988628871387,-23.56866471303424],[-46.65002464842545,-23.56879503431751],[-46.65020912804088,-23.56899051624242],[-46.65067032707946,-23.569381480092236],[-46.65080868679103,-23.56957696201714],[-46.65103928631032,-23.56977244394205],[-46.65117764602189,-23.569902765225322],[-46.651269885829606,-23.56996792586696],[-46.65131600573346,-23.570033086508595],[-46.651408245541184,-23.57009824715023],[-46.65145436544504,-23.570163407791863],[-46.65159272515661,-23.570293729075136],[-46.65163884506047,-23.570293729075136],[-46.65163884506047,-23.570358889716772],[-46.651684964964325,-23.570358889716772],[-46.651777204772046,-23.570424050358408],[-46.651777204772046,-23.570489211000044],[-46.651915564483616,-23.57055437164168],[-46.65196168438747,-23.570619532283317],[-46.652192283906764,-23.570815014208222],[-46.652330643618335,-23.570945335491494],[-46.65237676352219,-23.57101049613313],[-46.65242288342605,-23.57101049613313],[-46.65251512323377,-23.571140817416403],[-46.65260736304148,-23.57120597805804],[-46.65265348294534,-23.571271138699675],[-46.65288408246463,-23.571466620624584],[-46.653114681983915,-23.57166210254949],[-46.65329916159935,-23.57179242383276],[-46.65348364121478,-23.57198790575767],[-46.653622000926354,-23.572118227040942],[-46.65366812083021,-23.572118227040942],[-46.65366812083021,-23.572183387682575],[-46.653760360637925,-23.57224854832421],[-46.65380648054178,-23.57224854832421],[-46.65394484025335,-23.57244403024912],[-46.65426767958036,-23.572704672815664],[-46.65472887861894,-23.573160797307114],[-46.65486723833051,-23.573291118590387],[-46.654959478138224,-23.573356279232023],[-46.6550978378498,-23.57342143987366],[-46.65523619756137,-23.573616921798564],[-46.65555903688838,-23.57387756436511],[-46.655835756311525,-23.574138206931654],[-46.656112475734666,-23.574398849498195],[-46.65620471554239,-23.57446401013983],[-46.656389195157814,-23.57465949206474],[-46.656758154388676,-23.574985295272917],[-46.65685039419639,-23.575050455914553],[-46.657034873811824,-23.575245937839462],[-46.657265473331115,-23.57544141976437],[-46.65744995294654,-23.575636901689276],[-46.657680552465834,-23.575832383614184],[-46.65786503208126,-23.576027865539093],[-46.65800339179284,-23.57609302618073],[-46.658049511696696,-23.576158186822365],[-46.65823399131212,-23.57635366874727],[-46.65841847092756,-23.576483990030543],[-46.658464590831414,-23.576483990030543],[-46.65855683063913,-23.576614311313815],[-46.65892578986999,-23.576940114521992],[-46.6590180296777,-23.57700527516363],[-46.65929474910085,-23.577265917730173],[-46.65952534862014,-23.577526560296718],[-46.65970982823557,-23.577656881579987],[-46.659802068043284,-23.577722042221623],[-46.65998654765872,-23.57791752414653],[-46.66058610640887,-23.578438809279618],[-46.660678346216585,-23.57856913056289],[-46.660816705928156,-23.578634291204526],[-46.661231785062874,-23.578960094412704],[-46.661877463716884,-23.57935105826252],[-46.66192358362074,-23.57935105826252],[-46.6622925428516,-23.579611700829062],[-46.66247702246704,-23.5796768614707],[-46.66247702246704,-23.579742022112335],[-46.662523142370894,-23.579742022112335],[-46.66261538217861,-23.57980718275397],[-46.662753741890185,-23.579872343395607],[-46.66307658121718,-23.580067825320516],[-46.663676139967336,-23.580393628528693],[-46.66386061958277,-23.580523949811965],[-46.66422957881363,-23.580719431736874],[-46.6643679385252,-23.58078459237851],[-46.66446017833292,-23.580849753020146],[-46.664875257467635,-23.581110395586688],[-46.66515197689078,-23.58124071686996],[-46.66542869631393,-23.58143619879487],[-46.6655670560255,-23.581501359436505],[-46.66565929583322,-23.581566520078137],[-46.66570541573708,-23.581566520078137],[-46.66584377544865,-23.581631680719774],[-46.66607437496794,-23.581762002003046],[-46.666812293429665,-23.5822181264945],[-46.66718125266053,-23.582413608419404],[-46.6673196123721,-23.58247876906104],[-46.66750409198753,-23.582609090344313],[-46.668657089583974,-23.58326069676067],[-46.668795449295544,-23.583391018043944],[-46.6688415691994,-23.583391018043944],[-46.669164408526406,-23.58358649996885],[-46.66990232698813,-23.583977463818666],[-46.669948446891986,-23.584042624460302],[-46.6700406866997,-23.58410778510194],[-46.670086806603564,-23.584172945743575],[-46.67013292650742,-23.58423810638521],[-46.67017904641128,-23.58423810638521],[-46.670225166315134,-23.584303267026844],[-46.67050188573828,-23.585020034084838],[-46.67077860516143,-23.585541319217928],[-46.67082472506529,-23.585541319217928],[-46.67082472506529,-23.58560647985956],[-46.670870844969144,-23.58560647985956],[-46.670916964873,-23.585671640501197],[-46.67096308477686,-23.585736801142833],[-46.67096308477686,-23.58580196178447],[-46.671009204680715,-23.585867122426105],[-46.67105532458457,-23.58593228306774],[-46.67114756439229,-23.58612776499265],[-46.671239804200006,-23.58638840755919],[-46.67133204400772,-23.586649050125736],[-46.67137816391158,-23.58677937140901],[-46.67142428381543,-23.586844532050645],[-46.67142428381543,-23.58690969269228],[-46.67147040371929,-23.587105174617186],[-46.67160876343087,-23.58756129910864],[-46.67170100323858,-23.587756781033544],[-46.67174712314244,-23.587887102316817],[-46.67183936295015,-23.58827806616663],[-46.671885482854016,-23.588343226808266],[-46.67197772266173,-23.588734190658084],[-46.67206996246944,-23.588994833224625],[-46.67206996246944,-23.58905999386626],[-46.6721160823733,-23.589125154507897],[-46.6721160823733,-23.589190315149533],[-46.6721160823733,-23.58925547579117],[-46.67216220227716,-23.589385797074442],[-46.672208322181014,-23.58945095771608],[-46.67225444208488,-23.58971160028262],[-46.672300561988735,-23.589841921565892],[-46.67234668189259,-23.589907082207528],[-46.67234668189259,-23.589972242849164],[-46.67234668189259,-23.5900374034908],[-46.67239280179645,-23.590167724774073],[-46.672438921700305,-23.590167724774073],[-46.672438921700305,-23.59023288541571],[-46.672438921700305,-23.59029804605734],[-46.67248504160416,-23.590428367340614],[-46.67253116150802,-23.590558688623886],[-46.67253116150802,-23.590623849265523],[-46.672577281411876,-23.59068900990716],[-46.672577281411876,-23.590754170548795],[-46.672577281411876,-23.59081933119043],[-46.672577281411876,-23.590884491832067],[-46.67262340131574,-23.590949652473704],[-46.67262340131574,-23.591014813115336],[-46.67262340131574,-23.59114513439861],[-46.672669521219596,-23.591340616323517],[-46.67271564112345,-23.591796740814967],[-46.67276176102731,-23.591861901456603],[-46.67276176102731,-23.59192706209824],[-46.67276176102731,-23.591992222739876],[-46.67280788093117,-23.59238318658969],[-46.67280788093117,-23.59251350787296],[-46.672854000835024,-23.59270898979787],[-46.672854000835024,-23.59290447172278],[-46.672854000835024,-23.593034793006048],[-46.67290012073888,-23.593230274930956],[-46.67290012073888,-23.593295435572593],[-46.67290012073888,-23.59336059621423],[-46.67290012073888,-23.593556078139137],[-46.67294624064274,-23.593621238780774],[-46.67294624064274,-23.593751560064042],[-46.67294624064274,-23.59381672070568],[-46.67294624064274,-23.593881881347315],[-46.67294624064274,-23.594012202630587],[-46.67294624064274,-23.594077363272223],[-46.6729923605466,-23.594207684555496],[-46.6729923605466,-23.594272845197132],[-46.6729923605466,-23.594468327122037],[-46.67303848045046,-23.594663809046946],[-46.67303848045046,-23.594859290971854],[-46.67303848045046,-23.59492445161349],[-46.673084600354315,-23.595119933538395],[-46.673084600354315,-23.59518509418003],[-46.673084600354315,-23.595250254821668],[-46.67313072025817,-23.595250254821668],[-46.67313072025817,-23.595315415463304],[-46.67313072025817,-23.59538057610494],[-46.67317684016203,-23.595510897388213],[-46.67317684016203,-23.59557605802985],[-46.673222960065885,-23.595641218671485],[-46.673222960065885,-23.595706379313118],[-46.673222960065885,-23.595771539954754],[-46.67326907996974,-23.595771539954754],[-46.67326907996974,-23.59583670059639],[-46.67326907996974,-23.595901861238026],[-46.67326907996974,-23.595967021879662],[-46.6733151998736,-23.595967021879662],[-46.6733151998736,-23.5960321825213],[-46.67336131977746,-23.596097343162935],[-46.67336131977746,-23.59616250380457],[-46.67345355958518,-23.596292825087843],[-46.67345355958518,-23.596357985729476],[-46.673499679489034,-23.596423146371112],[-46.67354579939289,-23.596553467654385],[-46.67359191929675,-23.59661862829602],[-46.673638039200604,-23.596748949579293],[-46.67368415910446,-23.596879270862566],[-46.67377639891218,-23.59707475278747],[-46.673868638719895,-23.597335395354015],[-46.67391475862375,-23.59740055599565],[-46.67391475862375,-23.597465716637288],[-46.67396087852761,-23.597530877278924],[-46.67396087852761,-23.59759603792056],[-46.67396087852761,-23.597661198562196],[-46.67396087852761,-23.59772635920383],[-46.67396087852761,-23.597791519845465],[-46.67396087852761,-23.5978566804871],[-46.67396087852761,-23.597987001770374],[-46.67396087852761,-23.598117323053646],[-46.67396087852761,-23.598182483695282],[-46.67396087852761,-23.598312804978555],[-46.67391475862375,-23.598377965620188],[-46.67391475862375,-23.59850828690346],[-46.67391475862375,-23.598573447545096],[-46.67391475862375,-23.598964411394913],[-46.67391475862375,-23.59915989331982],[-46.67391475862375,-23.59929021460309],[-46.67391475862375,-23.599355375244727],[-46.67396087852761,-23.599485696528],[-46.67396087852761,-23.599550857169636],[-46.67396087852761,-23.599681178452908],[-46.67396087852761,-23.599876660377813],[-46.67396087852761,-23.600006981661085],[-46.67396087852761,-23.600202463585994],[-46.67396087852761,-23.600332784869266],[-46.674006998431466,-23.600463106152535],[-46.674006998431466,-23.600593427435808],[-46.67405311833532,-23.600788909360716],[-46.67405311833532,-23.60104955192726],[-46.67409923823919,-23.60137535513544],[-46.6741914780469,-23.601831479626888],[-46.67423759795076,-23.602026961551797],[-46.67423759795076,-23.602092122193433],[-46.674283717854614,-23.602222443476705],[-46.67437595766233,-23.602483086043247],[-46.674422077566184,-23.602548246684883],[-46.67446819747005,-23.60274372860979],[-46.674514317373905,-23.602874049893064],[-46.67456043727776,-23.603069531817972],[-46.674791036797046,-23.603655977592695],[-46.674929396508624,-23.60404694144251],[-46.674929396508624,-23.60417726272578],[-46.67497551641248,-23.60417726272578],[-46.67497551641248,-23.604242423367417],[-46.674929396508624,-23.604307584009053],[-46.67497551641248,-23.60437274465069],[-46.67497551641248,-23.604437905292322],[-46.67497551641248,-23.604503065933958],[-46.67502163631634,-23.604568226575594],[-46.675067756220194,-23.604698547858867],[-46.67511387612405,-23.604894029783775],[-46.67515999602791,-23.60495919042541],[-46.67515999602791,-23.605024351067048],[-46.67520611593177,-23.605024351067048],[-46.67525223583563,-23.605154672350317],[-46.67534447564334,-23.605219832991953],[-46.6753905955472,-23.60528499363359],[-46.67552895525877,-23.60561079684177],[-46.67566731497035,-23.605936600049947],[-46.675713434874204,-23.606197242616492],[-46.67580567468192,-23.606327563899764],[-46.675851794585775,-23.606457885183033],[-46.675944034393495,-23.606718527749578],[-46.67599015429735,-23.60684884903285],[-46.67599015429735,-23.606914009674487],[-46.67612851400892,-23.607174652241028],[-46.67617463391278,-23.6073049735243],[-46.67631299362436,-23.607695937374118],[-46.67640523343207,-23.60795657994066],[-46.67654359314364,-23.608217222507204],[-46.67654359314364,-23.60828238314884],[-46.67663583295136,-23.608477865073745],[-46.676728072759076,-23.608673346998653],[-46.676728072759076,-23.60873850764029],[-46.676866432470646,-23.609129471490103],[-46.677004792182224,-23.609585595981557],[-46.67709703198994,-23.609911399189734],[-46.677143151893794,-23.610041720473006],[-46.67718927179765,-23.61017204175628],[-46.677281511605365,-23.610432684322824],[-46.67732763150922,-23.610693326889365],[-46.67741987131694,-23.611019130097546],[-46.677512111124656,-23.611149451380815],[-46.67755823102851,-23.611279772664087],[-46.677696590740084,-23.61173589715554],[-46.67783495045166,-23.612061700363718],[-46.677927190259375,-23.612322342930263],[-46.67797331016323,-23.612517824855168],[-46.678065549970945,-23.612778467421712],[-46.678157789778666,-23.61297394934662],[-46.67820390968252,-23.613039109988257],[-46.67825002958638,-23.613169431271526],[-46.67829614949024,-23.6132997525548],[-46.67834226939409,-23.613364913196435],[-46.67838838929795,-23.61343007383807],[-46.67838838929795,-23.613495234479707],[-46.67843450920181,-23.613560395121343],[-46.67848062910567,-23.613560395121343],[-46.678572868913385,-23.613755877046252],[-46.67861898881724,-23.613821037687888],[-46.6786651087211,-23.61388619832952],[-46.67880346843267,-23.61408168025443],[-46.6789879480481,-23.614342322820974],[-46.679126307759674,-23.61453780474588],[-46.67926466747125,-23.614798447312424],[-46.67940302718282,-23.614993929237333],[-46.679495266990536,-23.615124250520605],[-46.67972586650983,-23.615384893087146],[-46.679910346125254,-23.615710696295327],[-46.68004870583683,-23.615906178220232],[-46.68009482574069,-23.61597133886187],[-46.68032542525998,-23.61629714207005],[-46.68050990487541,-23.61655778463659],[-46.68064826458698,-23.6167532665615],[-46.68069438449084,-23.616818427203135],[-46.68115558352942,-23.617470033619494],[-46.68129394324099,-23.617665515544402],[-46.68161678256799,-23.618121640035852],[-46.68189350199114,-23.61851260388567],[-46.681985741798854,-23.61864292516894],[-46.68217022141429,-23.618903567735483],[-46.68230858112586,-23.61909904966039],[-46.682354701029716,-23.619164210302028],[-46.68240082093357,-23.61922937094366],[-46.682493060741294,-23.619359692226933],[-46.68253918064515,-23.61942485286857],[-46.68272366026058,-23.619685495435114],[-46.682862019972156,-23.61988097736002],[-46.682862019972156,-23.619946138001655],[-46.68295425977987,-23.620076459284927],[-46.68304649958758,-23.6202067805682],[-46.68309261949144,-23.6202067805682],[-46.68323097920302,-23.62040226249311],[-46.68332321901073,-23.620597744418014],[-46.683553818530015,-23.620923547626195],[-46.68387665785702,-23.62144483275928],[-46.68392277776088,-23.621509993400917],[-46.68415337728017,-23.621835796609098],[-46.68429173699174,-23.622031278534003],[-46.68456845641489,-23.62242224238382],[-46.684614576318744,-23.622487403025456],[-46.68475293603032,-23.62268288495036],[-46.684983535549605,-23.623008688158542],[-46.68512189526118,-23.623269330725083],[-46.68535249478047,-23.623529973291628],[-46.68609041324219,-23.624637704199436],[-46.686413252569196,-23.625028668049254],[-46.68650549237692,-23.625224149974162],[-46.68664385208849,-23.625419631899067],[-46.6867360918962,-23.62554995318234],[-46.686920571511635,-23.625810595748884],[-46.687058931223206,-23.62600607767379],[-46.68710505112706,-23.62600607767379],[-46.687197290934776,-23.626201559598698],[-46.68724341083864,-23.626266720240334],[-46.68738177055021,-23.626201559598698],[-46.687474010357924,-23.626136398957062],[-46.68752013026178,-23.626136398957062],[-46.6876123700695,-23.626071238315426],[-46.687842969588786,-23.625940917032153],[-46.68788908949264,-23.62587575639052],[-46.687981329300364,-23.62587575639052],[-46.68807356910808,-23.62574543510725],[-46.688119689011934,-23.62574543510725],[-46.68816580891579,-23.62574543510725],[-46.68821192881965,-23.625680274465612],[-46.688350288531225,-23.625680274465612],[-46.68839640843508,-23.625680274465612],[-46.68839640843508,-23.625615113823976],[-46.68844252833894,-23.625615113823976],[-46.688488648242796,-23.625615113823976],[-46.68858088805051,-23.625615113823976],[-46.688627007954366,-23.625615113823976],[-46.68867312785822,-23.625615113823976],[-46.68894984728137,-23.625615113823976],[-46.68945716622381,-23.625680274465612],[-46.68978000555081,-23.625680274465612],[-46.690471804108675,-23.62574543510725],[-46.69084076333954,-23.62574543510725],[-46.69093300314726,-23.62574543510725],[-46.69107136285883,-23.62574543510725],[-46.6912097225704,-23.62574543510725],[-46.691348082281976,-23.62574543510725],[-46.69139420218583,-23.62574543510725],[-46.691532561897404,-23.625680274465612],[-46.69157868180126,-23.625680274465612],[-46.69162480170512,-23.625680274465612],[-46.69171704151284,-23.625680274465612],[-46.691763161416695,-23.625680274465612],[-46.69194764103212,-23.625615113823976],[-46.69227048035913,-23.625484792540703],[-46.69259331968613,-23.62535447125743],[-46.69263943958999,-23.62535447125743],[-46.69282391920542,-23.625289310615795],[-46.69300839882085,-23.625224149974162],[-46.69323899834014,-23.62509382869089],[-46.69370019737872,-23.624833186124345],[-46.69379243718643,-23.624833186124345],[-46.69393079689801,-23.62476802548271],[-46.694115276513436,-23.624637704199436],[-46.694391995936584,-23.624507382916168],[-46.69485319497516,-23.62431190099126],[-46.69499155468674,-23.624246740349623],[-46.69545275372531,-23.623986097783078],[-46.6960061925716,-23.623725455216537],[-46.696190672187036,-23.623595133933264],[-46.69651351151404,-23.62333449136672],[-46.6965596314179,-23.623269330725083],[-46.6965596314179,-23.62320417008345],[-46.696605751321755,-23.62320417008345],[-46.69679023093719,-23.623008688158542],[-46.697020830456474,-23.62268288495036],[-46.697251429975765,-23.62242224238382],[-46.69757426930277,-23.622031278534003],[-46.697804868822054,-23.621705475325825],[-46.69798934843749,-23.621509993400917],[-46.69821994795678,-23.621249350834372],[-46.69831218776449,-23.621119029551103],[-46.69849666737992,-23.62085838698456],[-46.69854278728378,-23.620793226342922],[-46.69858890718764,-23.620793226342922],[-46.6986350270915,-23.620793226342922],[-46.698681146995355,-23.620793226342922],[-46.698819506706926,-23.620728065701286],[-46.6989578664185,-23.62066290505965],[-46.69900398632236,-23.62066290505965],[-46.69905010622622,-23.62066290505965],[-46.699741904784084,-23.62040226249311],[-46.69992638439951,-23.620337101851472],[-46.700110864014945,-23.620337101851472],[-46.7001569839188,-23.620337101851472],[-46.70020310382266,-23.620337101851472],[-46.700249223726516,-23.620337101851472],[-46.70029534363037,-23.620337101851472],[-46.70029534363037,-23.62040226249311],[-46.70043370334195,-23.620337101851472],[-46.70075654266895,-23.620271941209836],[-46.70098714218824,-23.6202067805682],[-46.701171621803674,-23.620141619926564],[-46.70121774170753,-23.620141619926564],[-46.70126386161139,-23.620076459284927],[-46.7013561014191,-23.620076459284927],[-46.701448341226815,-23.620076459284927],[-46.70149446113067,-23.62001129864329]]]}}]}