{"type":"FeatureCollection","features":[{"type":"Feature","properties":{"DATA_ULT_A":"2009/10/09","DATA_CRIAC":"2009/10/09","id":14,"name":"Santo Amaro","area":37.5,"pop_2010":238025,"pop_density_2010":6347,"budget_2015":49492584},"geometry":{"type":"Polygon","coordinates":[[[-46.67654359314364,-23.60828238314884],[-46.67645135333593,-23.608412704432112],[-46.67645135333593,-23.608477865073745],[-46.67640523343207,-23.60854302571538],[-46.676359113528214,-23.608608186357017],[-46.67617463391278,-23.608868828923562],[-46.676082394105066,-23.60906431084847],[-46.67603627420121,-23.609129471490103],[-46.67599015429735,-23.609129471490103],[-46.67580567468192,-23.609390114056648],[-46.67548283535491,-23.609781077906465],[-46.67534447564334,-23.60997655983137],[-46.67511387612405,-23.61030236303955],[-46.67497551641248,-23.610497844964456],[-46.67483715670091,-23.610693326889365],[-46.67474491689319,-23.610758487531],[-46.674652677085476,-23.610888808814273],[-46.67460655718162,-23.61095396945591],[-46.67456043727776,-23.611019130097546],[-46.67437595766233,-23.611084290739182],[-46.67414535814304,-23.611279772664087],[-46.674006998431466,-23.61141009394736],[-46.673868638719895,-23.611475254588996],[-46.67377639891218,-23.611540415230632],[-46.67368415910446,-23.611605575872268],[-46.67359191929675,-23.611670736513904],[-46.673222960065885,-23.61186621843881],[-46.673084600354315,-23.611931379080445],[-46.67303848045046,-23.611931379080445],[-46.67253116150802,-23.612126861005354],[-46.672438921700305,-23.61219202164699],[-46.67225444208488,-23.612257182288626],[-46.67197772266173,-23.6123875035719],[-46.67156264352701,-23.612582985496804],[-46.671516523623154,-23.61264814613844],[-46.67128592410386,-23.612713306780076],[-46.67114756439229,-23.612778467421712],[-46.670870844969144,-23.612908788704985],[-46.67073248525757,-23.61297394934662],[-46.67068636535371,-23.613039109988257],[-46.670363526026705,-23.613169431271526],[-46.67031740612285,-23.613234591913162],[-46.67027128621899,-23.613234591913162],[-46.66990232698813,-23.613495234479707],[-46.66921052843026,-23.61408168025443],[-46.66907216871869,-23.614146840896066],[-46.668380370160826,-23.614733286670788],[-46.66833425025697,-23.614733286670788],[-46.66819589054539,-23.61486360795406],[-46.66810365073768,-23.614928768595696],[-46.66796529102611,-23.61505908987897],[-46.66782693131453,-23.615124250520605],[-46.667734691506816,-23.615189411162238],[-46.6676424516991,-23.615254571803874],[-46.66750409198753,-23.61531973244551],[-46.66741185217981,-23.615384893087146],[-46.66722737256438,-23.615450053728782],[-46.66713513275667,-23.61551521437042],[-46.66704289294895,-23.61551521437042],[-46.666950653141235,-23.615580375012055],[-46.66685841333352,-23.615580375012055],[-46.666720053621944,-23.61564553565369],[-46.66658169391037,-23.615710696295327],[-46.66648945410266,-23.615710696295327],[-46.66635109439108,-23.615710696295327],[-46.66625885458337,-23.615775856936963],[-46.6661204948718,-23.615775856936963],[-46.6655670560255,-23.615906178220232],[-46.6652442166985,-23.61597133886187],[-46.66501361717921,-23.616036499503505],[-46.66482913756378,-23.61610166014514],[-46.664736897756065,-23.61610166014514],[-46.66441405842906,-23.616166820786777],[-46.66427569871749,-23.616166820786777],[-46.664091219102055,-23.616231981428413],[-46.66381449967891,-23.616362302711686],[-46.663676139967336,-23.61642746335332],[-46.66363002006348,-23.61642746335332],[-46.66339942054419,-23.61655778463659],[-46.66279986179404,-23.616818427203135],[-46.66261538217861,-23.616948748486408],[-46.662523142370894,-23.617013909128044],[-46.66243090256318,-23.617013909128044],[-46.6622925428516,-23.61707906976968],[-46.66220030304389,-23.617144230411316],[-46.66206194333232,-23.61720939105295],[-46.66201582342846,-23.61720939105295],[-46.661877463716884,-23.617274551694585],[-46.6619697035246,-23.617404872977858],[-46.66206194333232,-23.61753519426113],[-46.6619697035246,-23.617600354902766],[-46.66183134381303,-23.617665515544402],[-46.66113954525516,-23.61799131875258],[-46.661093425351304,-23.61799131875258],[-46.661093425351304,-23.618056479394216],[-46.66086282583201,-23.618121640035852],[-46.660816705928156,-23.618121640035852],[-46.66021714717801,-23.618382282602397],[-46.66007878746643,-23.61851260388567],[-46.65998654765872,-23.61851260388567],[-46.65961758842786,-23.618708085810574],[-46.65952534862014,-23.61877324645221],[-46.659479228716286,-23.61877324645221],[-46.65920250929314,-23.618903567735483],[-46.65864907044684,-23.619164210302028],[-46.657957271888975,-23.619490013510205],[-46.6574960728504,-23.61975065607675],[-46.65712711361954,-23.61988097736002],[-46.656896514100254,-23.62001129864329],[-46.65671203448482,-23.620141619926564],[-46.65657367477325,-23.6202067805682],[-46.656389195157814,-23.620337101851472],[-46.656250835446244,-23.62040226249311],[-46.65602023592695,-23.62053258377638],[-46.65588187621538,-23.62066290505965],[-46.65569739659995,-23.620793226342922],[-46.65542067717681,-23.62098870826783],[-46.65514395775366,-23.621119029551103],[-46.6550978378498,-23.621119029551103],[-46.6550978378498,-23.62118419019274],[-46.65514395775366,-23.62118419019274],[-46.655190077657515,-23.621249350834372],[-46.65528231746523,-23.621314511476008],[-46.655328437369086,-23.621379672117644],[-46.655328437369086,-23.62144483275928],[-46.6550978378498,-23.62177063596746],[-46.65500559804208,-23.622031278534003],[-46.65486723833051,-23.62222676045891],[-46.65482111842665,-23.622357081742184],[-46.6547749985228,-23.622357081742184],[-46.65459051890736,-23.62268288495036],[-46.65449827909965,-23.62287836687527],[-46.654406039291935,-23.622943527516906],[-46.65435991938808,-23.62307384880018],[-46.654313799484214,-23.623139009441815],[-46.6542215596765,-23.62333449136672],[-46.654175439772644,-23.62333449136672],[-46.65403708006107,-23.623595133933264],[-46.65343752131092,-23.624572543557804],[-46.65329916159935,-23.624833186124345],[-46.65325304169549,-23.62489834676598],[-46.65316080188777,-23.625028668049254],[-46.653114681983915,-23.625158989332526],[-46.65306856208006,-23.625224149974162],[-46.65293020236849,-23.625484792540703],[-46.65223840381062,-23.627178969223237],[-46.65186944457976,-23.627960896922865],[-46.651777204772046,-23.628091218206137],[-46.65173108486818,-23.62822153948941],[-46.65163884506047,-23.628351860772682],[-46.65080868679103,-23.62945959168049],[-46.65080868679103,-23.629524752322126],[-46.650762566887174,-23.629524752322126],[-46.65071644698332,-23.629589912963763],[-46.65067032707946,-23.629589912963763],[-46.650624207175596,-23.629589912963763],[-46.650624207175596,-23.6296550736054],[-46.6497479290023,-23.629850555530307],[-46.64836433188657,-23.63024151938012],[-46.64831821198271,-23.63024151938012],[-46.648272092078855,-23.630306680021757],[-46.64817985227114,-23.630306680021757],[-46.64794925275185,-23.630306680021757],[-46.64790313284799,-23.630306680021757],[-46.64785701294414,-23.630306680021757],[-46.64781089304028,-23.630306680021757],[-46.64781089304028,-23.630371840663393],[-46.64776477313642,-23.630502161946666],[-46.64781089304028,-23.630502161946666],[-46.64794925275185,-23.630632483229938],[-46.648133732367285,-23.63069764387157],[-46.648225972175,-23.630762804513207],[-46.64836433188657,-23.630827965154843],[-46.648502691598146,-23.630958286438116],[-46.64859493140586,-23.63102344707975],[-46.64864105130972,-23.63102344707975],[-46.648687171213574,-23.63102344707975],[-46.64873329111743,-23.631088607721388],[-46.64901001054058,-23.63121892900466],[-46.64924061005987,-23.63134925028793],[-46.649471209579154,-23.631544732212838],[-46.6497479290023,-23.63167505349611],[-46.650116888233164,-23.63187053542102],[-46.650255247944735,-23.633434390820277],[-46.64951732948301,-23.634476961086452],[-46.64956344938687,-23.63454212172809],[-46.6497479290023,-23.63467244301136],[-46.649840168810016,-23.63467244301136],[-46.649701809098445,-23.634933085577902],[-46.64960956929073,-23.63512856750281],[-46.6494250896753,-23.635389210069352],[-46.64937896977144,-23.63545437071099],[-46.64924061005987,-23.635715013277533],[-46.64993240861773,-23.635845334560805],[-46.65002464842545,-23.635845334560805],[-46.65020912804088,-23.63591049520244],[-46.650347487752455,-23.635975655844078],[-46.65039360765631,-23.635975655844078],[-46.65043972756017,-23.635975655844078],[-46.65043972756017,-23.63604081648571],[-46.65039360765631,-23.63636661969389],[-46.650347487752455,-23.636627262260436],[-46.650347487752455,-23.636692422902073],[-46.650255247944735,-23.636757583543705],[-46.650255247944735,-23.63682274418534],[-46.6503013678486,-23.636887904826978],[-46.65039360765631,-23.63701822611025],[-46.65043972756017,-23.637148547393522],[-46.65053196736788,-23.63734402931843],[-46.650762566887174,-23.63780015380988],[-46.65085480669489,-23.638060796376422],[-46.65099316640646,-23.638321438942967],[-46.651131526118036,-23.638647242151148],[-46.651269885829606,-23.638842724076053],[-46.651269885829606,-23.63890788471769],[-46.65131600573346,-23.63890788471769],[-46.65131600573346,-23.638973045359325],[-46.65136212563732,-23.638973045359325],[-46.65136212563732,-23.63903820600096],[-46.65145436544504,-23.639103366642598],[-46.65163884506047,-23.639298848567506],[-46.65163884506047,-23.639364009209142],[-46.651777204772046,-23.63949433049241],[-46.65186944457976,-23.63968981241732],[-46.651915564483616,-23.63968981241732],[-46.65260736304148,-23.639754973058956],[-46.65293020236849,-23.639820133700592],[-46.65329916159935,-23.63988529434223],[-46.65348364121478,-23.640080776267133],[-46.65366812083021,-23.64014593690877],[-46.65380648054178,-23.640276258192042],[-46.65394484025335,-23.64034141883368],[-46.65408319996493,-23.640406579475314],[-46.65412931986879,-23.64047174011695],[-46.654406039291935,-23.640602061400223],[-46.654544399003505,-23.64066722204186],[-46.65463663881122,-23.640732382683492],[-46.65482111842665,-23.640732382683492],[-46.655190077657515,-23.640732382683492],[-46.65537455727294,-23.640732382683492],[-46.65551291698452,-23.640797543325128],[-46.65569739659995,-23.640797543325128],[-46.65592799611924,-23.640797543325128],[-46.656112475734666,-23.640797543325128],[-46.6562969553501,-23.640797543325128],[-46.656389195157814,-23.640797543325128],[-46.65648143496553,-23.640797543325128],[-46.65657367477325,-23.640862703966764],[-46.65666591458096,-23.640862703966764],[-46.656758154388676,-23.6409278646084],[-46.65680427429253,-23.640993025250037],[-46.656896514100254,-23.640993025250037],[-46.65694263400411,-23.641058185891673],[-46.657034873811824,-23.64112334653331],[-46.65712711361954,-23.641188507174945],[-46.657173233523395,-23.641318828458218],[-46.65721935342725,-23.641318828458218],[-46.65731159323497,-23.641449149741486],[-46.657403833042686,-23.641514310383123],[-46.65744995294654,-23.64157947102476],[-46.6574960728504,-23.641644631666395],[-46.657542192754256,-23.64170979230803],[-46.65763443256198,-23.641774952949667],[-46.65772667236969,-23.641840113591304],[-46.657818912177405,-23.64190527423294],[-46.65791115198512,-23.641970434874576],[-46.65800339179284,-23.642100756157845],[-46.65809563160055,-23.64216591679948],[-46.658187871408266,-23.642231077441117],[-46.65828011121598,-23.64236139872439],[-46.6583723510237,-23.642426559366026],[-46.65841847092756,-23.642491720007662],[-46.658464590831414,-23.6425568806493],[-46.65851071073527,-23.642622041290934],[-46.658602950542985,-23.64268720193257],[-46.65864907044684,-23.642752362574203],[-46.6586951903507,-23.64281752321584],[-46.65874131025456,-23.64281752321584],[-46.65878743015842,-23.642882683857476],[-46.658833550062276,-23.642882683857476],[-46.65887966996613,-23.642882683857476],[-46.65892578986999,-23.642882683857476],[-46.65897190977385,-23.642752362574203],[-46.65897190977385,-23.64268720193257],[-46.65906414958156,-23.6425568806493],[-46.65915638938928,-23.642491720007662],[-46.65920250929314,-23.64236139872439],[-46.659248629196995,-23.64236139872439],[-46.65929474910085,-23.642296238082753],[-46.659386988908565,-23.64216591679948],[-46.659479228716286,-23.642035595516212],[-46.659571468524,-23.641840113591304],[-46.659571468524,-23.641774952949667],[-46.65961758842786,-23.64170979230803],[-46.65975594813943,-23.64157947102476],[-46.65984818794715,-23.641449149741486],[-46.65994042775486,-23.64125366781658],[-46.660032667562575,-23.64112334653331],[-46.66007878746643,-23.641058185891673],[-46.660171027274146,-23.640862703966764],[-46.660171027274146,-23.640797543325128],[-46.660171027274146,-23.640732382683492],[-46.66021714717801,-23.640536900758587],[-46.660263267081866,-23.64034141883368],[-46.66030938698572,-23.640080776267133],[-46.66030938698572,-23.639950454983865],[-46.66030938698572,-23.63988529434223],[-46.66030938698572,-23.639820133700592],[-46.66035550688958,-23.63968981241732],[-46.66040162679344,-23.639624651775684],[-46.660447746697294,-23.639624651775684],[-46.660447746697294,-23.639559491134047],[-46.66049386660115,-23.639559491134047],[-46.66049386660115,-23.63949433049241],[-46.66063222631273,-23.639429169850775],[-46.660816705928156,-23.63923368792587],[-46.66100118554359,-23.63903820600096],[-46.66104730544745,-23.63903820600096],[-46.66118566515902,-23.638973045359325],[-46.661231785062874,-23.63890788471769],[-46.66127790496674,-23.63890788471769],[-46.66155462438988,-23.638712402792784],[-46.66169298410146,-23.638647242151148],[-46.66173910400531,-23.638647242151148],[-46.66178522390917,-23.638647242151148],[-46.66183134381303,-23.63858208150951],[-46.661877463716884,-23.63858208150951],[-46.66192358362074,-23.63858208150951],[-46.66201582342846,-23.638516920867875],[-46.66215418314003,-23.638386599584603],[-46.6622925428516,-23.638321438942967],[-46.66243090256318,-23.63825627830133],[-46.662523142370894,-23.638191117659694],[-46.66256926227475,-23.63825627830133],[-46.66270762198632,-23.638386599584603],[-46.66270762198632,-23.63845176022624],[-46.662753741890185,-23.63845176022624],[-46.6628459816979,-23.63858208150951],[-46.66298434140947,-23.638647242151148],[-46.663168821024904,-23.63890788471769],[-46.66335330064033,-23.63903820600096],[-46.663537780255766,-23.639298848567506],[-46.663676139967336,-23.639429169850775],[-46.66386061958277,-23.639624651775684],[-46.664091219102055,-23.63988529434223],[-46.66413733900591,-23.63988529434223],[-46.66413733900591,-23.639950454983865],[-46.66418345890977,-23.639950454983865],[-46.66427569871749,-23.640080776267133],[-46.664321818621346,-23.64014593690877],[-46.6643679385252,-23.64014593690877],[-46.66441405842906,-23.640211097550406],[-46.66446017833292,-23.640276258192042],[-46.664598538044494,-23.640406579475314],[-46.66469077785221,-23.64047174011695],[-46.66492137737149,-23.64066722204186],[-46.66501361717921,-23.640732382683492],[-46.66515197689078,-23.640862703966764],[-46.6652442166985,-23.6409278646084],[-46.665382576410074,-23.641058185891673],[-46.66547481621779,-23.64112334653331],[-46.665520936121645,-23.641188507174945],[-46.66565929583322,-23.64125366781658],[-46.665751535640936,-23.641318828458218],[-46.66588989535251,-23.641449149741486],[-46.66598213516022,-23.64157947102476],[-46.66607437496794,-23.64157947102476],[-46.666166614775655,-23.64170979230803],[-46.66625885458337,-23.641774952949667],[-46.666304974487225,-23.641840113591304],[-46.66635109439108,-23.641840113591304],[-46.666397214294946,-23.64190527423294],[-46.666397214294946,-23.641970434874576],[-46.66648945410266,-23.642035595516212],[-46.66653557400652,-23.642035595516212],[-46.66667393371809,-23.642100756157845],[-46.666950653141235,-23.64216591679948],[-46.66718125266053,-23.642231077441117],[-46.66727349246824,-23.642231077441117],[-46.66755021189139,-23.642296238082753],[-46.66778081141067,-23.64236139872439],[-46.66791917112225,-23.642426559366026],[-46.668011410929964,-23.642491720007662],[-46.66796529102611,-23.642622041290934],[-46.66791917112225,-23.64281752321584],[-46.66787305121839,-23.642947844499112],[-46.66782693131453,-23.643013005140748],[-46.66787305121839,-23.643013005140748],[-46.66787305121839,-23.643078165782384],[-46.66819589054539,-23.64314332642402],[-46.66856484977625,-23.643208487065657],[-46.66874932939169,-23.643273647707293],[-46.668933809007115,-23.643273647707293],[-46.669164408526406,-23.64333880834893],[-46.6693950080457,-23.643403968990565],[-46.669579487661125,-23.643403968990565],[-46.669948446891986,-23.643469129632198],[-46.66999456679584,-23.643534290273834],[-46.6700406866997,-23.643534290273834],[-46.67013292650742,-23.643534290273834],[-46.67017904641128,-23.64359945091547],[-46.670225166315134,-23.64359945091547],[-46.67027128621899,-23.64359945091547],[-46.67031740612285,-23.643664611557107],[-46.670363526026705,-23.643664611557107],[-46.67040964593056,-23.643729772198743],[-46.670455765834426,-23.643729772198743],[-46.67054800564214,-23.64379493284038],[-46.67064024544985,-23.643860093482015],[-46.67068636535371,-23.64392525412365],[-46.67077860516143,-23.643990414765288],[-46.67082472506529,-23.644055575406924],[-46.670870844969144,-23.644055575406924],[-46.670916964873,-23.644120736048556],[-46.67096308477686,-23.644120736048556],[-46.671009204680715,-23.644185896690193],[-46.671009204680715,-23.64425105733183],[-46.67105532458457,-23.64425105733183],[-46.67110144448843,-23.644316217973465],[-46.67110144448843,-23.644446539256737],[-46.67114756439229,-23.644511699898374],[-46.67119368429615,-23.64457686054001],[-46.67119368429615,-23.644642021181646],[-46.67128592410386,-23.644642021181646],[-46.67142428381543,-23.644707181823282],[-46.67156264352701,-23.644707181823282],[-46.671654883334725,-23.644772342464915],[-46.67183936295015,-23.644772342464915],[-46.67193160275787,-23.64483750310655],[-46.67202384256559,-23.64483750310655],[-46.67206996246944,-23.64483750310655],[-46.672208322181014,-23.644707181823282],[-46.67239280179645,-23.644446539256737],[-46.672669521219596,-23.644185896690193],[-46.676082394105066,-23.648551659679796],[-46.67612851400892,-23.648616820321433],[-46.67622075381664,-23.648747141604705],[-46.67640523343207,-23.648877462887974],[-46.67732763150922,-23.64992003315415],[-46.67801943006709,-23.650767121495416],[-46.67944914708668,-23.652526458819583],[-46.68004870583683,-23.65304774395267],[-46.68009482574069,-23.653112904594305],[-46.68009482574069,-23.65317806523594],[-46.680140945644546,-23.653243225877578],[-46.680140945644546,-23.653308386519214],[-46.680140945644546,-23.65337354716085],[-46.680140945644546,-23.653438707802486],[-46.680140945644546,-23.65350386844412],[-46.680140945644546,-23.65363418972739],[-46.680140945644546,-23.653699350369028],[-46.680140945644546,-23.6538296716523],[-46.680140945644546,-23.65402515357721],[-46.680140945644546,-23.654090314218845],[-46.68009482574069,-23.65415547486048],[-46.68009482574069,-23.654350956785386],[-46.68009482574069,-23.65448127806866],[-46.68009482574069,-23.654546438710295],[-46.68004870583683,-23.65480708127684],[-46.68004870583683,-23.654872241918472],[-46.68004870583683,-23.655002563201744],[-46.68004870583683,-23.65526320576829],[-46.680002585932975,-23.65552384833483],[-46.680002585932975,-23.655784490901375],[-46.680002585932975,-23.655979972826284],[-46.67995646602912,-23.656175454751192],[-46.67995646602912,-23.656370936676097],[-46.67995646602912,-23.656436097317734],[-46.67995646602912,-23.65650125795937],[-46.67995646602912,-23.65669673988428],[-46.67995646602912,-23.656761900525915],[-46.679910346125254,-23.65695738245082],[-46.679910346125254,-23.657087703734092],[-46.679910346125254,-23.65715286437573],[-46.679910346125254,-23.657348346300637],[-46.6798642262214,-23.657674149508814],[-46.6798642262214,-23.657804470792087],[-46.6798642262214,-23.65793479207536],[-46.6798642262214,-23.658195434641904],[-46.67981810631754,-23.65871671977499],[-46.67981810631754,-23.658781880416626],[-46.679771986413684,-23.659107683624804],[-46.679771986413684,-23.65949864747462],[-46.67972586650983,-23.660085093249343],[-46.67972586650983,-23.660345735815884],[-46.67967974660597,-23.660671539024065],[-46.67967974660597,-23.660932181590606],[-46.67963362670211,-23.66106250287388],[-46.679587506798256,-23.661453466723696],[-46.67954138689439,-23.6616489486486],[-46.679495266990536,-23.66184443057351],[-46.67944914708668,-23.662039912498418],[-46.679356907278965,-23.66230055506496],[-46.679218547567395,-23.662691518914777],[-46.67908018785582,-23.663147643406226],[-46.67889570824039,-23.66373408918095],[-46.67880346843267,-23.66405989238913],[-46.67875734852881,-23.66425537431404],[-46.6786651087211,-23.664450856238943],[-46.67861898881724,-23.664711498805488],[-46.678572868913385,-23.66484182008876],[-46.67852674900953,-23.665037302013666],[-46.67848062910567,-23.6651024626553],[-46.67848062910567,-23.665167623296938],[-46.67843450920181,-23.665167623296938],[-46.67838838929795,-23.665363105221846],[-46.67801943006709,-23.665558587146755],[-46.67788107035552,-23.665623747788388],[-46.67774271064395,-23.665688908430024],[-46.67765047083623,-23.66575406907166],[-46.67755823102851,-23.665819229713296],[-46.677281511605365,-23.66594955099657],[-46.677143151893794,-23.666014711638205],[-46.677004792182224,-23.66607987227984],[-46.676866432470646,-23.666145032921477],[-46.676728072759076,-23.66627535420475],[-46.67663583295136,-23.66627535420475],[-46.67654359314364,-23.666340514846382],[-46.67640523343207,-23.66640567548802],[-46.67631299362436,-23.666470836129655],[-46.67617463391278,-23.66653599677129],[-46.67612851400892,-23.666601157412927],[-46.67603627420121,-23.666666318054563],[-46.675944034393495,-23.666666318054563],[-46.67580567468192,-23.666796639337836],[-46.67562119506649,-23.666861799979472],[-46.675436715451056,-23.66699212126274],[-46.67525223583563,-23.667122442546013],[-46.67515999602791,-23.66718760318765],[-46.67502163631634,-23.667252763829286],[-46.67497551641248,-23.667252763829286],[-46.674929396508624,-23.667252763829286],[-46.67488327660477,-23.667252763829286],[-46.67483715670091,-23.667252763829286],[-46.67469879698933,-23.66731792447092],[-46.674652677085476,-23.66731792447092],[-46.67460655718162,-23.66731792447092],[-46.674514317373905,-23.66731792447092],[-46.67446819747005,-23.66731792447092],[-46.67446819747005,-23.667383085112558],[-46.674422077566184,-23.667383085112558],[-46.67437595766233,-23.667383085112558],[-46.67432983775847,-23.667448245754194],[-46.674283717854614,-23.667448245754194],[-46.67423759795076,-23.667448245754194],[-46.6741914780469,-23.66751340639583],[-46.67405311833532,-23.667578567037467],[-46.67396087852761,-23.6676437276791],[-46.673868638719895,-23.667708888320735],[-46.67382251881604,-23.667708888320735],[-46.67382251881604,-23.66777404896237],[-46.67377639891218,-23.66777404896237],[-46.67377639891218,-23.667839209604008],[-46.673730279008325,-23.667904370245644],[-46.673730279008325,-23.66796953088728],[-46.67368415910446,-23.668034691528916],[-46.67368415910446,-23.66816501281219],[-46.67368415910446,-23.668230173453825],[-46.67368415910446,-23.66829533409546],[-46.673638039200604,-23.668360494737094],[-46.67359191929675,-23.66842565537873],[-46.67354579939289,-23.668490816020366],[-46.673499679489034,-23.668555976662002],[-46.67345355958518,-23.668555976662002],[-46.67336131977746,-23.66862113730364],[-46.6733151998736,-23.66862113730364],[-46.673222960065885,-23.668686297945275],[-46.6729923605466,-23.668816619228547],[-46.67280788093117,-23.668881779870183],[-46.67253116150802,-23.669012101153452],[-46.67248504160416,-23.66907726179509],[-46.67234668189259,-23.669142422436725],[-46.672208322181014,-23.66920758307836],[-46.6721160823733,-23.669272743719997],[-46.67202384256559,-23.669272743719997],[-46.67197772266173,-23.669337904361633],[-46.67183936295015,-23.669337904361633],[-46.671654883334725,-23.66940306500327],[-46.671516523623154,-23.66940306500327],[-46.671239804200006,-23.669468225644906],[-46.67096308477686,-23.669533386286542],[-46.67064024544985,-23.66966370756981],[-46.670594125545996,-23.66966370756981],[-46.67054800564214,-23.66966370756981],[-46.67050188573828,-23.66966370756981],[-46.67050188573828,-23.669728868211447],[-46.670455765834426,-23.669728868211447],[-46.670363526026705,-23.669794028853083],[-46.67031740612285,-23.66985918949472],[-46.67027128621899,-23.66998951077799],[-46.670225166315134,-23.670054671419628],[-46.67013292650742,-23.670119832061264],[-46.670086806603564,-23.670250153344536],[-46.66999456679584,-23.67031531398617],[-46.669948446891986,-23.67031531398617],[-46.66990232698813,-23.670380474627805],[-46.669810087180416,-23.67044563526944],[-46.66976396727656,-23.670510795911078],[-46.6697178473727,-23.670575956552714],[-46.66962560756498,-23.67064111719435],[-46.66953336775727,-23.670706277835986],[-46.669441127949554,-23.670771438477622],[-46.66934888814184,-23.67083659911926],[-46.669302768237976,-23.670901759760895],[-46.66925664833412,-23.67096692040253],[-46.669026048814835,-23.6710972416858],[-46.6688415691994,-23.671227562969072],[-46.668657089583974,-23.671357884252345],[-46.66842649006468,-23.671488205535617],[-46.668380370160826,-23.671553366177253],[-46.668518729872396,-23.671683687460522],[-46.66856484977625,-23.67174884810216],[-46.668657089583974,-23.671814008743794],[-46.66870320948783,-23.67187916938543],[-46.668795449295544,-23.67187916938543],[-46.6688415691994,-23.671944330027067],[-46.66888768910326,-23.671944330027067],[-46.668933809007115,-23.672009490668703],[-46.66897992891098,-23.672009490668703],[-46.66907216871869,-23.672009490668703],[-46.66911828862255,-23.672009490668703],[-46.669302768237976,-23.67207465131034],[-46.669441127949554,-23.67207465131034],[-46.66967172746884,-23.672139811951975],[-46.669810087180416,-23.672139811951975],[-46.670086806603564,-23.67220497259361],[-46.67027128621899,-23.67220497259361],[-46.67031740612285,-23.672270133235248],[-46.670363526026705,-23.672270133235248],[-46.67040964593056,-23.672270133235248],[-46.670455765834426,-23.67233529387688],[-46.670455765834426,-23.672400454518517],[-46.67050188573828,-23.672400454518517],[-46.67054800564214,-23.672465615160153],[-46.67054800564214,-23.67253077580179],[-46.67054800564214,-23.672595936443425],[-46.67054800564214,-23.67266109708506],[-46.67050188573828,-23.67266109708506],[-46.67050188573828,-23.672726257726698],[-46.670455765834426,-23.672791418368334],[-46.67040964593056,-23.67285657900997],[-46.670363526026705,-23.67285657900997],[-46.67031740612285,-23.672921739651606],[-46.67027128621899,-23.673052060934875],[-46.67017904641128,-23.673182382218148],[-46.6700406866997,-23.67331270350142],[-46.66999456679584,-23.673443024784692],[-46.66990232698813,-23.67350818542633],[-46.66985620708427,-23.673573346067965],[-46.66985620708427,-23.6736385067096],[-46.66985620708427,-23.673703667351234],[-46.669810087180416,-23.67376882799287],[-46.669810087180416,-23.673899149276142],[-46.66990232698813,-23.67409463120105],[-46.66999456679584,-23.674420434409228],[-46.6700406866997,-23.674615916334137],[-46.670086806603564,-23.67487655890068],[-46.67013292650742,-23.675137201467223],[-46.67027128621899,-23.675658486600312],[-46.670363526026705,-23.67598428980849],[-46.67040964593056,-23.676049450450126],[-46.670455765834426,-23.676244932375035],[-46.670455765834426,-23.676375253658303],[-46.670455765834426,-23.67644041429994],[-46.67050188573828,-23.676570735583212],[-46.67054800564214,-23.676701056866484],[-46.67054800564214,-23.676831378149757],[-46.670594125545996,-23.676896538791393],[-46.67068636535371,-23.677287502641207],[-46.67073248525757,-23.677482984566115],[-46.67073248525757,-23.67754814520775],[-46.67073248525757,-23.677613305849388],[-46.67073248525757,-23.67787394841593],[-46.67073248525757,-23.678134590982474],[-46.67073248525757,-23.678330072907382],[-46.67077860516143,-23.678590715473923],[-46.67077860516143,-23.67865587611556],[-46.67082472506529,-23.679046839965373],[-46.67082472506529,-23.679177161248646],[-46.67082472506529,-23.679242321890282],[-46.67082472506529,-23.679372643173554],[-46.67082472506529,-23.67943780381519],[-46.67082472506529,-23.679568125098463],[-46.67077860516143,-23.679828767665004],[-46.67077860516143,-23.67989392830664],[-46.67077860516143,-23.680024249589913],[-46.67077860516143,-23.68008941023155],[-46.67073248525757,-23.680154570873185],[-46.67073248525757,-23.68021973151482],[-46.67068636535371,-23.680284892156457],[-46.67068636535371,-23.680350052798094],[-46.67064024544985,-23.680350052798094],[-46.670594125545996,-23.680350052798094],[-46.67054800564214,-23.680350052798094],[-46.67050188573828,-23.680350052798094],[-46.67054800564214,-23.680480374081363],[-46.67031740612285,-23.680545534723],[-46.6700406866997,-23.68067585600627],[-46.669948446891986,-23.68067585600627],[-46.66990232698813,-23.680741016647907],[-46.66990232698813,-23.680806177289544],[-46.66990232698813,-23.680936498572816],[-46.66990232698813,-23.681066819856085],[-46.66990232698813,-23.68113198049772],[-46.66990232698813,-23.681262301780993],[-46.66990232698813,-23.68132746242263],[-46.66990232698813,-23.681392623064266],[-46.669948446891986,-23.681522944347538],[-46.669948446891986,-23.681588104989174],[-46.66999456679584,-23.681718426272447],[-46.66999456679584,-23.68191390819735],[-46.6700406866997,-23.681979068838988],[-46.670086806603564,-23.68210939012226],[-46.670086806603564,-23.682174550763897],[-46.67013292650742,-23.682239711405533],[-46.67013292650742,-23.68230487204717],[-46.670225166315134,-23.682435193330438],[-46.67027128621899,-23.68256551461371],[-46.67031740612285,-23.682695835896983],[-46.67031740612285,-23.68276099653862],[-46.670363526026705,-23.68276099653862],[-46.670363526026705,-23.682826157180255],[-46.670363526026705,-23.68289131782189],[-46.670363526026705,-23.683086799746796],[-46.670363526026705,-23.683151960388432],[-46.670363526026705,-23.68321712103007],[-46.67031740612285,-23.68334744231334],[-46.67031740612285,-23.683477763596613],[-46.67027128621899,-23.683608084879886],[-46.670225166315134,-23.683738406163158],[-46.670225166315134,-23.68380356680479],[-46.67017904641128,-23.683933888088063],[-46.67017904641128,-23.684064209371336],[-46.67013292650742,-23.684064209371336],[-46.67013292650742,-23.684194530654608],[-46.67013292650742,-23.684259691296244],[-46.67013292650742,-23.68432485193788],[-46.67013292650742,-23.684390012579517],[-46.670086806603564,-23.68445517322115],[-46.67013292650742,-23.684520333862785],[-46.67013292650742,-23.68458549450442],[-46.67017904641128,-23.684715815787694],[-46.670225166315134,-23.684846137070966],[-46.67027128621899,-23.684911297712603],[-46.67040964593056,-23.68523710092078],[-46.67054800564214,-23.68556290412896],[-46.670594125545996,-23.68575838605387],[-46.670594125545996,-23.685823546695502],[-46.670594125545996,-23.68601902862041],[-46.670594125545996,-23.686344831828592],[-46.670594125545996,-23.686735795678405],[-46.670594125545996,-23.686931277603314],[-46.67064024544985,-23.687191920169855],[-46.67064024544985,-23.68725708081149],[-46.67064024544985,-23.687322241453128],[-46.67068636535371,-23.687387402094764],[-46.67054800564214,-23.687387402094764],[-46.67040964593056,-23.6874525627364],[-46.67031740612285,-23.6874525627364],[-46.670225166315134,-23.6874525627364],[-46.66999456679584,-23.6874525627364],[-46.669948446891986,-23.6874525627364],[-46.669948446891986,-23.687517723378036],[-46.66999456679584,-23.687517723378036],[-46.6700406866997,-23.68764804466131],[-46.6700406866997,-23.687713205302945],[-46.670086806603564,-23.68777836594458],[-46.670086806603564,-23.687843526586214],[-46.67013292650742,-23.68790868722785],[-46.67017904641128,-23.687973847869486],[-46.670225166315134,-23.68810416915276],[-46.670225166315134,-23.688169329794395],[-46.67027128621899,-23.688169329794395],[-46.67031740612285,-23.68823449043603],[-46.670363526026705,-23.688299651077667],[-46.670363526026705,-23.688364811719303],[-46.67040964593056,-23.68842997236094],[-46.67040964593056,-23.688495133002572],[-46.670455765834426,-23.688495133002572],[-46.670455765834426,-23.68856029364421],[-46.67050188573828,-23.68856029364421],[-46.67050188573828,-23.688625454285845],[-46.67054800564214,-23.688625454285845],[-46.670594125545996,-23.68869061492748],[-46.67064024544985,-23.688755775569117],[-46.67064024544985,-23.688820936210753],[-46.67068636535371,-23.688820936210753],[-46.67068636535371,-23.68888609685239],[-46.67073248525757,-23.688951257494026],[-46.67077860516143,-23.68901641813566],[-46.67082472506529,-23.689081578777298],[-46.670870844969144,-23.68914673941893],[-46.670916964873,-23.689211900060567],[-46.67096308477686,-23.689277060702203],[-46.67105532458457,-23.689407381985475],[-46.67110144448843,-23.68947254262711],[-46.67114756439229,-23.689537703268748],[-46.67114756439229,-23.689602863910384],[-46.67119368429615,-23.68966802455202],[-46.67128592410386,-23.689733185193656],[-46.67133204400772,-23.689798345835293],[-46.67137816391158,-23.689863506476925],[-46.67142428381543,-23.68992866711856],[-46.67147040371929,-23.68992866711856],[-46.671516523623154,-23.689993827760198],[-46.671516523623154,-23.690058988401834],[-46.67156264352701,-23.69012414904347],[-46.67160876343087,-23.69012414904347],[-46.671654883334725,-23.690189309685106],[-46.67170100323858,-23.690254470326742],[-46.67174712314244,-23.69031963096838],[-46.671793243046295,-23.69031963096838],[-46.67183936295015,-23.690384791610015],[-46.671885482854016,-23.69044995225165],[-46.67197772266173,-23.690515112893284],[-46.67202384256559,-23.690515112893284],[-46.67206996246944,-23.69058027353492],[-46.67216220227716,-23.690645434176556],[-46.672208322181014,-23.690710594818192],[-46.67225444208488,-23.690710594818192],[-46.672300561988735,-23.69077575545983],[-46.67234668189259,-23.69077575545983],[-46.672438921700305,-23.690840916101465],[-46.67248504160416,-23.690840916101465],[-46.67253116150802,-23.690840916101465],[-46.67262340131574,-23.6909060767431],[-46.672669521219596,-23.6909060767431],[-46.67276176102731,-23.6909060767431],[-46.67280788093117,-23.6909060767431],[-46.67290012073888,-23.6909060767431],[-46.6729923605466,-23.690971237384737],[-46.673084600354315,-23.690971237384737],[-46.67313072025817,-23.691036398026373],[-46.67317684016203,-23.691036398026373],[-46.67317684016203,-23.69110155866801],[-46.673222960065885,-23.69110155866801],[-46.67326907996974,-23.691166719309642],[-46.67336131977746,-23.691166719309642],[-46.67340743968132,-23.691231879951278],[-46.67345355958518,-23.691231879951278],[-46.673499679489034,-23.691231879951278],[-46.67359191929675,-23.691297040592914],[-46.67368415910446,-23.691297040592914],[-46.673730279008325,-23.69136220123455],[-46.67382251881604,-23.69136220123455],[-46.673868638719895,-23.691427361876187],[-46.67391475862375,-23.691427361876187],[-46.67391475862375,-23.691492522517823],[-46.67396087852761,-23.691492522517823],[-46.67396087852761,-23.69155768315946],[-46.674006998431466,-23.691622843801095],[-46.67396087852761,-23.691622843801095],[-46.67396087852761,-23.69168800444273],[-46.674006998431466,-23.691753165084368],[-46.674006998431466,-23.691818325726004],[-46.674006998431466,-23.691883486367637],[-46.67405311833532,-23.691948647009273],[-46.67409923823919,-23.691948647009273],[-46.67409923823919,-23.69201380765091],[-46.67414535814304,-23.69201380765091],[-46.6741914780469,-23.69201380765091],[-46.67423759795076,-23.69201380765091],[-46.674283717854614,-23.69201380765091],[-46.67437595766233,-23.692078968292545],[-46.67446819747005,-23.69214412893418],[-46.674514317373905,-23.69214412893418],[-46.67456043727776,-23.692209289575818],[-46.67460655718162,-23.692209289575818],[-46.674652677085476,-23.692274450217454],[-46.674652677085476,-23.69233961085909],[-46.67469879698933,-23.692404771500726],[-46.67474491689319,-23.692469932142362],[-46.674791036797046,-23.692469932142362],[-46.67483715670091,-23.692535092783995],[-46.67488327660477,-23.692535092783995],[-46.67497551641248,-23.692535092783995],[-46.67502163631634,-23.69260025342563],[-46.675067756220194,-23.69260025342563],[-46.67515999602791,-23.692665414067267],[-46.67520611593177,-23.692730574708904],[-46.67525223583563,-23.69279573535054],[-46.67534447564334,-23.692860895992176],[-46.6753905955472,-23.692860895992176],[-46.675436715451056,-23.692926056633812],[-46.67548283535491,-23.692926056633812],[-46.675575075162634,-23.69299121727545],[-46.675713434874204,-23.693056377917085],[-46.67580567468192,-23.693056377917085],[-46.675851794585775,-23.69312153855872],[-46.67589791448963,-23.69312153855872],[-46.675944034393495,-23.69312153855872],[-46.67599015429735,-23.69312153855872],[-46.67599015429735,-23.693056377917085],[-46.67603627420121,-23.693056377917085],[-46.676082394105066,-23.693056377917085],[-46.67612851400892,-23.69299121727545],[-46.67617463391278,-23.69299121727545],[-46.676359113528214,-23.692926056633812],[-46.67645135333593,-23.692926056633812],[-46.676497473239785,-23.692860895992176],[-46.67654359314364,-23.692860895992176],[-46.6765897130475,-23.692926056633812],[-46.67663583295136,-23.692926056633812],[-46.676728072759076,-23.692926056633812],[-46.676866432470646,-23.69299121727545],[-46.67695867227836,-23.69299121727545],[-46.677004792182224,-23.69299121727545],[-46.67709703198994,-23.693056377917085],[-46.67718927179765,-23.69312153855872],[-46.67723539170151,-23.69312153855872],[-46.67732763150922,-23.693186699200353],[-46.677373751413086,-23.693186699200353],[-46.6774659912208,-23.69325185984199],[-46.677512111124656,-23.69325185984199],[-46.677512111124656,-23.693317020483626],[-46.67755823102851,-23.693382181125262],[-46.67755823102851,-23.6934473417669],[-46.67755823102851,-23.693512502408534],[-46.67760435093237,-23.693512502408534],[-46.67760435093237,-23.69357766305017],[-46.67765047083623,-23.69357766305017],[-46.677696590740084,-23.693642823691807],[-46.677696590740084,-23.693707984333443],[-46.67774271064395,-23.693707984333443],[-46.67797331016323,-23.693968626899984],[-46.67801943006709,-23.693968626899984],[-46.67811166987481,-23.694098948183257],[-46.67820390968252,-23.694164108824893],[-46.67843450920181,-23.694424751391438],[-46.67852674900953,-23.694489912033074],[-46.67852674900953,-23.694555072674707],[-46.67861898881724,-23.694620233316343],[-46.67875734852881,-23.694750554599615],[-46.67880346843267,-23.694750554599615],[-46.67880346843267,-23.694880875882887],[-46.67884958833653,-23.694946036524524],[-46.67889570824039,-23.694946036524524],[-46.6789879480481,-23.69501119716616],[-46.67908018785582,-23.695076357807796],[-46.679126307759674,-23.695141518449432],[-46.679218547567395,-23.695206679091065],[-46.67931078737511,-23.6952718397327],[-46.679356907278965,-23.6952718397327],[-46.67940302718282,-23.6952718397327],[-46.679495266990536,-23.6952718397327],[-46.679587506798256,-23.6952718397327],[-46.67963362670211,-23.695337000374337],[-46.67972586650983,-23.695337000374337],[-46.67981810631754,-23.695337000374337],[-46.679910346125254,-23.695402161015974],[-46.680002585932975,-23.69546732165761],[-46.68004870583683,-23.69546732165761],[-46.68009482574069,-23.695532482299246],[-46.680140945644546,-23.695532482299246],[-46.6801870655484,-23.695532482299246],[-46.68023318545226,-23.695532482299246],[-46.680279305356116,-23.69546732165761],[-46.68032542525998,-23.69546732165761],[-46.68037154516384,-23.695402161015974],[-46.680417665067694,-23.695402161015974],[-46.68046378497155,-23.695402161015974],[-46.680556024779264,-23.695402161015974],[-46.68064826458698,-23.695337000374337],[-46.6807405043947,-23.695337000374337],[-46.680786624298555,-23.695337000374337],[-46.68087886410627,-23.695337000374337],[-46.68097110391398,-23.6952718397327],[-46.68101722381784,-23.6952718397327],[-46.681201703433274,-23.695337000374337],[-46.68124782333713,-23.695337000374337],[-46.681340063144845,-23.695337000374337],[-46.681340063144845,-23.6952718397327],[-46.681432302952565,-23.6952718397327],[-46.68147842285642,-23.6952718397327],[-46.68152454276028,-23.6952718397327],[-46.681570662664136,-23.6952718397327],[-46.68161678256799,-23.6952718397327],[-46.68166290247185,-23.6952718397327],[-46.681709022375706,-23.6952718397327],[-46.68175514227957,-23.6952718397327],[-46.68180126218343,-23.6952718397327],[-46.681939621895,-23.6952718397327],[-46.681985741798854,-23.6952718397327],[-46.68203186170271,-23.6952718397327],[-46.68207798160657,-23.695206679091065],[-46.68212410151043,-23.695206679091065],[-46.68217022141429,-23.695206679091065],[-46.682216341318146,-23.695206679091065],[-46.682262461222,-23.695206679091065],[-46.68230858112586,-23.695206679091065],[-46.682354701029716,-23.695206679091065],[-46.68240082093357,-23.6952718397327],[-46.682493060741294,-23.6952718397327],[-46.68258530054901,-23.6952718397327],[-46.68267754035672,-23.6952718397327],[-46.682769780164435,-23.695337000374337],[-46.682862019972156,-23.695337000374337],[-46.68290813987601,-23.695337000374337],[-46.68295425977987,-23.695337000374337],[-46.683000379683726,-23.695402161015974],[-46.68304649958758,-23.695402161015974],[-46.68304649958758,-23.69546732165761],[-46.68309261949144,-23.69546732165761],[-46.6831387393953,-23.69546732165761],[-46.6831387393953,-23.695532482299246],[-46.68309261949144,-23.695532482299246],[-46.68309261949144,-23.695597642940882],[-46.68304649958758,-23.695597642940882],[-46.68304649958758,-23.69566280358252],[-46.68304649958758,-23.695727964224155],[-46.68304649958758,-23.69579312486579],[-46.68309261949144,-23.695858285507427],[-46.6831387393953,-23.695858285507427],[-46.68318485929915,-23.695858285507427],[-46.68323097920302,-23.695858285507427],[-46.683277099106874,-23.695858285507427],[-46.68332321901073,-23.69592344614906],[-46.68336933891459,-23.695988606790696],[-46.68336933891459,-23.696053767432332],[-46.683415458818445,-23.696053767432332],[-46.683415458818445,-23.696118928073968],[-46.6834615787223,-23.696118928073968],[-46.68350769862616,-23.696184088715604],[-46.68350769862616,-23.69624924935724],[-46.68350769862616,-23.696314409998877],[-46.6834615787223,-23.696314409998877],[-46.683415458818445,-23.696314409998877],[-46.68336933891459,-23.696314409998877],[-46.68332321901073,-23.696314409998877],[-46.683277099106874,-23.696314409998877],[-46.68323097920302,-23.696314409998877],[-46.68323097920302,-23.696379570640513],[-46.68318485929915,-23.696379570640513],[-46.6831387393953,-23.696379570640513],[-46.68309261949144,-23.696379570640513],[-46.68304649958758,-23.69644473128215],[-46.683000379683726,-23.696509891923785],[-46.683000379683726,-23.696575052565418],[-46.68304649958758,-23.696575052565418],[-46.68309261949144,-23.696575052565418],[-46.6831387393953,-23.696640213207054],[-46.68318485929915,-23.696640213207054],[-46.68318485929915,-23.69670537384869],[-46.68323097920302,-23.696770534490327],[-46.68323097920302,-23.696835695131963],[-46.683277099106874,-23.696835695131963],[-46.683277099106874,-23.6969008557736],[-46.68332321901073,-23.696966016415235],[-46.68332321901073,-23.69703117705687],[-46.68336933891459,-23.697096337698508],[-46.68336933891459,-23.697161498340144],[-46.683415458818445,-23.697226658981776],[-46.683415458818445,-23.697291819623413],[-46.6834615787223,-23.697291819623413],[-46.6834615787223,-23.69735698026505],[-46.68350769862616,-23.69735698026505],[-46.683553818530015,-23.697422140906685],[-46.683553818530015,-23.69748730154832],[-46.683553818530015,-23.697552462189957],[-46.68359993843388,-23.697617622831594],[-46.68359993843388,-23.69768278347323],[-46.683646058337736,-23.69768278347323],[-46.683646058337736,-23.697747944114866],[-46.68369217824159,-23.697813104756502],[-46.68373829814545,-23.697813104756502],[-46.68373829814545,-23.69787826539814],[-46.68378441804931,-23.69787826539814],[-46.68378441804931,-23.69794342603977],[-46.68383053795316,-23.69794342603977],[-46.68383053795316,-23.698008586681407],[-46.68387665785702,-23.698008586681407],[-46.68387665785702,-23.698073747323043],[-46.68392277776088,-23.698073747323043],[-46.68392277776088,-23.69813890796468],[-46.68396889766474,-23.69813890796468],[-46.68396889766474,-23.698204068606316],[-46.6840150175686,-23.698204068606316],[-46.6840150175686,-23.698269229247952],[-46.684061137472455,-23.698269229247952],[-46.684061137472455,-23.698334389889588],[-46.68410725737631,-23.698334389889588],[-46.68410725737631,-23.698399550531224],[-46.68410725737631,-23.69846471117286],[-46.68410725737631,-23.698529871814497],[-46.68415337728017,-23.698529871814497],[-46.68415337728017,-23.69859503245613],[-46.684199497184025,-23.698660193097766],[-46.68424561708788,-23.698660193097766],[-46.68429173699174,-23.698660193097766],[-46.68429173699174,-23.698725353739402],[-46.6843378568956,-23.698725353739402],[-46.68438397679946,-23.698725353739402],[-46.68438397679946,-23.698790514381038],[-46.684430096703316,-23.698790514381038],[-46.68447621660717,-23.698790514381038],[-46.68452233651103,-23.698790514381038],[-46.68456845641489,-23.698790514381038],[-46.684614576318744,-23.698790514381038],[-46.6846606962226,-23.698725353739402],[-46.684706816126464,-23.698725353739402],[-46.68475293603032,-23.698725353739402],[-46.68479905593418,-23.698725353739402],[-46.684845175838035,-23.698725353739402],[-46.68489129574189,-23.698725353739402],[-46.68493741564575,-23.698725353739402],[-46.684983535549605,-23.698725353739402],[-46.68502965545346,-23.698725353739402],[-46.68502965545346,-23.698790514381038],[-46.685075775357326,-23.698790514381038],[-46.68512189526118,-23.698790514381038],[-46.68512189526118,-23.698855675022674],[-46.68516801516504,-23.698855675022674],[-46.6852141350689,-23.69892083566431],[-46.685260254972754,-23.69892083566431],[-46.68530637487661,-23.69892083566431],[-46.68530637487661,-23.698985996305947],[-46.68535249478047,-23.699051156947583],[-46.685398614684324,-23.699051156947583],[-46.68544473458819,-23.699051156947583],[-46.68544473458819,-23.69911631758922],[-46.685490854492045,-23.69911631758922],[-46.685490854492045,-23.699181478230855],[-46.6855369743959,-23.699181478230855],[-46.6855369743959,-23.699246638872488],[-46.6855369743959,-23.699311799514124],[-46.685490854492045,-23.699311799514124],[-46.685490854492045,-23.69937696015576],[-46.68544473458819,-23.69937696015576],[-46.685490854492045,-23.699442120797396],[-46.685767573915186,-23.70002856657212],[-46.6867360918962,-23.69957244208067],[-46.68752013026178,-23.699051156947583],[-46.688488648242796,-23.698204068606316],[-46.689042087089085,-23.697747944114866],[-46.689918365262386,-23.696640213207054],[-46.69061016382025,-23.69546732165761],[-46.69148644199355,-23.694164108824893],[-46.6920860007437,-23.693317020483626],[-46.69263943958999,-23.69233961085909],[-46.69323899834014,-23.691427361876187],[-46.69388467699415,-23.690384791610015],[-46.69443811584044,-23.689537703268748],[-46.69494543478288,-23.688820936210753],[-46.69522215420602,-23.68842997236094],[-46.69549887362917,-23.688039008511122],[-46.695821712956175,-23.68764804466131],[-46.69586783286003,-23.687517723378036],[-46.69591395276389,-23.6874525627364],[-46.696375151802464,-23.686605474395133],[-46.697113070264194,-23.685106779637508],[-46.697804868822054,-23.684064209371336],[-46.69872726689921,-23.682370032688805],[-46.69914234603393,-23.68191390819735],[-46.700110864014945,-23.680936498572816],[-46.70126386161139,-23.679763607023368],[-46.70241685920783,-23.67865587611556],[-46.70264745872712,-23.678330072907382],[-46.70333925728499,-23.677482984566115],[-46.704307775265995,-23.675919129166854],[-46.7058297320933,-23.673377864143056],[-46.70753616853604,-23.67031531398617],[-46.70896588555563,-23.668034691528916],[-46.71016500305593,-23.66594955099657],[-46.71039560257522,-23.66549342650512],[-46.71053396228679,-23.66529794458021],[-46.710995161325364,-23.66451601688058],[-46.71191755940252,-23.66308248276459],[-46.71339339632597,-23.661453466723696],[-46.71422355459541,-23.660671539024065],[-46.714869233249416,-23.66015025389098],[-46.71625283036515,-23.659238004908076],[-46.71754418767316,-23.65839091656681],[-46.71897390469275,-23.657543828225542],[-46.719711823154476,-23.656892221809183],[-46.72081870084706,-23.65552384833483],[-46.72257125719366,-23.65363418972739],[-46.72353977517467,-23.652330976894675],[-46.72432381354025,-23.65135356727014],[-46.725061732001976,-23.65050647892887],[-46.725338451425124,-23.65018067572069],[-46.725615170848265,-23.64972455122924],[-46.72593801017527,-23.64913810545452],[-46.72621472959842,-23.648421338396524],[-46.72639920921385,-23.647574250055257],[-46.726491449021566,-23.647118125563807],[-46.72653756892542,-23.646531679789085],[-46.72653756892542,-23.644902663748187],[-46.726491449021566,-23.644511699898374],[-46.726491449021566,-23.644316217973465],[-46.726260849502275,-23.64359945091547],[-46.72616860969456,-23.64314332642402],[-46.726122489790704,-23.643078165782384],[-46.72593801017527,-23.642491720007662],[-46.72529233152127,-23.641058185891673],[-46.724831132482684,-23.64034141883368],[-46.72423157373254,-23.63968981241732],[-46.723078576136096,-23.63845176022624],[-46.72114154017407,-23.636301459052255],[-46.72081870084706,-23.635975655844078],[-46.720772580943205,-23.635975655844078],[-46.7165295497883,-23.631414410929565],[-46.71380847546069,-23.628482182055954],[-46.71214815892181,-23.626722844731784],[-46.71177919969095,-23.62633188088197],[-46.71127188074851,-23.625940917032153],[-46.71034948267136,-23.625419631899067],[-46.70951932440192,-23.625028668049254],[-46.70864304622862,-23.624637704199436],[-46.70749004863218,-23.624181579707987],[-46.706383170939596,-23.623790615858173],[-46.70513793353543,-23.623399652008356],[-46.70380045632356,-23.622748045591997],[-46.702739698534835,-23.621835796609098],[-46.70181730045768,-23.620793226342922],[-46.70149446113067,-23.62001129864329],[-46.701448341226815,-23.620076459284927],[-46.7013561014191,-23.620076459284927],[-46.70126386161139,-23.620076459284927],[-46.70121774170753,-23.620141619926564],[-46.701171621803674,-23.620141619926564],[-46.70098714218824,-23.6202067805682],[-46.70075654266895,-23.620271941209836],[-46.70043370334195,-23.620337101851472],[-46.70029534363037,-23.62040226249311],[-46.70029534363037,-23.620337101851472],[-46.700249223726516,-23.620337101851472],[-46.70020310382266,-23.620337101851472],[-46.7001569839188,-23.620337101851472],[-46.700110864014945,-23.620337101851472],[-46.69992638439951,-23.620337101851472],[-46.699741904784084,-23.62040226249311],[-46.69905010622622,-23.62066290505965],[-46.69900398632236,-23.62066290505965],[-46.6989578664185,-23.62066290505965],[-46.698819506706926,-23.620728065701286],[-46.698681146995355,-23.620793226342922],[-46.6986350270915,-23.620793226342922],[-46.69858890718764,-23.620793226342922],[-46.69854278728378,-23.620793226342922],[-46.69849666737992,-23.62085838698456],[-46.69831218776449,-23.621119029551103],[-46.69821994795678,-23.621249350834372],[-46.69798934843749,-23.621509993400917],[-46.697804868822054,-23.621705475325825],[-46.69757426930277,-23.622031278534003],[-46.697251429975765,-23.62242224238382],[-46.697020830456474,-23.62268288495036],[-46.69679023093719,-23.623008688158542],[-46.696605751321755,-23.62320417008345],[-46.6965596314179,-23.62320417008345],[-46.6965596314179,-23.623269330725083],[-46.69651351151404,-23.62333449136672],[-46.696190672187036,-23.623595133933264],[-46.6960061925716,-23.623725455216537],[-46.69545275372531,-23.623986097783078],[-46.69499155468674,-23.624246740349623],[-46.69485319497516,-23.62431190099126],[-46.694391995936584,-23.624507382916168],[-46.694115276513436,-23.624637704199436],[-46.69393079689801,-23.62476802548271],[-46.69379243718643,-23.624833186124345],[-46.69370019737872,-23.624833186124345],[-46.69323899834014,-23.62509382869089],[-46.69300839882085,-23.625224149974162],[-46.69282391920542,-23.625289310615795],[-46.69263943958999,-23.62535447125743],[-46.69259331968613,-23.62535447125743],[-46.69227048035913,-23.625484792540703],[-46.69194764103212,-23.625615113823976],[-46.691763161416695,-23.625680274465612],[-46.69171704151284,-23.625680274465612],[-46.69162480170512,-23.625680274465612],[-46.69157868180126,-23.625680274465612],[-46.691532561897404,-23.625680274465612],[-46.69139420218583,-23.62574543510725],[-46.691348082281976,-23.62574543510725],[-46.6912097225704,-23.62574543510725],[-46.69107136285883,-23.62574543510725],[-46.69093300314726,-23.62574543510725],[-46.69084076333954,-23.62574543510725],[-46.690471804108675,-23.62574543510725],[-46.68978000555081,-23.625680274465612],[-46.68945716622381,-23.625680274465612],[-46.68894984728137,-23.625615113823976],[-46.68867312785822,-23.625615113823976],[-46.688627007954366,-23.625615113823976],[-46.68858088805051,-23.625615113823976],[-46.688488648242796,-23.625615113823976],[-46.68844252833894,-23.625615113823976],[-46.68839640843508,-23.625615113823976],[-46.68839640843508,-23.625680274465612],[-46.688350288531225,-23.625680274465612],[-46.68821192881965,-23.625680274465612],[-46.68816580891579,-23.62574543510725],[-46.688119689011934,-23.62574543510725],[-46.68807356910808,-23.62574543510725],[-46.687981329300364,-23.62587575639052],[-46.68788908949264,-23.62587575639052],[-46.687842969588786,-23.625940917032153],[-46.6876123700695,-23.626071238315426],[-46.68752013026178,-23.626136398957062],[-46.687474010357924,-23.626136398957062],[-46.68738177055021,-23.626201559598698],[-46.68724341083864,-23.626266720240334],[-46.687197290934776,-23.626201559598698],[-46.68710505112706,-23.62600607767379],[-46.687058931223206,-23.62600607767379],[-46.686920571511635,-23.625810595748884],[-46.6867360918962,-23.62554995318234],[-46.68664385208849,-23.625419631899067],[-46.68650549237692,-23.625224149974162],[-46.686413252569196,-23.625028668049254],[-46.68609041324219,-23.624637704199436],[-46.68535249478047,-23.623529973291628],[-46.68512189526118,-23.623269330725083],[-46.684983535549605,-23.623008688158542],[-46.68475293603032,-23.62268288495036],[-46.684614576318744,-23.622487403025456],[-46.68456845641489,-23.62242224238382],[-46.68429173699174,-23.622031278534003],[-46.68415337728017,-23.621835796609098],[-46.68392277776088,-23.621509993400917],[-46.68387665785702,-23.62144483275928],[-46.683553818530015,-23.620923547626195],[-46.68332321901073,-23.620597744418014],[-46.68323097920302,-23.62040226249311],[-46.68309261949144,-23.6202067805682],[-46.68304649958758,-23.6202067805682],[-46.68295425977987,-23.620076459284927],[-46.682862019972156,-23.619946138001655],[-46.682862019972156,-23.61988097736002],[-46.68272366026058,-23.619685495435114],[-46.68253918064515,-23.61942485286857],[-46.682493060741294,-23.619359692226933],[-46.68240082093357,-23.61922937094366],[-46.682354701029716,-23.619164210302028],[-46.68230858112586,-23.61909904966039],[-46.68217022141429,-23.618903567735483],[-46.681985741798854,-23.61864292516894],[-46.68189350199114,-23.61851260388567],[-46.68161678256799,-23.618121640035852],[-46.68129394324099,-23.617665515544402],[-46.68115558352942,-23.617470033619494],[-46.68069438449084,-23.616818427203135],[-46.68064826458698,-23.6167532665615],[-46.68050990487541,-23.61655778463659],[-46.68032542525998,-23.61629714207005],[-46.68009482574069,-23.61597133886187],[-46.68004870583683,-23.615906178220232],[-46.679910346125254,-23.615710696295327],[-46.67972586650983,-23.615384893087146],[-46.679495266990536,-23.615124250520605],[-46.67940302718282,-23.614993929237333],[-46.67926466747125,-23.614798447312424],[-46.679126307759674,-23.61453780474588],[-46.6789879480481,-23.614342322820974],[-46.67880346843267,-23.61408168025443],[-46.6786651087211,-23.61388619832952],[-46.67861898881724,-23.613821037687888],[-46.678572868913385,-23.613755877046252],[-46.67848062910567,-23.613560395121343],[-46.67843450920181,-23.613560395121343],[-46.67838838929795,-23.613495234479707],[-46.67838838929795,-23.61343007383807],[-46.67834226939409,-23.613364913196435],[-46.67829614949024,-23.6132997525548],[-46.67825002958638,-23.613169431271526],[-46.67820390968252,-23.613039109988257],[-46.678157789778666,-23.61297394934662],[-46.678065549970945,-23.612778467421712],[-46.67797331016323,-23.612517824855168],[-46.677927190259375,-23.612322342930263],[-46.67783495045166,-23.612061700363718],[-46.677696590740084,-23.61173589715554],[-46.67755823102851,-23.611279772664087],[-46.677512111124656,-23.611149451380815],[-46.67741987131694,-23.611019130097546],[-46.67732763150922,-23.610693326889365],[-46.677281511605365,-23.610432684322824],[-46.67718927179765,-23.61017204175628],[-46.677143151893794,-23.610041720473006],[-46.67709703198994,-23.609911399189734],[-46.677004792182224,-23.609585595981557],[-46.676866432470646,-23.609129471490103],[-46.676728072759076,-23.60873850764029],[-46.676728072759076,-23.608673346998653],[-46.67663583295136,-23.608477865073745],[-46.67654359314364,-23.60828238314884]]]}}]}