{"type":"FeatureCollection","features":[{"type":"Feature","properties":{"DATA_ULT_A":"2013/06/23","DATA_CRIAC":"2009/10/09","id":32,"name":"Sapopemba","area":13.5,"pop_2010":284524,"pop_density_2010":21076,"budget_2015":29193972},"geometry":{"type":"Polygon","coordinates":[[[-46.53472488878112,-23.584042624460302],[-46.534678768877264,-23.583977463818666],[-46.53463264897341,-23.583977463818666],[-46.53458652906955,-23.583977463818666],[-46.53440204945412,-23.584042624460302],[-46.53435592955026,-23.584042624460302],[-46.53417144993483,-23.58410778510194],[-46.53403309022326,-23.584172945743575],[-46.53394085041554,-23.584172945743575],[-46.53389473051168,-23.584172945743575],[-46.53380249070397,-23.584172945743575],[-46.53375637080011,-23.584172945743575],[-46.53375637080011,-23.58410778510194],[-46.533710250896256,-23.58410778510194],[-46.5336641309924,-23.58410778510194],[-46.53357189118468,-23.584042624460302],[-46.53352577128082,-23.584042624460302],[-46.53338741156925,-23.583977463818666],[-46.53329517176154,-23.58391230317703],[-46.53320293195382,-23.583847142535394],[-46.533064572242246,-23.583781981893758],[-46.532926212530676,-23.58371682125212],[-46.532695613011384,-23.583651660610485],[-46.53264949310753,-23.583651660610485],[-46.532280533876666,-23.58345617868558],[-46.53214217416509,-23.583391018043944],[-46.53209605426123,-23.583391018043944],[-46.53209605426123,-23.583325857402308],[-46.532049934357374,-23.583325857402308],[-46.53200381445352,-23.583325857402308],[-46.53195769454966,-23.583325857402308],[-46.531911574645804,-23.583325857402308],[-46.53181933483809,-23.583325857402308],[-46.53172709503037,-23.583325857402308],[-46.531634855222656,-23.583391018043944],[-46.53154261541494,-23.583391018043944],[-46.531404255703364,-23.583391018043944],[-46.531265895991794,-23.58345617868558],[-46.53121977608794,-23.58345617868558],[-46.5310352964725,-23.583521339327216],[-46.53089693676093,-23.58358649996885],[-46.530850816857075,-23.58358649996885],[-46.53075857704936,-23.58358649996885],[-46.53066633724164,-23.583651660610485],[-46.53052797753007,-23.583651660610485],[-46.530343497914636,-23.58371682125212],[-46.53015901829921,-23.583781981893758],[-46.529974538683774,-23.583847142535394],[-46.52988229887606,-23.583847142535394],[-46.52979005906835,-23.58391230317703],[-46.52960557945291,-23.58391230317703],[-46.5295133396452,-23.583977463818666],[-46.52937497993363,-23.584042624460302],[-46.529282740125915,-23.584042624460302],[-46.52909826051048,-23.58410778510194],[-46.52905214060662,-23.58410778510194],[-46.52891378089505,-23.584172945743575],[-46.52886766099119,-23.584172945743575],[-46.528775421183475,-23.584172945743575],[-46.52872930127962,-23.58423810638521],[-46.52854482166419,-23.58423810638521],[-46.52840646195261,-23.584303267026844],[-46.528221982337186,-23.58436842766848],[-46.52817586243333,-23.584433588310116],[-46.52803750272175,-23.584498748951752],[-46.52789914301018,-23.584629070235025],[-46.5277607832986,-23.584759391518297],[-46.52766854349089,-23.584759391518297],[-46.527576303683176,-23.58488971280157],[-46.52753018377932,-23.58488971280157],[-46.52739182406774,-23.585020034084838],[-46.52725346435617,-23.58515035536811],[-46.527207344452314,-23.58515035536811],[-46.52716122454846,-23.58515035536811],[-46.5271151046446,-23.58515035536811],[-46.52697674493302,-23.58515035536811],[-46.526792265317596,-23.58515035536811],[-46.52674614541374,-23.58515035536811],[-46.52660778570216,-23.58515035536811],[-46.52651554589445,-23.58515035536811],[-46.52646942599059,-23.58515035536811],[-46.5262388264713,-23.58515035536811],[-46.52619270656744,-23.58515035536811],[-46.526146586663586,-23.58515035536811],[-46.52610046675973,-23.58515035536811],[-46.526008226952015,-23.58515035536811],[-46.525777627432724,-23.58515035536811],[-46.52559314781729,-23.585085194726474],[-46.52527030849029,-23.585085194726474],[-46.52522418858643,-23.585085194726474],[-46.52517806868257,-23.585085194726474],[-46.524993589067144,-23.585020034084838],[-46.52494746916329,-23.585020034084838],[-46.52476298954785,-23.585020034084838],[-46.524716869643996,-23.585020034084838],[-46.524578509932425,-23.585020034084838],[-46.52439403031699,-23.585020034084838],[-46.52439403031699,-23.584954873443202],[-46.52425567060542,-23.584954873443202],[-46.52411731089384,-23.584954873443202],[-46.524071190989986,-23.584954873443202],[-46.52388671137456,-23.584954873443202],[-46.523794471566845,-23.584954873443202],[-46.52365611185527,-23.58488971280157],[-46.52342551233598,-23.58488971280157],[-46.52337939243212,-23.58488971280157],[-46.52333327252826,-23.58488971280157],[-46.523287152624405,-23.58488971280157],[-46.52324103272055,-23.58488971280157],[-46.52305655310512,-23.584824552159933],[-46.522918193393544,-23.584824552159933],[-46.52287207348969,-23.584824552159933],[-46.52277983368197,-23.584824552159933],[-46.52268759387426,-23.584824552159933],[-46.522641473970396,-23.584824552159933],[-46.52245699435497,-23.584759391518297],[-46.52241087445111,-23.584759391518297],[-46.522364754547255,-23.584759391518297],[-46.5223186346434,-23.584759391518297],[-46.52222639483568,-23.584759391518297],[-46.52213415502796,-23.584759391518297],[-46.521949675412536,-23.584759391518297],[-46.52190355550867,-23.58469423087666],[-46.5217651957971,-23.58469423087666],[-46.52153459627781,-23.58469423087666],[-46.52148847637395,-23.58469423087666],[-46.5214423564701,-23.58469423087666],[-46.521303996758526,-23.58469423087666],[-46.52125787685467,-23.58469423087666],[-46.52121175695081,-23.584629070235025],[-46.52116563704695,-23.584629070235025],[-46.52116563704695,-23.58469423087666],[-46.52111951714309,-23.58469423087666],[-46.521073397239235,-23.58469423087666],[-46.520935037527664,-23.584759391518297],[-46.52084279771995,-23.584824552159933],[-46.52079667781609,-23.584824552159933],[-46.52061219820066,-23.584954873443202],[-46.520519958392946,-23.585020034084838],[-46.52038159868137,-23.585085194726474],[-46.5202432389698,-23.58515035536811],[-46.52010487925822,-23.585215516009747],[-46.51996651954665,-23.585280676651383],[-46.51978203993122,-23.58534583729302],[-46.51973592002736,-23.585410997934655],[-46.51955144041193,-23.58547615857629],[-46.51941308070036,-23.585541319217928],[-46.51932084089264,-23.585541319217928],[-46.51913636127721,-23.58560647985956],[-46.519090241373355,-23.585671640501197],[-46.518998001565635,-23.585671640501197],[-46.51881352195021,-23.585736801142833],[-46.518721282142494,-23.585736801142833],[-46.51867516223864,-23.58580196178447],[-46.51862904233477,-23.58580196178447],[-46.518582922430916,-23.585867122426105],[-46.51853680252706,-23.585867122426105],[-46.51839844281549,-23.58593228306774],[-46.51835232291163,-23.585997443709378],[-46.518306203007775,-23.585997443709378],[-46.51826008310391,-23.586062604351014],[-46.518213963200054,-23.586062604351014],[-46.5181678432962,-23.58612776499265],[-46.51802948358463,-23.586192925634286],[-46.51802948358463,-23.58625808627592],[-46.51789112387305,-23.586323246917555],[-46.51784500396919,-23.58638840755919],[-46.517660524353765,-23.586518728842464],[-46.51752216464219,-23.586649050125736],[-46.517429924834474,-23.586714210767372],[-46.51733768502676,-23.586844532050645],[-46.51724544521905,-23.58690969269228],[-46.517153205411326,-23.58690969269228],[-46.51710708550747,-23.586974853333913],[-46.51706096560361,-23.58704001397555],[-46.51692260589204,-23.587105174617186],[-46.516876485988185,-23.587105174617186],[-46.51669200637275,-23.587170335258822],[-46.51659976656504,-23.587170335258822],[-46.51655364666118,-23.587170335258822],[-46.51650752675732,-23.587170335258822],[-46.516461406853466,-23.587170335258822],[-46.5164152869496,-23.587170335258822],[-46.516369167045745,-23.587170335258822],[-46.51627692723803,-23.587170335258822],[-46.516230807334175,-23.587170335258822],[-46.516092447622604,-23.587170335258822],[-46.51604632771874,-23.587170335258822],[-46.51600020781488,-23.587170335258822],[-46.51595408791103,-23.587170335258822],[-46.515815728199456,-23.587105174617186],[-46.51572348839174,-23.587105174617186],[-46.51553900877631,-23.58704001397555],[-46.515354529160874,-23.586974853333913],[-46.515170049545446,-23.58690969269228],[-46.51512392964159,-23.586844532050645],[-46.515031689833876,-23.586844532050645],[-46.51498556993001,-23.586844532050645],[-46.514939450026155,-23.58677937140901],[-46.51484721021844,-23.58677937140901],[-46.514801090314585,-23.58677937140901],[-46.514662730603014,-23.586714210767372],[-46.51461661069915,-23.586714210767372],[-46.51457049079529,-23.586714210767372],[-46.51447825098758,-23.586714210767372],[-46.514386011179866,-23.586714210767372],[-46.51433989127601,-23.586714210767372],[-46.51424765146829,-23.586714210767372],[-46.514155411660575,-23.586714210767372],[-46.51397093204515,-23.586714210767372],[-46.51383257233357,-23.586714210767372],[-46.51378645242971,-23.586714210767372],[-46.513740332525856,-23.586714210767372],[-46.513694212622,-23.586714210767372],[-46.51355585291043,-23.58677937140901],[-46.513509733006565,-23.58677937140901],[-46.513371373294994,-23.58677937140901],[-46.51332525339114,-23.586844532050645],[-46.5131407737757,-23.58690969269228],[-46.51304853396799,-23.58690969269228],[-46.512956294160276,-23.586974853333913],[-46.51291017425642,-23.586974853333913],[-46.51291017425642,-23.58704001397555],[-46.512817934448705,-23.58704001397555],[-46.51277181454484,-23.587105174617186],[-46.51263345483327,-23.587170335258822],[-46.51254121502556,-23.587235495900458],[-46.5124950951217,-23.587300656542094],[-46.51235673541012,-23.587430977825367],[-46.51221837569855,-23.587496138467003],[-46.512172255794695,-23.58756129910864],[-46.51203389608312,-23.587691620391908],[-46.51184941646769,-23.58782194167518],[-46.51171105675612,-23.587952262958453],[-46.5116188169484,-23.58801742360009],[-46.51148045723683,-23.58814774488336],[-46.511295977621394,-23.58827806616663],[-46.511157617909824,-23.588343226808266],[-46.51101925819825,-23.58847354809154],[-46.510973138294396,-23.588538708733175],[-46.510880898486676,-23.58860386937481],[-46.510742538775105,-23.588734190658084],[-46.510604179063535,-23.588864511941356],[-46.51046581935196,-23.588929672582992],[-46.510327459640386,-23.58905999386626],[-46.51028133973653,-23.58905999386626],[-46.510235219832666,-23.58905999386626],[-46.510096860121095,-23.589190315149533],[-46.50991238050567,-23.58925547579117],[-46.50972790089023,-23.589320636432806],[-46.50968178098638,-23.589320636432806],[-46.509543421274806,-23.589385797074442],[-46.509451181467085,-23.589385797074442],[-46.5092205819478,-23.58945095771608],[-46.50912834214008,-23.58945095771608],[-46.50908222223622,-23.58945095771608],[-46.50880550281308,-23.589516118357714],[-46.50862102319765,-23.589516118357714],[-46.508528783389934,-23.58958127899935],[-46.5083443037745,-23.58958127899935],[-46.50815982415907,-23.589646439640983],[-46.50806758435136,-23.589646439640983],[-46.50792922463978,-23.58971160028262],[-46.50779086492821,-23.58971160028262],[-46.507606385312776,-23.589776760924256],[-46.50756026540892,-23.589776760924256],[-46.50700682656263,-23.5900374034908],[-46.506960706658774,-23.5900374034908],[-46.506960706658774,-23.590167724774073],[-46.506960706658774,-23.59029804605734],[-46.506960706658774,-23.59049352798225],[-46.50700682656263,-23.590623849265523],[-46.50700682656263,-23.590949652473704],[-46.50700682656263,-23.591079973756973],[-46.50700682656263,-23.59127545568188],[-46.50700682656263,-23.591405776965154],[-46.50700682656263,-23.59173158017333],[-46.50700682656263,-23.592122544023148],[-46.50700682656263,-23.592187704664784],[-46.50700682656263,-23.592448347231326],[-46.50700682656263,-23.59251350787296],[-46.506960706658774,-23.592774150439507],[-46.506960706658774,-23.59316511428932],[-46.506960706658774,-23.593295435572593],[-46.506960706658774,-23.5934909174975],[-46.506960706658774,-23.593621238780774],[-46.506822346947196,-23.593621238780774],[-46.50663786733177,-23.593751560064042],[-46.506453387716334,-23.59381672070568],[-46.506176668293186,-23.59394704198895],[-46.505899948870045,-23.594012202630587],[-46.505807709062324,-23.594077363272223],[-46.50571546925461,-23.59414252391386],[-46.5056232294469,-23.59414252391386],[-46.50557710954304,-23.594207684555496],[-46.50548486973533,-23.594207684555496],[-46.505392629927606,-23.594207684555496],[-46.505392629927606,-23.594272845197132],[-46.50530039011989,-23.594272845197132],[-46.50520815031218,-23.594338005838765],[-46.505023670696744,-23.5944031664804],[-46.50497755079289,-23.594468327122037],[-46.50479307117746,-23.594533487763673],[-46.50465471146588,-23.59459864840531],[-46.504608591562025,-23.59459864840531],[-46.504470231850455,-23.594663809046946],[-46.504377992042734,-23.594728969688582],[-46.50373231338873,-23.594989612255127],[-46.503593953677154,-23.59505477289676],[-46.503409474061726,-23.595119933538395],[-46.50331723425401,-23.59518509418003],[-46.50322499444629,-23.595250254821668],[-46.503040514830865,-23.595315415463304],[-46.50290215511929,-23.595510897388213],[-46.50290215511929,-23.59557605802985],[-46.50280991531157,-23.595706379313118],[-46.50271767550386,-23.595901861238026],[-46.5026715556,-23.5960321825213],[-46.50257931579229,-23.596227664446207],[-46.502348716273,-23.596292825087843],[-46.50216423665756,-23.596357985729476],[-46.50202587694599,-23.596423146371112],[-46.50193363713828,-23.59648830701275],[-46.501749157522845,-23.596553467654385],[-46.50165691771513,-23.59661862829602],[-46.50156467790742,-23.59661862829602],[-46.50138019829198,-23.596683788937657],[-46.50128795848427,-23.596748949579293],[-46.501195718676556,-23.596748949579293],[-46.50101123906112,-23.59681411022093],[-46.50091899925341,-23.596879270862566],[-46.500826759445694,-23.596944431504202],[-46.500688399734116,-23.597009592145838],[-46.50064227983026,-23.596879270862566],[-46.5005961599264,-23.59681411022093],[-46.500550040022546,-23.596748949579293],[-46.50050392011869,-23.596683788937657],[-46.50050392011869,-23.59661862829602],[-46.50045780021483,-23.596553467654385],[-46.500319440503254,-23.59661862829602],[-46.5002733205994,-23.59661862829602],[-46.50008884098397,-23.596683788937657],[-46.50004272108011,-23.596683788937657],[-46.49995048127239,-23.596748949579293],[-46.49985824146468,-23.596748949579293],[-46.49981212156082,-23.59681411022093],[-46.499627641945395,-23.59681411022093],[-46.49948928223382,-23.596879270862566],[-46.49935092252225,-23.596944431504202],[-46.49921256281067,-23.596944431504202],[-46.49916644290681,-23.596944431504202],[-46.498981963291385,-23.597009592145838],[-46.49893584338753,-23.597009592145838],[-46.49842852444509,-23.59681411022093],[-46.49838240454123,-23.59681411022093],[-46.49824404482966,-23.596748949579293],[-46.498197924925805,-23.596748949579293],[-46.49815180502194,-23.596748949579293],[-46.498105685118084,-23.596748949579293],[-46.49805956521423,-23.596748949579293],[-46.49796732540651,-23.596683788937657],[-46.49792120550266,-23.59661862829602],[-46.4978750855988,-23.59661862829602],[-46.49778284579108,-23.59648830701275],[-46.497690605983365,-23.596357985729476],[-46.49764448607951,-23.596357985729476],[-46.49750612636794,-23.596227664446207],[-46.49750612636794,-23.59616250380457],[-46.49746000646408,-23.59616250380457],[-46.49741388656022,-23.596097343162935],[-46.49736776665636,-23.596097343162935],[-46.49736776665636,-23.5960321825213],[-46.49722940694479,-23.595967021879662],[-46.49722940694479,-23.595901861238026],[-46.49718328704093,-23.59583670059639],[-46.497137167137076,-23.595771539954754],[-46.497137167137076,-23.595706379313118],[-46.497044927329355,-23.595510897388213],[-46.4969988074255,-23.59557605802985],[-46.49695268752164,-23.595510897388213],[-46.49681432781007,-23.595510897388213],[-46.496675968098494,-23.595510897388213],[-46.49662984819464,-23.595510897388213],[-46.49653760838692,-23.595445736746576],[-46.49644536857921,-23.59538057610494],[-46.49639924867535,-23.59538057610494],[-46.496353128771496,-23.59538057610494],[-46.49616864915606,-23.59538057610494],[-46.496122529252204,-23.59538057610494],[-46.4957996899252,-23.595445736746576],[-46.495707450117486,-23.595445736746576],[-46.49566133021363,-23.595445736746576],[-46.49556909040591,-23.595445736746576],[-46.49543073069434,-23.595445736746576],[-46.49538461079048,-23.595445736746576],[-46.495338490886624,-23.595445736746576],[-46.495338490886624,-23.595706379313118],[-46.495338490886624,-23.595771539954754],[-46.495338490886624,-23.595901861238026],[-46.495338490886624,-23.595967021879662],[-46.49538461079048,-23.59616250380457],[-46.49538461079048,-23.596227664446207],[-46.49538461079048,-23.596292825087843],[-46.49538461079048,-23.59648830701275],[-46.49543073069434,-23.596683788937657],[-46.495476850598195,-23.59681411022093],[-46.49552297050205,-23.596944431504202],[-46.49556909040591,-23.597139913429107],[-46.49556909040591,-23.597205074070743],[-46.49561521030977,-23.59727023471238],[-46.49566133021363,-23.597465716637288],[-46.49566133021363,-23.597530877278924],[-46.495707450117486,-23.59759603792056],[-46.49575357002134,-23.59772635920383],[-46.4957996899252,-23.5978566804871],[-46.495845809829056,-23.59805216241201],[-46.49589192973291,-23.598117323053646],[-46.49593804963677,-23.59824764433692],[-46.49603028944449,-23.598443126261824],[-46.49607640934835,-23.598573447545096],[-46.49616864915606,-23.59870376882837],[-46.49621476905992,-23.59883409011164],[-46.49630700886763,-23.598964411394913],[-46.49639924867535,-23.599094732678182],[-46.496491488483066,-23.59929021460309],[-46.49639924867535,-23.59929021460309],[-46.49658372829078,-23.600202463585994],[-46.496675968098494,-23.600854070002352],[-46.496768207906214,-23.601896640268524],[-46.4969988074255,-23.603004371176336],[-46.496906567617785,-23.60319985310124],[-46.496906567617785,-23.603265013742877],[-46.49686044771393,-23.603330174384514],[-46.49686044771393,-23.60339533502615],[-46.49681432781007,-23.603525656309422],[-46.49672208800236,-23.603655977592695],[-46.49672208800236,-23.603786298875963],[-46.496675968098494,-23.603916620159236],[-46.49662984819464,-23.603981780800872],[-46.49662984819464,-23.604112102084144],[-46.49658372829078,-23.604242423367417],[-46.49658372829078,-23.604307584009053],[-46.49658372829078,-23.60437274465069],[-46.49658372829078,-23.604437905292322],[-46.49658372829078,-23.604503065933958],[-46.49662984819464,-23.60463338721723],[-46.49662984819464,-23.604698547858867],[-46.49662984819464,-23.604763708500503],[-46.496675968098494,-23.60495919042541],[-46.49672208800236,-23.605089511708684],[-46.496768207906214,-23.605154672350317],[-46.49681432781007,-23.605350154275225],[-46.49686044771393,-23.605545636200134],[-46.49686044771393,-23.60561079684177],[-46.496906567617785,-23.605741118125042],[-46.49695268752164,-23.605936600049947],[-46.49695268752164,-23.606001760691584],[-46.4969988074255,-23.606197242616492],[-46.497044927329355,-23.6063927245414],[-46.49709104723322,-23.60652304582467],[-46.49709104723322,-23.606588206466306],[-46.497137167137076,-23.606783688391214],[-46.49718328704093,-23.606914009674487],[-46.49718328704093,-23.606979170316123],[-46.49722940694479,-23.60704433095776],[-46.49722940694479,-23.607174652241028],[-46.49727552684865,-23.6073049735243],[-46.49727552684865,-23.607370134165937],[-46.4973216467525,-23.60750045544921],[-46.4973216467525,-23.607565616090845],[-46.4973216467525,-23.60763077673248],[-46.49736776665636,-23.607695937374118],[-46.49741388656022,-23.607826258657386],[-46.49746000646408,-23.60795657994066],[-46.49746000646408,-23.608021740582295],[-46.49750612636794,-23.60808690122393],[-46.497552246271795,-23.608217222507204],[-46.49759836617565,-23.60828238314884],[-46.49764448607951,-23.608412704432112],[-46.497690605983365,-23.608477865073745],[-46.49778284579108,-23.60854302571538],[-46.49782896569494,-23.608608186357017],[-46.4978750855988,-23.608673346998653],[-46.49801344531037,-23.608803668281926],[-46.49815180502194,-23.608933989565198],[-46.498197924925805,-23.608999150206834],[-46.49829016473352,-23.60906431084847],[-46.49838240454123,-23.60919463213174],[-46.498474644348946,-23.609259792773376],[-46.4985207642528,-23.609324953415012],[-46.49861300406052,-23.609390114056648],[-46.49870524386824,-23.609455274698284],[-46.498751363772094,-23.60952043533992],[-46.49884360357981,-23.609585595981557],[-46.498889723483664,-23.609585595981557],[-46.49879748367595,-23.610367523681187],[-46.49838240454123,-23.61017204175628],[-46.49764448607951,-23.609911399189734],[-46.49658372829078,-23.60952043533992],[-46.49603028944449,-23.60919463213174],[-46.495476850598195,-23.608999150206834],[-46.49538461079048,-23.608999150206834],[-46.493263095213024,-23.608217222507204],[-46.49275577627059,-23.608152061865567],[-46.491648898578006,-23.607891419299023],[-46.49104933982785,-23.607761098015754],[-46.490495900981564,-23.60763077673248],[-46.49017306165456,-23.607565616090845],[-46.48975798251984,-23.607435294807573],[-46.48911230386583,-23.6073049735243],[-46.48869722473111,-23.607174652241028],[-46.4880515460771,-23.60704433095776],[-46.487498107230806,-23.606914009674487],[-46.487221387807665,-23.60684884903285],[-46.48694466838452,-23.606783688391214],[-46.48662182905751,-23.60684884903285],[-46.48629898973051,-23.606914009674487],[-46.48588391059579,-23.607174652241028],[-46.4856533110765,-23.60750045544921],[-46.48533047174949,-23.607826258657386],[-46.48496151251863,-23.60828238314884],[-46.48482315280706,-23.608868828923562],[-46.48459255328777,-23.609911399189734],[-46.484500313480055,-23.61030236303955],[-46.4844541935762,-23.61062816624773],[-46.484500313480055,-23.61062816624773],[-46.48454643338391,-23.61062816624773],[-46.48454643338391,-23.610563005606092],[-46.48468479309549,-23.610497844964456],[-46.484730912999346,-23.610497844964456],[-46.484915392614774,-23.610432684322824],[-46.48496151251863,-23.610432684322824],[-46.485007632422494,-23.610432684322824],[-46.485145992134065,-23.610432684322824],[-46.485284351845635,-23.610432684322824],[-46.48542271155721,-23.610432684322824],[-46.48551495136493,-23.610432684322824],[-46.48556107126878,-23.610432684322824],[-46.4856533110765,-23.610497844964456],[-46.485699430980354,-23.610497844964456],[-46.48574555088422,-23.610497844964456],[-46.485791670788075,-23.610497844964456],[-46.48588391059579,-23.610563005606092],[-46.4859761504035,-23.610563005606092],[-46.48602227030736,-23.61062816624773],[-46.486068390211216,-23.61062816624773],[-46.486068390211216,-23.610693326889365],[-46.48602227030736,-23.610888808814273],[-46.4859761504035,-23.611019130097546],[-46.4859761504035,-23.611084290739182],[-46.485930030499645,-23.61121461202245],[-46.485930030499645,-23.611279772664087],[-46.48588391059579,-23.61141009394736],[-46.48583779069193,-23.611605575872268],[-46.485791670788075,-23.611801057797177],[-46.48574555088422,-23.611931379080445],[-46.485699430980354,-23.612126861005354],[-46.4856533110765,-23.612126861005354],[-46.48560719117264,-23.612322342930263],[-46.48560719117264,-23.612452664213535],[-46.48556107126878,-23.612582985496804],[-46.48551495136493,-23.612778467421712],[-46.48546883146107,-23.61297394934662],[-46.48542271155721,-23.613104270629893],[-46.485376591653356,-23.6132997525548],[-46.485376591653356,-23.613364913196435],[-46.48533047174949,-23.613495234479707],[-46.48533047174949,-23.61362555576298],[-46.48523823194178,-23.613755877046252],[-46.48519211203792,-23.613951358971157],[-46.485145992134065,-23.614146840896066],[-46.48509987223021,-23.614277162179338],[-46.48505375232635,-23.614472644104247],[-46.485007632422494,-23.61466812602915],[-46.48496151251863,-23.614798447312424],[-46.484915392614774,-23.614993929237333],[-46.48486927271092,-23.615124250520605],[-46.48482315280706,-23.61531973244551],[-46.4847770329032,-23.615450053728782],[-46.4847770329032,-23.615580375012055],[-46.484730912999346,-23.615580375012055],[-46.484730912999346,-23.61564553565369],[-46.48468479309549,-23.61564553565369],[-46.48463867319163,-23.615775856936963],[-46.48454643338391,-23.615906178220232],[-46.484361953768484,-23.616036499503505],[-46.48431583386463,-23.61610166014514],[-46.48426971396077,-23.616231981428413],[-46.48417747415305,-23.61642746335332],[-46.484085234345336,-23.61655778463659],[-46.484085234345336,-23.616622945278227],[-46.48399299453762,-23.6167532665615],[-46.483946874633766,-23.61688358784477],[-46.4839007547299,-23.617013909128044],[-46.48380851492219,-23.617144230411316],[-46.48376239501833,-23.61720939105295],[-46.48376239501833,-23.617274551694585],[-46.483716275114475,-23.61733971233622],[-46.483716275114475,-23.617404872977858],[-46.483716275114475,-23.617470033619494],[-46.483716275114475,-23.61753519426113],[-46.48376239501833,-23.617665515544402],[-46.48380851492219,-23.617795836827675],[-46.48380851492219,-23.61799131875258],[-46.483854634826045,-23.618121640035852],[-46.483854634826045,-23.61818680067749],[-46.483854634826045,-23.618251961319125],[-46.483854634826045,-23.61831712196076],[-46.483854634826045,-23.618382282602397],[-46.483854634826045,-23.618447443244033],[-46.48380851492219,-23.61851260388567],[-46.48380851492219,-23.618577764527302],[-46.48376239501833,-23.61864292516894],[-46.483716275114475,-23.61877324645221],[-46.48367015521062,-23.618903567735483],[-46.48362403530676,-23.61896872837712],[-46.48362403530676,-23.619033889018755],[-46.48362403530676,-23.61909904966039],[-46.48362403530676,-23.61922937094366],[-46.48362403530676,-23.619294531585297],[-46.48362403530676,-23.619490013510205],[-46.48362403530676,-23.619685495435114],[-46.48362403530676,-23.619815816718386],[-46.48362403530676,-23.62001129864329],[-46.48362403530676,-23.6202067805682],[-46.48362403530676,-23.620271941209836],[-46.48362403530676,-23.620337101851472],[-46.48362403530676,-23.62040226249311],[-46.483577915402904,-23.620467423134745],[-46.483577915402904,-23.62053258377638],[-46.48353179549904,-23.620597744418014],[-46.48353179549904,-23.62066290505965],[-46.48348567559518,-23.620793226342922],[-46.48343955569133,-23.62098870826783],[-46.48343955569133,-23.621053868909467],[-46.48343955569133,-23.621119029551103],[-46.48343955569133,-23.62118419019274],[-46.48343955569133,-23.621249350834372],[-46.48343955569133,-23.621314511476008],[-46.48343955569133,-23.621379672117644],[-46.48348567559518,-23.62144483275928],[-46.48348567559518,-23.621575154042553],[-46.483577915402904,-23.62177063596746],[-46.48362403530676,-23.62190095725073],[-46.48367015521062,-23.622031278534003],[-46.483716275114475,-23.622161599817275],[-46.483716275114475,-23.622291921100548],[-46.48376239501833,-23.62242224238382],[-46.48380851492219,-23.622487403025456],[-46.48380851492219,-23.622552563667092],[-46.48380851492219,-23.622617724308725],[-46.48380851492219,-23.622748045591997],[-46.48380851492219,-23.62287836687527],[-46.48380851492219,-23.623008688158542],[-46.483854634826045,-23.62307384880018],[-46.4839007547299,-23.623269330725083],[-46.483946874633766,-23.623464812649992],[-46.483946874633766,-23.623595133933264],[-46.48399299453762,-23.623725455216537],[-46.48403911444148,-23.623920937141442],[-46.48403911444148,-23.623986097783078],[-46.48417747415305,-23.623920937141442],[-46.48422359405691,-23.623986097783078],[-46.48426971396077,-23.623986097783078],[-46.48454643338391,-23.623920937141442],[-46.48459255328777,-23.62385577649981],[-46.48463867319163,-23.62385577649981],[-46.48468479309549,-23.62385577649981],[-46.48468479309549,-23.623790615858173],[-46.484730912999346,-23.623725455216537],[-46.484730912999346,-23.623595133933264],[-46.4847770329032,-23.623529973291628],[-46.4847770329032,-23.623464812649992],[-46.4847770329032,-23.623399652008356],[-46.48482315280706,-23.623269330725083],[-46.48486927271092,-23.623139009441815],[-46.48486927271092,-23.62307384880018],[-46.484915392614774,-23.62307384880018],[-46.48496151251863,-23.623008688158542],[-46.485007632422494,-23.623008688158542],[-46.48505375232635,-23.623008688158542],[-46.48509987223021,-23.623008688158542],[-46.485145992134065,-23.623008688158542],[-46.48519211203792,-23.623008688158542],[-46.485284351845635,-23.623008688158542],[-46.48542271155721,-23.623008688158542],[-46.48546883146107,-23.623008688158542],[-46.48556107126878,-23.623008688158542],[-46.4856533110765,-23.623008688158542],[-46.485699430980354,-23.623008688158542],[-46.485791670788075,-23.623008688158542],[-46.48583779069193,-23.623008688158542],[-46.48588391059579,-23.623008688158542],[-46.485930030499645,-23.623008688158542],[-46.48602227030736,-23.622943527516906],[-46.486068390211216,-23.622943527516906],[-46.48611451011508,-23.622943527516906],[-46.48616063001894,-23.622943527516906],[-46.48625286982665,-23.622943527516906],[-46.486345109634364,-23.62287836687527],[-46.48639122953822,-23.62287836687527],[-46.48648346934594,-23.62287836687527],[-46.48666794896137,-23.62287836687527],[-46.48676018876908,-23.62287836687527],[-46.4868524285768,-23.62287836687527],[-46.48689854848066,-23.622943527516906],[-46.486990788288374,-23.622943527516906],[-46.486990788288374,-23.623008688158542],[-46.48703690819223,-23.62307384880018],[-46.48708302809609,-23.623139009441815],[-46.48708302809609,-23.62320417008345],[-46.487129147999944,-23.62320417008345],[-46.4871752679038,-23.623269330725083],[-46.487221387807665,-23.62333449136672],[-46.48726750771152,-23.62333449136672],[-46.48731362761538,-23.623399652008356],[-46.487359747519235,-23.623399652008356],[-46.487359747519235,-23.623464812649992],[-46.48740586742309,-23.623464812649992],[-46.48745198732695,-23.623464812649992],[-46.487498107230806,-23.623529973291628],[-46.48754422713466,-23.623529973291628],[-46.48754422713466,-23.623595133933264],[-46.48759034703853,-23.623595133933264],[-46.48768258684624,-23.6236602945749],[-46.48768258684624,-23.623725455216537],[-46.4877287067501,-23.623725455216537],[-46.4877287067501,-23.623790615858173],[-46.487774826653954,-23.623790615858173],[-46.487774826653954,-23.62385577649981],[-46.48782094655781,-23.62385577649981],[-46.48786706646167,-23.623920937141442],[-46.487913186365525,-23.623986097783078],[-46.487913186365525,-23.624051258424714],[-46.48795930626939,-23.624051258424714],[-46.488005426173245,-23.62411641906635],[-46.4880515460771,-23.62411641906635],[-46.48809766598096,-23.62411641906635],[-46.488143785884816,-23.62411641906635],[-46.48818990578867,-23.62411641906635],[-46.48823602569253,-23.62411641906635],[-46.488282145596386,-23.62411641906635],[-46.48837438540411,-23.62411641906635],[-46.488420505307964,-23.62411641906635],[-46.48846662521182,-23.62411641906635],[-46.488558865019534,-23.624051258424714],[-46.48865110482725,-23.624051258424714],[-46.48874334463497,-23.624051258424714],[-46.488789464538826,-23.624051258424714],[-46.48888170434654,-23.624051258424714],[-46.488927824250396,-23.624051258424714],[-46.48897394415425,-23.624051258424714],[-46.489066183961974,-23.62411641906635],[-46.48915842376969,-23.62411641906635],[-46.4892506635774,-23.62411641906635],[-46.48938902328898,-23.624181579707987],[-46.48952738300055,-23.624181579707987],[-46.489573502904406,-23.624246740349623],[-46.48961962280826,-23.624246740349623],[-46.48971186261598,-23.62431190099126],[-46.48975798251984,-23.624377061632895],[-46.48975798251984,-23.624507382916168],[-46.4898041024237,-23.624572543557804],[-46.489850222327554,-23.624637704199436],[-46.48989634223141,-23.624702864841073],[-46.489988582039125,-23.624702864841073],[-46.49003470194298,-23.624702864841073],[-46.49008082184684,-23.624702864841073],[-46.49008082184684,-23.62476802548271],[-46.4901269417507,-23.62476802548271],[-46.49017306165456,-23.62476802548271],[-46.490219181558416,-23.62476802548271],[-46.49026530146227,-23.62476802548271],[-46.49031142136613,-23.62476802548271],[-46.49040366117384,-23.62476802548271],[-46.4904497810777,-23.62476802548271],[-46.490495900981564,-23.62476802548271],[-46.49054202088542,-23.62476802548271],[-46.49058814078928,-23.62476802548271],[-46.490634260693135,-23.624702864841073],[-46.49068038059699,-23.624702864841073],[-46.49072650050085,-23.624702864841073],[-46.49081874030856,-23.624702864841073],[-46.49081874030856,-23.624637704199436],[-46.49091098011628,-23.624637704199436],[-46.49095710002014,-23.624637704199436],[-46.491003219923996,-23.624637704199436],[-46.49109545973171,-23.624572543557804],[-46.491187699539424,-23.624572543557804],[-46.491418299058715,-23.62444222227453],[-46.49160277867415,-23.62444222227453],[-46.491648898578006,-23.62444222227453],[-46.49169501848186,-23.62444222227453],[-46.49174113838572,-23.62444222227453],[-46.491833378193434,-23.62444222227453],[-46.49192561800115,-23.62444222227453],[-46.49197173790501,-23.62444222227453],[-46.49201785780887,-23.62444222227453],[-46.492063977712725,-23.624377061632895],[-46.49211009761658,-23.624377061632895],[-46.49215621752044,-23.624377061632895],[-46.49224845732815,-23.62431190099126],[-46.49234069713587,-23.62431190099126],[-46.49238681703973,-23.62431190099126],[-46.49247905684744,-23.624377061632895],[-46.49257129665516,-23.624377061632895],[-46.492617416559014,-23.624377061632895],[-46.49266353646287,-23.62444222227453],[-46.492709656366735,-23.624507382916168],[-46.49275577627059,-23.624572543557804],[-46.49280189617445,-23.624637704199436],[-46.492848016078305,-23.624637704199436],[-46.49289413598216,-23.624702864841073],[-46.49289413598216,-23.62476802548271],[-46.49294025588602,-23.624833186124345],[-46.492986375789876,-23.62489834676598],[-46.49303249569373,-23.624963507407617],[-46.4930786155976,-23.62509382869089],[-46.49312473550145,-23.625158989332526],[-46.49312473550145,-23.625224149974162],[-46.49317085540531,-23.625289310615795],[-46.49321697530917,-23.62535447125743],[-46.493263095213024,-23.625419631899067],[-46.49330921511688,-23.625419631899067],[-46.49330921511688,-23.625484792540703],[-46.49335533502074,-23.625484792540703],[-46.493401454924594,-23.625484792540703],[-46.493493694732315,-23.625484792540703],[-46.49358593454003,-23.625419631899067],[-46.493632054443886,-23.625419631899067],[-46.49367817434774,-23.625419631899067],[-46.493770414155456,-23.625419631899067],[-46.49386265396318,-23.62535447125743],[-46.493908773867034,-23.62535447125743],[-46.49395489377089,-23.62535447125743],[-46.494047133578604,-23.62535447125743],[-46.49409325348246,-23.62535447125743],[-46.49413937338632,-23.62535447125743],[-46.49418549329018,-23.62535447125743],[-46.494277733097896,-23.62535447125743],[-46.49432385300175,-23.625289310615795],[-46.49436997290561,-23.625289310615795],[-46.49436997290561,-23.625224149974162],[-46.494416092809466,-23.625224149974162],[-46.49446221271332,-23.625224149974162],[-46.49450833261719,-23.625158989332526],[-46.494554452521044,-23.62509382869089],[-46.4946005724249,-23.625028668049254],[-46.49464669232876,-23.624963507407617],[-46.494692812232614,-23.62489834676598],[-46.49473893213647,-23.624833186124345],[-46.49478505204033,-23.62476802548271],[-46.494831171944185,-23.62476802548271],[-46.49487729184805,-23.624702864841073],[-46.494923411751905,-23.624702864841073],[-46.49496953165576,-23.624702864841073],[-46.495061771463476,-23.624637704199436],[-46.49515401127119,-23.624637704199436],[-46.49524625107891,-23.624637704199436],[-46.49529237098277,-23.624572543557804],[-46.49538461079048,-23.624572543557804],[-46.49556909040591,-23.624507382916168],[-46.49566133021363,-23.624507382916168],[-46.4957996899252,-23.62444222227453],[-46.49593804963677,-23.62444222227453],[-46.495984169540634,-23.624377061632895],[-46.49603028944449,-23.624377061632895],[-46.49607640934835,-23.62444222227453],[-46.496122529252204,-23.62444222227453],[-46.49616864915606,-23.62444222227453],[-46.496260888963775,-23.62444222227453],[-46.496353128771496,-23.624507382916168],[-46.49653760838692,-23.624572543557804],[-46.49658372829078,-23.624572543557804],[-46.49672208800236,-23.624702864841073],[-46.49686044771393,-23.62476802548271],[-46.49695268752164,-23.62476802548271],[-46.49709104723322,-23.624833186124345],[-46.497137167137076,-23.62489834676598],[-46.49722940694479,-23.62489834676598],[-46.49727552684865,-23.62489834676598],[-46.49736776665636,-23.62489834676598],[-46.49741388656022,-23.62489834676598],[-46.49746000646408,-23.62489834676598],[-46.49750612636794,-23.62489834676598],[-46.497552246271795,-23.62489834676598],[-46.497690605983365,-23.62489834676598],[-46.49778284579108,-23.62489834676598],[-46.49782896569494,-23.62489834676598],[-46.4978750855988,-23.62489834676598],[-46.49796732540651,-23.62489834676598],[-46.49796732540651,-23.624833186124345],[-46.498105685118084,-23.62476802548271],[-46.49815180502194,-23.62476802548271],[-46.498197924925805,-23.624702864841073],[-46.49824404482966,-23.624637704199436],[-46.49829016473352,-23.624572543557804],[-46.498336284637375,-23.624572543557804],[-46.49838240454123,-23.624507382916168],[-46.49842852444509,-23.62444222227453],[-46.498474644348946,-23.624377061632895],[-46.498566884156666,-23.624246740349623],[-46.49861300406052,-23.62411641906635],[-46.49870524386824,-23.624051258424714],[-46.498751363772094,-23.623986097783078],[-46.49879748367595,-23.623920937141442],[-46.49884360357981,-23.62385577649981],[-46.498889723483664,-23.62385577649981],[-46.49893584338753,-23.62385577649981],[-46.49902808319524,-23.62385577649981],[-46.49916644290681,-23.623790615858173],[-46.499258682714526,-23.623790615858173],[-46.499397042426104,-23.623790615858173],[-46.499627641945395,-23.62385577649981],[-46.49981212156082,-23.62385577649981],[-46.499904361368536,-23.62385577649981],[-46.50004272108011,-23.62385577649981],[-46.50008884098397,-23.62385577649981],[-46.500181080791684,-23.62385577649981],[-46.50022720069554,-23.62385577649981],[-46.50036556040712,-23.623920937141442],[-46.500411680310975,-23.623920937141442],[-46.50045780021483,-23.623986097783078],[-46.5005961599264,-23.624051258424714],[-46.50064227983026,-23.624051258424714],[-46.50064227983026,-23.62411641906635],[-46.500688399734116,-23.62411641906635],[-46.500688399734116,-23.624181579707987],[-46.50073451963798,-23.624181579707987],[-46.50078063954184,-23.624246740349623],[-46.500826759445694,-23.624246740349623],[-46.50091899925341,-23.62431190099126],[-46.500965119157264,-23.624377061632895],[-46.50101123906112,-23.62444222227453],[-46.50110347886884,-23.624507382916168],[-46.501195718676556,-23.624572543557804],[-46.50128795848427,-23.624637704199436],[-46.50138019829198,-23.624637704199436],[-46.50142631819584,-23.624702864841073],[-46.50156467790742,-23.62476802548271],[-46.501610797811274,-23.62476802548271],[-46.50165691771513,-23.624833186124345],[-46.50170303761899,-23.624833186124345],[-46.501841397330566,-23.62489834676598],[-46.50188751723442,-23.62489834676598],[-46.50202587694599,-23.624963507407617],[-46.50207199684985,-23.624963507407617],[-46.50211811675371,-23.624963507407617],[-46.50216423665756,-23.625028668049254],[-46.502256476465284,-23.62509382869089],[-46.50230259636914,-23.62509382869089],[-46.502348716273,-23.62509382869089],[-46.502394836176855,-23.625158989332526],[-46.50244095608071,-23.625158989332526],[-46.50248707598457,-23.625224149974162],[-46.50257931579229,-23.625289310615795],[-46.502625435696146,-23.62535447125743],[-46.5026715556,-23.62535447125743],[-46.50271767550386,-23.625419631899067],[-46.502763795407716,-23.625419631899067],[-46.50290215511929,-23.625484792540703],[-46.50294827502315,-23.625484792540703],[-46.503040514830865,-23.625484792540703],[-46.503178874542435,-23.62554995318234],[-46.50322499444629,-23.62554995318234],[-46.50331723425401,-23.62554995318234],[-46.50336335415787,-23.62554995318234],[-46.503409474061726,-23.62554995318234],[-46.50345559396558,-23.62554995318234],[-46.50350171386944,-23.62554995318234],[-46.5035478337733,-23.62554995318234],[-46.503593953677154,-23.62554995318234],[-46.50364007358101,-23.625615113823976],[-46.503686193484874,-23.625615113823976],[-46.50373231338873,-23.625615113823976],[-46.50377843329259,-23.625615113823976],[-46.503824553196445,-23.625615113823976],[-46.50391679300416,-23.625615113823976],[-46.503962912908015,-23.625615113823976],[-46.50400903281187,-23.625680274465612],[-46.50423963233116,-23.625680274465612],[-46.5044241119466,-23.625680274465612],[-46.50451635175431,-23.62574543510725],[-46.50465471146588,-23.625680274465612],[-46.504746951273596,-23.625680274465612],[-46.50483919108132,-23.625680274465612],[-46.50493143088903,-23.625680274465612],[-46.505023670696744,-23.625615113823976],[-46.505115910504465,-23.625615113823976],[-46.50520815031218,-23.625615113823976],[-46.50530039011989,-23.625680274465612],[-46.505392629927606,-23.62574543510725],[-46.50557710954304,-23.62574543510725],[-46.50571546925461,-23.625810595748884],[-46.505807709062324,-23.625810595748884],[-46.50585382896619,-23.62587575639052],[-46.5059460687739,-23.62587575639052],[-46.50599218867776,-23.62587575639052],[-46.506038308581616,-23.625940917032153],[-46.50613054838933,-23.625940917032153],[-46.506176668293186,-23.62600607767379],[-46.50622278819705,-23.62600607767379],[-46.50636114790862,-23.625940917032153],[-46.50640726781248,-23.62600607767379],[-46.506453387716334,-23.62600607767379],[-46.50654562752405,-23.625940917032153],[-46.50663786733177,-23.625940917032153],[-46.506683987235625,-23.625940917032153],[-46.50673010713948,-23.62587575639052],[-46.50677622704334,-23.62587575639052],[-46.506822346947196,-23.625810595748884],[-46.50691458675491,-23.625810595748884],[-46.50700682656263,-23.62574543510725],[-46.50705294646649,-23.625680274465612],[-46.5071451862742,-23.625615113823976],[-46.50719130617806,-23.62554995318234],[-46.507237426081915,-23.62554995318234],[-46.507329665889635,-23.625484792540703],[-46.50742190569735,-23.625484792540703],[-46.50756026540892,-23.62535447125743],[-46.50765250521663,-23.62535447125743],[-46.50779086492821,-23.625224149974162],[-46.50783698483207,-23.625224149974162],[-46.507883104735924,-23.625158989332526],[-46.50792922463978,-23.62509382869089],[-46.50797534454364,-23.625028668049254],[-46.508021464447495,-23.625028668049254],[-46.508113704255216,-23.624963507407617],[-46.508113704255216,-23.62489834676598],[-46.508113704255216,-23.624833186124345],[-46.50815982415907,-23.624833186124345],[-46.508252063966786,-23.624833186124345],[-46.50829818387064,-23.62476802548271],[-46.5083443037745,-23.62476802548271],[-46.50839042367836,-23.62476802548271],[-46.50843654358222,-23.624702864841073],[-46.50857490329379,-23.624637704199436],[-46.50862102319765,-23.624572543557804],[-46.50871326300536,-23.624507382916168],[-46.50880550281308,-23.62444222227453],[-46.50885162271694,-23.624377061632895],[-46.508897742620796,-23.624377061632895],[-46.508897742620796,-23.62431190099126],[-46.50894386252465,-23.624246740349623],[-46.50898998242851,-23.624246740349623],[-46.50903610233237,-23.624181579707987],[-46.50903610233237,-23.62411641906635],[-46.50908222223622,-23.624051258424714],[-46.509174462043944,-23.623986097783078],[-46.5092205819478,-23.623920937141442],[-46.509312821755515,-23.62385577649981],[-46.509312821755515,-23.623790615858173],[-46.50935894165937,-23.623790615858173],[-46.50940506156323,-23.623725455216537],[-46.50949730137094,-23.6236602945749],[-46.50963566108252,-23.6236602945749],[-46.50968178098638,-23.623595133933264],[-46.50977402079409,-23.623595133933264],[-46.50982014069795,-23.623595133933264],[-46.509866260601804,-23.623529973291628],[-46.50991238050567,-23.623529973291628],[-46.509958500409525,-23.623529973291628],[-46.51000462031338,-23.623464812649992],[-46.51005074021724,-23.623464812649992],[-46.510096860121095,-23.623464812649992],[-46.510096860121095,-23.623399652008356],[-46.51014298002495,-23.623399652008356],[-46.51018909992881,-23.62333449136672],[-46.510235219832666,-23.62333449136672],[-46.510235219832666,-23.623269330725083],[-46.51028133973653,-23.623269330725083],[-46.510327459640386,-23.62320417008345],[-46.51037357954424,-23.623139009441815],[-46.5104196994481,-23.62307384880018],[-46.51046581935196,-23.623008688158542],[-46.510511939255814,-23.623008688158542],[-46.51055805915967,-23.622943527516906],[-46.51055805915967,-23.62287836687527],[-46.510604179063535,-23.62287836687527],[-46.510604179063535,-23.622813206233634],[-46.51065029896739,-23.622748045591997],[-46.51069641887125,-23.62268288495036],[-46.510742538775105,-23.622617724308725],[-46.51078865867896,-23.622552563667092],[-46.51078865867896,-23.62242224238382],[-46.51083477858282,-23.622357081742184],[-46.510880898486676,-23.622291921100548],[-46.51092701839053,-23.622291921100548],[-46.51092701839053,-23.62222676045891],[-46.510973138294396,-23.62222676045891],[-46.51101925819825,-23.62222676045891],[-46.51106537810211,-23.622161599817275],[-46.51111149800597,-23.622161599817275],[-46.511157617909824,-23.622161599817275],[-46.51120373781368,-23.622161599817275],[-46.51124985771754,-23.622161599817275],[-46.511295977621394,-23.622161599817275],[-46.51134209752526,-23.622161599817275],[-46.51143433733297,-23.622161599817275],[-46.511526577140685,-23.622161599817275],[-46.5116188169484,-23.62209643917564],[-46.511664936852256,-23.62209643917564],[-46.51175717665998,-23.621966117892367],[-46.51180329656383,-23.62190095725073],[-46.51180329656383,-23.621835796609098],[-46.51180329656383,-23.62177063596746],[-46.51189553637155,-23.621575154042553],[-46.51189553637155,-23.621509993400917],[-46.51189553637155,-23.62144483275928],[-46.511941656275404,-23.621379672117644],[-46.51198777617926,-23.621249350834372],[-46.51203389608312,-23.62118419019274],[-46.51208001598698,-23.621119029551103],[-46.51212613589084,-23.621053868909467],[-46.512172255794695,-23.62098870826783],[-46.51221837569855,-23.62085838698456],[-46.51226449560241,-23.620793226342922],[-46.512310615506266,-23.62066290505965],[-46.51235673541012,-23.620597744418014],[-46.51240285531398,-23.62053258377638],[-46.51244897521784,-23.62040226249311],[-46.5124950951217,-23.62040226249311],[-46.512587334929414,-23.620337101851472],[-46.512587334929414,-23.620271941209836],[-46.51263345483327,-23.6202067805682],[-46.512725694640984,-23.620076459284927],[-46.51277181454484,-23.62001129864329],[-46.512817934448705,-23.619946138001655],[-46.512817934448705,-23.61988097736002],[-46.51286405435256,-23.619815816718386],[-46.512956294160276,-23.619685495435114],[-46.51304853396799,-23.619490013510205],[-46.5131407737757,-23.61942485286857],[-46.5131407737757,-23.619359692226933],[-46.513233013583424,-23.61922937094366],[-46.51327913348728,-23.61909904966039],[-46.51332525339114,-23.619033889018755],[-46.513371373294994,-23.619033889018755],[-46.51346361310271,-23.618903567735483],[-46.51355585291043,-23.618903567735483],[-46.51364809271814,-23.618838407093847],[-46.51378645242971,-23.61877324645221],[-46.51387869223743,-23.618708085810574],[-46.514017051949004,-23.618708085810574],[-46.51410929175672,-23.61864292516894],[-46.51424765146829,-23.61864292516894],[-46.51429377137215,-23.618577764527302],[-46.51443213108372,-23.61851260388567],[-46.51457049079529,-23.618447443244033],[-46.51475497041073,-23.618382282602397],[-46.514939450026155,-23.61831712196076],[-46.51507780973773,-23.61831712196076],[-46.515170049545446,-23.61831712196076],[-46.51526228935316,-23.61831712196076],[-46.51540064906474,-23.61831712196076],[-46.51549288887245,-23.61831712196076],[-46.515585128680165,-23.61831712196076],[-46.51572348839174,-23.618382282602397],[-46.5157696082956,-23.618382282602397],[-46.515815728199456,-23.618382282602397],[-46.51590796800717,-23.618382282602397],[-46.51595408791103,-23.618382282602397],[-46.51600020781488,-23.618382282602397],[-46.516092447622604,-23.61831712196076],[-46.516230807334175,-23.618251961319125],[-46.51632304714189,-23.618251961319125],[-46.5164152869496,-23.61818680067749],[-46.51650752675732,-23.618121640035852],[-46.51655364666118,-23.618121640035852],[-46.51659976656504,-23.618056479394216],[-46.51664588646889,-23.618056479394216],[-46.51669200637275,-23.618056479394216],[-46.516784246180464,-23.61799131875258],[-46.51683036608433,-23.61799131875258],[-46.516876485988185,-23.61799131875258],[-46.51692260589204,-23.617926158110944],[-46.5169687257959,-23.617926158110944],[-46.51706096560361,-23.617926158110944],[-46.517153205411326,-23.617926158110944],[-46.51719932531519,-23.617926158110944],[-46.5172915651229,-23.617860997469307],[-46.51733768502676,-23.617860997469307],[-46.517429924834474,-23.617795836827675],[-46.51752216464219,-23.617795836827675],[-46.51756828454605,-23.61773067618604],[-46.51761440444991,-23.61773067618604],[-46.517660524353765,-23.617665515544402],[-46.51770664425762,-23.617665515544402],[-46.51775276416148,-23.61753519426113],[-46.517798884065336,-23.61753519426113],[-46.51784500396919,-23.617470033619494],[-46.51789112387305,-23.617470033619494],[-46.51793724377691,-23.617404872977858],[-46.51798336368077,-23.61733971233622],[-46.51802948358463,-23.61720939105295],[-46.518075603488484,-23.617144230411316],[-46.51812172339234,-23.61707906976968],[-46.5181678432962,-23.617013909128044],[-46.518213963200054,-23.616948748486408],[-46.51826008310391,-23.61688358784477],[-46.518306203007775,-23.616818427203135],[-46.51835232291163,-23.616688105919863],[-46.51835232291163,-23.616622945278227],[-46.51839844281549,-23.616492623994958],[-46.51839844281549,-23.61642746335332],[-46.518444562719345,-23.61629714207005],[-46.518444562719345,-23.616231981428413],[-46.5184906826232,-23.616166820786777],[-46.51862904233477,-23.61610166014514],[-46.51867516223864,-23.616036499503505],[-46.51876740204635,-23.616036499503505],[-46.51890576175792,-23.61597133886187],[-46.51895188166178,-23.615906178220232],[-46.5190441214695,-23.6158410175786],[-46.519090241373355,-23.6158410175786],[-46.519366960796496,-23.615710696295327],[-46.519505320508074,-23.61564553565369],[-46.51959756031579,-23.615580375012055],[-46.51973592002736,-23.615580375012055],[-46.51982815983508,-23.61551521437042],[-46.51992039964279,-23.61551521437042],[-46.520012639450506,-23.61551521437042],[-46.520150999162084,-23.61551521437042],[-46.52033547877751,-23.615450053728782],[-46.520427718585225,-23.615450053728782],[-46.520519958392946,-23.615450053728782],[-46.5205660782968,-23.615384893087146],[-46.520658318104516,-23.615384893087146],[-46.52079667781609,-23.61531973244551],[-46.520935037527664,-23.615254571803874],[-46.52102727733538,-23.615189411162238],[-46.521073397239235,-23.615124250520605],[-46.52116563704695,-23.61505908987897],[-46.52121175695081,-23.614993929237333],[-46.52125787685467,-23.614928768595696],[-46.521303996758526,-23.61486360795406],[-46.52135011666238,-23.614733286670788],[-46.52135011666238,-23.61466812602915],[-46.52139623656624,-23.614602965387515],[-46.52139623656624,-23.61453780474588],[-46.52139623656624,-23.61440748346261],[-46.5214423564701,-23.61440748346261],[-46.52148847637395,-23.614277162179338],[-46.52153459627781,-23.6142120015377],[-46.52153459627781,-23.614146840896066],[-46.521580716181674,-23.614146840896066],[-46.521580716181674,-23.61408168025443],[-46.52162683608553,-23.61408168025443],[-46.52167295598939,-23.614016519612793],[-46.521719075893245,-23.614016519612793],[-46.521857435604815,-23.613951358971157],[-46.521949675412536,-23.61388619832952],[-46.52204191522025,-23.61388619832952],[-46.52213415502796,-23.613821037687888],[-46.52218027493182,-23.613821037687888],[-46.5223186346434,-23.613821037687888],[-46.52241087445111,-23.613821037687888],[-46.52254923416268,-23.613821037687888],[-46.522641473970396,-23.613821037687888],[-46.52268759387426,-23.613821037687888],[-46.52287207348969,-23.61388619832952],[-46.5229643132974,-23.61388619832952],[-46.5229643132974,-23.613821037687888],[-46.5229643132974,-23.613755877046252],[-46.5229643132974,-23.613690716404616],[-46.5229643132974,-23.61362555576298],[-46.52301043320126,-23.613560395121343],[-46.52301043320126,-23.613495234479707],[-46.52305655310512,-23.61343007383807],[-46.52305655310512,-23.613364913196435],[-46.52310267300898,-23.613364913196435],[-46.523148792912835,-23.6132997525548],[-46.523148792912835,-23.613234591913162],[-46.52324103272055,-23.613169431271526],[-46.52324103272055,-23.613104270629893],[-46.52337939243212,-23.61297394934662],[-46.52342551233598,-23.612908788704985],[-46.5235177521437,-23.61284362806335],[-46.52356387204755,-23.612778467421712],[-46.52365611185527,-23.612713306780076],[-46.52374835166298,-23.612582985496804],[-46.523794471566845,-23.612582985496804],[-46.5238405914707,-23.612517824855168],[-46.523932831278415,-23.6123875035719],[-46.52402507108613,-23.612257182288626],[-46.524071190989986,-23.612126861005354],[-46.52411731089384,-23.612061700363718],[-46.52416343079771,-23.61199653972208],[-46.52420955070156,-23.611931379080445],[-46.52425567060542,-23.61186621843881],[-46.52430179050928,-23.611801057797177],[-46.524347910413134,-23.61173589715554],[-46.52439403031699,-23.61173589715554],[-46.524486270124704,-23.61173589715554],[-46.524578509932425,-23.611670736513904],[-46.52462462983628,-23.611670736513904],[-46.52467074974014,-23.611670736513904],[-46.524716869643996,-23.611605575872268],[-46.52476298954785,-23.611605575872268],[-46.52476298954785,-23.611540415230632],[-46.52480910945171,-23.611540415230632],[-46.524855229355566,-23.611475254588996],[-46.52490134925943,-23.61141009394736],[-46.52494746916329,-23.611344933305723],[-46.52494746916329,-23.611279772664087],[-46.524993589067144,-23.611279772664087],[-46.524993589067144,-23.61121461202245],[-46.524993589067144,-23.611149451380815],[-46.524993589067144,-23.611084290739182],[-46.525039708971,-23.611019130097546],[-46.524993589067144,-23.61095396945591],[-46.524993589067144,-23.610888808814273],[-46.524993589067144,-23.610823648172637],[-46.52494746916329,-23.610693326889365],[-46.52494746916329,-23.61062816624773],[-46.52490134925943,-23.610497844964456],[-46.524855229355566,-23.61030236303955],[-46.52480910945171,-23.61030236303955],[-46.52480910945171,-23.610237202397915],[-46.52480910945171,-23.61017204175628],[-46.52476298954785,-23.61017204175628],[-46.52476298954785,-23.610106881114643],[-46.524716869643996,-23.60997655983137],[-46.52467074974014,-23.609911399189734],[-46.52462462983628,-23.609846238548098],[-46.52462462983628,-23.609781077906465],[-46.52453239002857,-23.609650756623193],[-46.524486270124704,-23.609585595981557],[-46.52444015022085,-23.60952043533992],[-46.52439403031699,-23.60952043533992],[-46.524347910413134,-23.609455274698284],[-46.52430179050928,-23.609390114056648],[-46.52425567060542,-23.609324953415012],[-46.52420955070156,-23.609324953415012],[-46.524071190989986,-23.60919463213174],[-46.52402507108613,-23.609129471490103],[-46.523932831278415,-23.60906431084847],[-46.52388671137456,-23.60906431084847],[-46.52388671137456,-23.608999150206834],[-46.5238405914707,-23.608933989565198],[-46.523794471566845,-23.608933989565198],[-46.523702231759124,-23.608803668281926],[-46.52360999195141,-23.608673346998653],[-46.52360999195141,-23.608608186357017],[-46.5235177521437,-23.608477865073745],[-46.52342551233598,-23.60828238314884],[-46.52342551233598,-23.608217222507204],[-46.52333327252826,-23.60808690122393],[-46.523287152624405,-23.60795657994066],[-46.52324103272055,-23.607826258657386],[-46.52319491281669,-23.607761098015754],[-46.52310267300898,-23.60763077673248],[-46.52305655310512,-23.607565616090845],[-46.5229643132974,-23.60750045544921],[-46.522918193393544,-23.607370134165937],[-46.52282595358583,-23.6073049735243],[-46.52277983368197,-23.607174652241028],[-46.522733713778116,-23.607174652241028],[-46.522641473970396,-23.60704433095776],[-46.52259535406654,-23.606979170316123],[-46.52245699435497,-23.60684884903285],[-46.5223186346434,-23.606718527749578],[-46.522272514739534,-23.606653367107942],[-46.52213415502796,-23.60652304582467],[-46.52213415502796,-23.606457885183033],[-46.52199579531639,-23.606327563899764],[-46.52213415502796,-23.606197242616492],[-46.52218027493182,-23.606132081974856],[-46.522272514739534,-23.606001760691584],[-46.52241087445111,-23.60587143940831],[-46.52241087445111,-23.605806278766675],[-46.52245699435497,-23.605741118125042],[-46.522503114258825,-23.605741118125042],[-46.52259535406654,-23.605545636200134],[-46.52268759387426,-23.60541531491686],[-46.52277983368197,-23.605350154275225],[-46.52282595358583,-23.605219832991953],[-46.5229643132974,-23.605089511708684],[-46.52305655310512,-23.60495919042541],[-46.52310267300898,-23.604894029783775],[-46.523148792912835,-23.60482886914214],[-46.52319491281669,-23.604763708500503],[-46.52324103272055,-23.604698547858867],[-46.52333327252826,-23.60463338721723],[-46.52337939243212,-23.604568226575594],[-46.52347163223984,-23.60437274465069],[-46.5235177521437,-23.60437274465069],[-46.52360999195141,-23.604242423367417],[-46.52374835166298,-23.604112102084144],[-46.5238405914707,-23.60404694144251],[-46.52388671137456,-23.60404694144251],[-46.52388671137456,-23.603981780800872],[-46.523932831278415,-23.603981780800872],[-46.52397895118227,-23.603981780800872],[-46.52402507108613,-23.603981780800872],[-46.524071190989986,-23.603981780800872],[-46.52425567060542,-23.60404694144251],[-46.52439403031699,-23.60404694144251],[-46.524578509932425,-23.604112102084144],[-46.524716869643996,-23.604112102084144],[-46.52490134925943,-23.60417726272578],[-46.525039708971,-23.604242423367417],[-46.52517806868257,-23.604242423367417],[-46.52527030849029,-23.604242423367417],[-46.52531642839415,-23.604242423367417],[-46.525362548298006,-23.604242423367417],[-46.52540866820186,-23.604242423367417],[-46.525500908009576,-23.60417726272578],[-46.52554702791343,-23.60417726272578],[-46.52559314781729,-23.604112102084144],[-46.52573150752887,-23.603981780800872],[-46.52586986724044,-23.6038514595176],[-46.526008226952015,-23.60372113823433],[-46.526146586663586,-23.60359081695106],[-46.526284946375156,-23.603460495667786],[-46.52633106627902,-23.60339533502615],[-46.52637718618288,-23.60339533502615],[-46.526423306086734,-23.60339533502615],[-46.52651554589445,-23.603330174384514],[-46.52660778570216,-23.603330174384514],[-46.52660778570216,-23.603265013742877],[-46.52670002550988,-23.603265013742877],[-46.52683838522145,-23.603265013742877],[-46.52683838522145,-23.60319985310124],[-46.52674614541374,-23.603004371176336],[-46.52665390560602,-23.602874049893064],[-46.52665390560602,-23.602808889251428],[-46.52660778570216,-23.60274372860979],[-46.526561665798305,-23.602678567968155],[-46.52651554589445,-23.602548246684883],[-46.526423306086734,-23.602352764759978],[-46.52637718618288,-23.60228760411834],[-46.526284946375156,-23.602092122193433],[-46.5262388264713,-23.60196180091016],[-46.52619270656744,-23.601896640268524],[-46.526146586663586,-23.601831479626888],[-46.526008226952015,-23.601570837060347],[-46.526008226952015,-23.60150567641871],[-46.526146586663586,-23.60150567641871],[-46.526284946375156,-23.60137535513544],[-46.52646942599059,-23.601310194493802],[-46.52660778570216,-23.601245033852166],[-46.52660778570216,-23.60117987321053],[-46.526792265317596,-23.601114712568894],[-46.52683838522145,-23.60104955192726],[-46.526930625029166,-23.600984391285625],[-46.52697674493302,-23.600984391285625],[-46.52702286483688,-23.60091923064399],[-46.52716122454846,-23.600788909360716],[-46.527345704163885,-23.60072374871908],[-46.52739182406774,-23.600658588077444],[-46.527437943971606,-23.600658588077444],[-46.52753018377932,-23.600593427435808],[-46.52766854349089,-23.600463106152535],[-46.52780690320247,-23.600332784869266],[-46.52789914301018,-23.60026762422763],[-46.527991382817895,-23.60026762422763],[-46.52808362262561,-23.600137302944358],[-46.528221982337186,-23.60007214230272],[-46.52836034204876,-23.600006981661085],[-46.52849870176033,-23.59994182101945],[-46.528637061471905,-23.599811499736177],[-46.52872930127962,-23.59974633909454],[-46.52886766099119,-23.599681178452908],[-46.52900602070277,-23.59961601781127],[-46.529190500318194,-23.599550857169636],[-46.529282740125915,-23.599550857169636],[-46.529421099837485,-23.599485696528],[-46.52960557945291,-23.599420535886363],[-46.52969781926063,-23.599420535886363],[-46.53002065858764,-23.59929021460309],[-46.530205138203065,-23.599225053961455],[-46.530343497914636,-23.599225053961455],[-46.53052797753007,-23.59915989331982],[-46.53066633724164,-23.599094732678182],[-46.53080469695322,-23.59902957203655],[-46.530850816857075,-23.59902957203655],[-46.5310352964725,-23.598964411394913],[-46.53117365618408,-23.598964411394913],[-46.53135813579951,-23.598899250753277],[-46.53145037560723,-23.59883409011164],[-46.531634855222656,-23.598768929470005],[-46.53181933483809,-23.59870376882837],[-46.53200381445352,-23.598638608186732],[-46.53218829406895,-23.598638608186732],[-46.53232665378052,-23.598573447545096],[-46.532418893588236,-23.598573447545096],[-46.53260337320367,-23.59850828690346],[-46.532695613011384,-23.598443126261824],[-46.532833972722955,-23.598443126261824],[-46.53301845233839,-23.598377965620188],[-46.53320293195382,-23.598312804978555],[-46.53338741156925,-23.59824764433692],[-46.53343353147311,-23.598182483695282],[-46.533479651376965,-23.598182483695282],[-46.53352577128082,-23.598117323053646],[-46.533710250896256,-23.597987001770374],[-46.533848610607826,-23.597987001770374],[-46.5339869703194,-23.597921841128738],[-46.53417144993483,-23.5978566804871],[-46.534263689742545,-23.597791519845465],[-46.53440204945412,-23.59772635920383],[-46.53454040916569,-23.597661198562196],[-46.534678768877264,-23.597530877278924],[-46.5348632484927,-23.597465716637288],[-46.534909368396555,-23.597465716637288],[-46.534909368396555,-23.59740055599565],[-46.53500160820427,-23.59740055599565],[-46.535047728108125,-23.597335395354015],[-46.53509384801198,-23.597335395354015],[-46.53527832762742,-23.597205074070743],[-46.53537056743513,-23.597205074070743],[-46.53537056743513,-23.597139913429107],[-46.53550892714671,-23.59707475278747],[-46.53564728685828,-23.597009592145838],[-46.53573952666599,-23.596944431504202],[-46.53578564656985,-23.596944431504202],[-46.535831766473706,-23.596879270862566],[-46.53592400628143,-23.59681411022093],[-46.53601624608914,-23.596748949579293],[-46.536108485896854,-23.59661862829602],[-46.53615460580071,-23.59661862829602],[-46.53629296551229,-23.59648830701275],[-46.536339085416145,-23.59648830701275],[-46.53638520532,-23.596423146371112],[-46.53638520532,-23.596357985729476],[-46.53629296551229,-23.596227664446207],[-46.53624684560843,-23.596097343162935],[-46.536200725704575,-23.595967021879662],[-46.53615460580071,-23.595967021879662],[-46.53615460580071,-23.595901861238026],[-46.536108485896854,-23.59583670059639],[-46.536062365993,-23.595706379313118],[-46.53597012618528,-23.595510897388213],[-46.53592400628143,-23.595445736746576],[-46.535831766473706,-23.595250254821668],[-46.535831766473706,-23.59518509418003],[-46.53573952666599,-23.59505477289676],[-46.535693406762135,-23.59492445161349],[-46.53560116695442,-23.594794130330218],[-46.535555047050565,-23.59459864840531],[-46.535462807242844,-23.594468327122037],[-46.53541668733899,-23.594338005838765],[-46.53541668733899,-23.594272845197132],[-46.53537056743513,-23.594272845197132],[-46.53532444753127,-23.594077363272223],[-46.53527832762742,-23.594012202630587],[-46.5351860878197,-23.59381672070568],[-46.53509384801198,-23.593686399422406],[-46.535047728108125,-23.5934909174975],[-46.53495548830041,-23.593295435572593],[-46.5348632484927,-23.59316511428932],[-46.53481712858884,-23.593034793006048],[-46.53472488878112,-23.592839311081143],[-46.534678768877264,-23.59270898979787],[-46.53463264897341,-23.592578668514598],[-46.53458652906955,-23.59251350787296],[-46.53454040916569,-23.592448347231326],[-46.53444816935798,-23.59225286530642],[-46.53440204945412,-23.592122544023148],[-46.53435592955026,-23.592057383381512],[-46.534263689742545,-23.591861901456603],[-46.53421756983869,-23.591666419531695],[-46.534125330030975,-23.591536098248426],[-46.53407921012712,-23.59147093760679],[-46.5339869703194,-23.59127545568188],[-46.53394085041554,-23.59114513439861],[-46.53389473051168,-23.591079973756973],[-46.533848610607826,-23.590884491832067],[-46.53375637080011,-23.590754170548795],[-46.533710250896256,-23.590623849265523],[-46.533618011088535,-23.590428367340614],[-46.53352577128082,-23.59029804605734],[-46.533479651376965,-23.590167724774073],[-46.53343353147311,-23.5900374034908],[-46.53343353147311,-23.589972242849164],[-46.53329517176154,-23.589776760924256],[-46.53315681204996,-23.58945095771608],[-46.533064572242246,-23.58925547579117],[-46.533064572242246,-23.589190315149533],[-46.53297233243453,-23.58905999386626],[-46.532926212530676,-23.588929672582992],[-46.53288009262681,-23.58879935129972],[-46.5327878528191,-23.58860386937481],[-46.532695613011384,-23.58847354809154],[-46.53264949310753,-23.58827806616663],[-46.53260337320367,-23.588212905524998],[-46.53251113339595,-23.588082584241725],[-46.53251113339595,-23.58801742360009],[-46.532557253299814,-23.58782194167518],[-46.532557253299814,-23.587756781033544],[-46.53260337320367,-23.58756129910864],[-46.53264949310753,-23.587496138467003],[-46.53264949310753,-23.587430977825367],[-46.532695613011384,-23.587430977825367],[-46.532695613011384,-23.58736581718373],[-46.5327878528191,-23.587235495900458],[-46.53288009262681,-23.58704001397555],[-46.532926212530676,-23.586974853333913],[-46.533064572242246,-23.58677937140901],[-46.53315681204996,-23.586649050125736],[-46.53315681204996,-23.5865838894841],[-46.53324905185767,-23.586453568200827],[-46.533341291665394,-23.586323246917555],[-46.533341291665394,-23.58625808627592],[-46.53343353147311,-23.58612776499265],[-46.53352577128082,-23.585997443709378],[-46.53357189118468,-23.58593228306774],[-46.5336641309924,-23.585736801142833],[-46.5336641309924,-23.585671640501197],[-46.53375637080011,-23.585541319217928],[-46.53380249070397,-23.58547615857629],[-46.533848610607826,-23.58534583729302],[-46.53394085041554,-23.58515035536811],[-46.53394085041554,-23.585085194726474],[-46.53403309022326,-23.584954873443202],[-46.53407921012712,-23.58488971280157],[-46.53407921012712,-23.584824552159933],[-46.534125330030975,-23.584759391518297],[-46.53421756983869,-23.584629070235025],[-46.534263689742545,-23.58456390959339],[-46.53435592955026,-23.584498748951752],[-46.53440204945412,-23.58436842766848],[-46.53454040916569,-23.58423810638521],[-46.534678768877264,-23.58410778510194],[-46.53472488878112,-23.584042624460302]]]}}]}