{"type":"FeatureCollection","features":[{"type":"Feature","properties":{"DATA_ULT_A":"2009/10/09","DATA_CRIAC":"2009/10/09","id":"09","name":"Sé","area":26.2,"pop_2010":431106,"pop_density_2010":16454,"budget_2015":75416389},"geometry":{"type":"Polygon","coordinates":[[[-46.65403708006107,-23.51686200293374],[-46.653114681983915,-23.516927163575374],[-46.651777204772046,-23.51712264550028],[-46.65163884506047,-23.517187806141916],[-46.65071644698332,-23.517252966783552],[-46.65067032707946,-23.517318127425188],[-46.6503013678486,-23.517318127425188],[-46.65020912804088,-23.517383288066824],[-46.646427295924546,-23.517839412558274],[-46.641215746788625,-23.51855617961627],[-46.64061618803847,-23.518491018974633],[-46.63863303217259,-23.51855617961627],[-46.636004197652696,-23.51868650089954],[-46.634943439863974,-23.518816822182814],[-46.63189952620936,-23.519012304107722],[-46.63176116649779,-23.519012304107722],[-46.630792648516774,-23.519077464749355],[-46.630377569382055,-23.519077464749355],[-46.6303314494782,-23.519077464749355],[-46.63028532957434,-23.519077464749355],[-46.630239209670485,-23.519077464749355],[-46.63019308976663,-23.51914262539099],[-46.630146969862764,-23.51914262539099],[-46.62558109938085,-23.519403267957536],[-46.625534979476996,-23.519403267957536],[-46.625534979476996,-23.519468428599172],[-46.625534979476996,-23.519598749882444],[-46.625534979476996,-23.51966391052408],[-46.625534979476996,-23.519729071165713],[-46.625534979476996,-23.51979423180735],[-46.625534979476996,-23.519859392448986],[-46.625534979476996,-23.519989713732258],[-46.62558109938085,-23.520054874373894],[-46.62558109938085,-23.52012003501553],[-46.62558109938085,-23.520185195657167],[-46.62558109938085,-23.520250356298803],[-46.62558109938085,-23.52031551694044],[-46.62558109938085,-23.52038067758207],[-46.62558109938085,-23.520641320148616],[-46.62558109938085,-23.520706480790253],[-46.62558109938085,-23.52077164143189],[-46.62558109938085,-23.520836802073525],[-46.62558109938085,-23.520967123356797],[-46.62558109938085,-23.521032283998434],[-46.62558109938085,-23.52122776592334],[-46.62558109938085,-23.52135808720661],[-46.62558109938085,-23.521423247848247],[-46.62562721928471,-23.521618729773156],[-46.62562721928471,-23.521683890414792],[-46.62562721928471,-23.52181421169806],[-46.62562721928471,-23.521944532981333],[-46.62562721928471,-23.52200969362297],[-46.625673339188566,-23.522205175547878],[-46.625673339188566,-23.522270336189514],[-46.625673339188566,-23.52233549683115],[-46.625673339188566,-23.52259613939769],[-46.625673339188566,-23.522726460680964],[-46.625673339188566,-23.5227916213226],[-46.625673339188566,-23.522856781964236],[-46.625673339188566,-23.52298710324751],[-46.625673339188566,-23.523052263889145],[-46.625673339188566,-23.523117424530778],[-46.625673339188566,-23.523182585172414],[-46.625673339188566,-23.523312906455686],[-46.625673339188566,-23.52344322773896],[-46.625673339188566,-23.523638709663867],[-46.62571945909242,-23.523703870305503],[-46.62571945909242,-23.523769030947136],[-46.62571945909242,-23.523834191588772],[-46.62571945909242,-23.52389935223041],[-46.62571945909242,-23.523964512872045],[-46.62571945909242,-23.524094834155317],[-46.62571945909242,-23.524290316080226],[-46.62571945909242,-23.524550958646767],[-46.62571945909242,-23.524616119288403],[-46.62571945909242,-23.52468127993004],[-46.62571945909242,-23.52481160121331],[-46.62571945909242,-23.52500708313822],[-46.62576557899628,-23.52526772570476],[-46.62576557899628,-23.525398046988034],[-46.62576557899628,-23.525528368271306],[-46.62576557899628,-23.525593528912943],[-46.62576557899628,-23.52565868955458],[-46.62576557899628,-23.525789010837848],[-46.62576557899628,-23.52591933212112],[-46.62576557899628,-23.525984492762756],[-46.62576557899628,-23.526049653404392],[-46.62576557899628,-23.526179974687665],[-46.62576557899628,-23.526310295970937],[-46.62576557899628,-23.526440617254206],[-46.62576557899628,-23.526505777895842],[-46.62576557899628,-23.52657093853748],[-46.62576557899628,-23.526636099179115],[-46.625811698900144,-23.52689674174566],[-46.625811698900144,-23.52735286623711],[-46.625811698900144,-23.527418026878745],[-46.625811698900144,-23.527548348162018],[-46.625811698900144,-23.52793931201183],[-46.625857818804,-23.528460597144917],[-46.625857818804,-23.52859091842819],[-46.625857818804,-23.528656079069826],[-46.625857818804,-23.528721239711462],[-46.625857818804,-23.52924252484455],[-46.62590393870786,-23.529959291902543],[-46.62590393870786,-23.53002445254418],[-46.62590393870786,-23.53015477382745],[-46.62590393870786,-23.530219934469088],[-46.62590393870786,-23.530415416393996],[-46.62590393870786,-23.53080638024381],[-46.62590393870786,-23.531132183451987],[-46.625950058611714,-23.531327665376896],[-46.62590393870786,-23.531392826018532],[-46.62590393870786,-23.53145798666017],[-46.625857818804,-23.531718629226713],[-46.625811698900144,-23.53178378986835],[-46.62571945909242,-23.531979271793254],[-46.62562721928471,-23.532109593076527],[-46.62558109938085,-23.532174753718163],[-46.625534979476996,-23.5322399143598],[-46.62539661976542,-23.532305075001435],[-46.625304379957704,-23.53250055692634],[-46.62525826005385,-23.532630878209613],[-46.62521214014999,-23.532761199492885],[-46.625166020246134,-23.532891520776158],[-46.62511990034228,-23.533087002701066],[-46.62507378043842,-23.53328248462597],[-46.62507378043842,-23.533347645267607],[-46.625027660534556,-23.53347796655088],[-46.625027660534556,-23.533608287834152],[-46.625027660534556,-23.53380376975906],[-46.625027660534556,-23.533999251683966],[-46.625027660534556,-23.534194733608874],[-46.625027660534556,-23.534390215533783],[-46.625027660534556,-23.53445537617542],[-46.62511990034228,-23.53445537617542],[-46.62511990034228,-23.534520536817052],[-46.62511990034228,-23.534585697458688],[-46.625166020246134,-23.53471601874196],[-46.625166020246134,-23.534846340025233],[-46.62521214014999,-23.53491150066687],[-46.62521214014999,-23.534976661308505],[-46.62525826005385,-23.535106982591778],[-46.625304379957704,-23.53517214323341],[-46.62548885957314,-23.535563107083227],[-46.625534979476996,-23.5356934283665],[-46.62558109938085,-23.535758589008136],[-46.62558109938085,-23.535823749649772],[-46.62590393870786,-23.536410195424494],[-46.62590393870786,-23.53647535606613],[-46.62599617851557,-23.536670837991036],[-46.626088418323285,-23.536866319915944],[-46.626088418323285,-23.53693148055758],[-46.62613453822714,-23.53693148055758],[-46.62613453822714,-23.536996641199217],[-46.62627289793872,-23.537257283765758],[-46.62627289793872,-23.537322444407394],[-46.62636513774643,-23.537452765690666],[-46.62636513774643,-23.537517926332303],[-46.62641125765029,-23.53758308697394],[-46.62641125765029,-23.537648247615575],[-46.626457377554146,-23.537648247615575],[-46.626457377554146,-23.53771340825721],[-46.626503497458,-23.537778568898847],[-46.62654961736187,-23.537908890182116],[-46.62664185716958,-23.53803921146539],[-46.62664185716958,-23.538104372107025],[-46.62664185716958,-23.53816953274866],[-46.62668797707344,-23.538234693390297],[-46.626734096977295,-23.53836501467357],[-46.626964696496586,-23.53882113916502],[-46.6270569363043,-23.539081781731564],[-46.627103056208156,-23.5391469423732],[-46.627103056208156,-23.539212103014833],[-46.62719529601587,-23.53940758493974],[-46.62733365572745,-23.539733388147923],[-46.627379775631304,-23.53979854878956],[-46.62765649505445,-23.54038499456428],[-46.62770261495831,-23.540450155205917],[-46.62770261495831,-23.540515315847554],[-46.627748734862166,-23.540515315847554],[-46.62793321447759,-23.54103660098064],[-46.62807157418917,-23.54129724354718],[-46.62807157418917,-23.541362404188817],[-46.628025454285314,-23.541362404188817],[-46.62797933438145,-23.541427564830453],[-46.62793321447759,-23.541557886113726],[-46.62788709457374,-23.54162304675536],[-46.62784097466988,-23.54162304675536],[-46.62779485476602,-23.541688207396998],[-46.627748734862166,-23.54181852868027],[-46.62770261495831,-23.54181852868027],[-46.627518135342875,-23.542014010605175],[-46.627379775631304,-23.542144331888448],[-46.62733365572745,-23.542144331888448],[-46.62733365572745,-23.542209492530084],[-46.62728753582359,-23.542209492530084],[-46.62724141591973,-23.54227465317172],[-46.62719529601587,-23.542339813813356],[-46.62714917611201,-23.542339813813356],[-46.62714917611201,-23.542404974454993],[-46.627103056208156,-23.542404974454993],[-46.6270569363043,-23.54247013509663],[-46.6270569363043,-23.542535295738265],[-46.62691857659273,-23.542795938304806],[-46.62682633678501,-23.54305658087135],[-46.62682633678501,-23.543121741512987],[-46.62682633678501,-23.543252062796256],[-46.62678021688115,-23.543317223437892],[-46.62668797707344,-23.54370818728771],[-46.62664185716958,-23.543903669212618],[-46.626595737265724,-23.54396882985425],[-46.626503497458,-23.54429463306243],[-46.62636513774643,-23.54475075755388],[-46.62641125765029,-23.54494623947879],[-46.626503497458,-23.54494623947879],[-46.62654961736187,-23.545467524611876],[-46.62654961736187,-23.545532685253512],[-46.62654961736187,-23.545793327820057],[-46.626595737265724,-23.54618429166987],[-46.626595737265724,-23.546249452311507],[-46.62664185716958,-23.546705576802957],[-46.62664185716958,-23.546770737444593],[-46.62664185716958,-23.546901058727865],[-46.62664185716958,-23.5469662193695],[-46.62668797707344,-23.547096540652774],[-46.62668797707344,-23.547226861936046],[-46.62668797707344,-23.54729202257768],[-46.62668797707344,-23.547357183219315],[-46.62668797707344,-23.54742234386095],[-46.626457377554146,-23.54742234386095],[-46.626457377554146,-23.547487504502588],[-46.626457377554146,-23.547552665144224],[-46.626457377554146,-23.54761782578586],[-46.626457377554146,-23.547682986427496],[-46.626457377554146,-23.547748147069132],[-46.626457377554146,-23.54781330771077],[-46.626457377554146,-23.547878468352405],[-46.626457377554146,-23.547943628994037],[-46.62641125765029,-23.548008789635674],[-46.62641125765029,-23.54807395027731],[-46.62636513774643,-23.548139110918946],[-46.62627289793872,-23.54839975348549],[-46.626180658131005,-23.548464914127127],[-46.62613453822714,-23.5485952354104],[-46.62590393870786,-23.54885587797694],[-46.62571945909242,-23.54918168118512],[-46.62562721928471,-23.54931200246839],[-46.62562721928471,-23.549377163110027],[-46.62558109938085,-23.5495074843933],[-46.625534979476996,-23.549572645034935],[-46.62548885957314,-23.549768126959844],[-46.62539661976542,-23.550028769526385],[-46.62525826005385,-23.550354572734566],[-46.625166020246134,-23.550680375942743],[-46.62511990034228,-23.550810697226016],[-46.62511990034228,-23.550875857867652],[-46.625027660534556,-23.551201661075833],[-46.62511990034228,-23.55126682171747],[-46.62525826005385,-23.55126682171747],[-46.62525826005385,-23.551331982359102],[-46.62535049986156,-23.551657785567283],[-46.62535049986156,-23.55172294620892],[-46.62544273966928,-23.55198358877546],[-46.62544273966928,-23.552113910058733],[-46.62525826005385,-23.552113910058733],[-46.62521214014999,-23.552113910058733],[-46.625166020246134,-23.552113910058733],[-46.625166020246134,-23.55217907070037],[-46.625304379957704,-23.552830677116727],[-46.62535049986156,-23.553091319683272],[-46.62539661976542,-23.553091319683272],[-46.62539661976542,-23.55315648032491],[-46.62539661976542,-23.553221640966544],[-46.62539661976542,-23.553351962249813],[-46.62525826005385,-23.55341712289145],[-46.62521214014999,-23.55341712289145],[-46.625166020246134,-23.55341712289145],[-46.625166020246134,-23.553482283533086],[-46.62511990034228,-23.553482283533086],[-46.62507378043842,-23.553547444174722],[-46.6249815406307,-23.553612604816358],[-46.62493542072684,-23.553612604816358],[-46.624889300822986,-23.553612604816358],[-46.62461258139984,-23.553612604816358],[-46.62456646149598,-23.553612604816358],[-46.624520341592124,-23.553677765457994],[-46.62447422168827,-23.553677765457994],[-46.62442810178441,-23.553677765457994],[-46.62438198188055,-23.553677765457994],[-46.62419750226512,-23.553677765457994],[-46.62415138236126,-23.553677765457994],[-46.62415138236126,-23.55374292609963],[-46.624105262457405,-23.55374292609963],[-46.62405914255355,-23.55374292609963],[-46.62405914255355,-23.553808086741267],[-46.62392078284197,-23.55374292609963],[-46.62392078284197,-23.553547444174722],[-46.623874662938114,-23.553547444174722],[-46.62382854303426,-23.553547444174722],[-46.62355182361111,-23.553547444174722],[-46.62286002505324,-23.553612604816358],[-46.622813905149386,-23.553612604816358],[-46.62262942553396,-23.553612604816358],[-46.62198374687995,-23.553677765457994],[-46.621476427937516,-23.553677765457994],[-46.62143030803366,-23.553677765457994],[-46.621107468706654,-23.55374292609963],[-46.62073850947579,-23.55374292609963],[-46.62055402986036,-23.55374292609963],[-46.62041567014879,-23.55374292609963],[-46.62013895072564,-23.55374292609963],[-46.61986223130249,-23.553808086741267],[-46.61949327207163,-23.553808086741267],[-46.61912431284077,-23.553808086741267],[-46.6189859531292,-23.553873247382903],[-46.618248034667474,-23.553873247382903],[-46.61769459582118,-23.55393840802454],[-46.61727951668646,-23.55400356866617],[-46.61709503707103,-23.55400356866617],[-46.6169105574556,-23.55400356866617],[-46.616541598224735,-23.554068729307808],[-46.61626487880159,-23.554068729307808],[-46.6160342792823,-23.554133889949444],[-46.61548084043601,-23.55419905059108],[-46.615204121012866,-23.55419905059108],[-46.615158001109,-23.55419905059108],[-46.61492740158972,-23.55419905059108],[-46.61460456226271,-23.554264211232717],[-46.61442008264728,-23.554264211232717],[-46.61428172293571,-23.554264211232717],[-46.614189483127994,-23.554329371874353],[-46.61409724332028,-23.554329371874353],[-46.61382052389713,-23.554329371874353],[-46.61349768457013,-23.554329371874353],[-46.61349768457013,-23.55439453251599],[-46.61345156466627,-23.55439453251599],[-46.61317484524312,-23.55452485379926],[-46.61294424572383,-23.55452485379926],[-46.612621406396826,-23.554590014440898],[-46.61239080687754,-23.554590014440898],[-46.612114087454394,-23.554655175082534],[-46.61179124812739,-23.554655175082534],[-46.61160676851196,-23.554655175082534],[-46.611468408800384,-23.554720335724166],[-46.61142228889653,-23.554720335724166],[-46.611330049088814,-23.55485065700744],[-46.61100720976181,-23.55485065700744],[-46.61096108985795,-23.554785496365803],[-46.61096108985795,-23.554720335724166],[-46.610914969954095,-23.554655175082534],[-46.6103615311078,-23.554720335724166],[-46.60994645197308,-23.555306781498892],[-46.60966973254993,-23.555762905990342],[-46.609485252934505,-23.556023548556883],[-46.60930077331907,-23.556284191123428],[-46.60920853351136,-23.5564145124067],[-46.609070173799786,-23.556740315614878],[-46.60888569418435,-23.557131279464695],[-46.60847061504963,-23.557978367805962],[-46.60814777572263,-23.558695134863953],[-46.60759433687634,-23.5598680264134],[-46.6070870179339,-23.56097575732121],[-46.60653357908761,-23.562083488229018],[-46.60639521937603,-23.562278970153926],[-46.60625685966446,-23.562669934003743],[-46.6058879004336,-23.563386701061738],[-46.60565730091431,-23.563842825553188],[-46.605196101875734,-23.56488539581936],[-46.60487326254873,-23.565602162877354],[-46.6043659436063,-23.56664473314353],[-46.604135344087005,-23.56710085763498],[-46.60408922418315,-23.567231178918252],[-46.604227583894726,-23.56729633955989],[-46.60441206351015,-23.567361500201525],[-46.604550423221724,-23.56742666084316],[-46.60459654312559,-23.56742666084316],[-46.60459654312559,-23.567491821484793],[-46.604642663029445,-23.567491821484793],[-46.6046887829333,-23.567491821484793],[-46.60473490283716,-23.567491821484793],[-46.604781022741015,-23.567491821484793],[-46.60482714264487,-23.567491821484793],[-46.60487326254873,-23.567491821484793],[-46.60487326254873,-23.56742666084316],[-46.604919382452586,-23.56742666084316],[-46.60496550235645,-23.56742666084316],[-46.60501162226031,-23.567361500201525],[-46.60505774216416,-23.567361500201525],[-46.60505774216416,-23.56729633955989],[-46.60510386206802,-23.56729633955989],[-46.60510386206802,-23.567231178918252],[-46.60538058149117,-23.567361500201525],[-46.60565730091431,-23.56742666084316],[-46.60602626014517,-23.567622142768066],[-46.606487459183754,-23.567817624692974],[-46.60671805870304,-23.56788278533461],[-46.60690253831847,-23.567947945976247],[-46.60722537764548,-23.56807826725952],[-46.60754821697248,-23.568273749184424],[-46.60768657668405,-23.568273749184424],[-46.60782493639562,-23.56833890982606],[-46.60787105629948,-23.568404070467697],[-46.607917176203344,-23.568404070467697],[-46.608055535914914,-23.568469231109333],[-46.60810165581877,-23.568469231109333],[-46.60814777572263,-23.568469231109333],[-46.608193895626485,-23.568404070467697],[-46.60833225533806,-23.56833890982606],[-46.60847061504963,-23.568273749184424],[-46.60851673495349,-23.568273749184424],[-46.60851673495349,-23.568208588542788],[-46.60856285485735,-23.568208588542788],[-46.60865509466507,-23.568143427901152],[-46.608701214568924,-23.56807826725952],[-46.60879345437664,-23.568013106617883],[-46.60888569418435,-23.567947945976247],[-46.60897793399207,-23.567817624692974],[-46.60902405389593,-23.56775246405134],[-46.609070173799786,-23.567687303409702],[-46.60911629370364,-23.56755698212643],[-46.60925465341521,-23.56729633955989],[-46.609485252934505,-23.567361500201525],[-46.610038691780794,-23.567622142768066],[-46.61031541120394,-23.567687303409702],[-46.61082273014638,-23.56788278533461],[-46.6112378092811,-23.56807826725952],[-46.61137616899267,-23.56807826725952],[-46.61151452870424,-23.568208588542788],[-46.611699008319675,-23.568273749184424],[-46.61179124812739,-23.568273749184424],[-46.611837368031246,-23.568273749184424],[-46.61192960783897,-23.56833890982606],[-46.61197572774282,-23.568404070467697],[-46.61206796755054,-23.568404070467697],[-46.61206796755054,-23.568469231109333],[-46.612114087454394,-23.568469231109333],[-46.61216020735825,-23.568469231109333],[-46.61220632726211,-23.56853439175097],[-46.612252447165964,-23.56853439175097],[-46.612252447165964,-23.568599552392605],[-46.61229856706983,-23.568599552392605],[-46.61229856706983,-23.56866471303424],[-46.612344686973685,-23.56866471303424],[-46.612344686973685,-23.568729873675878],[-46.61239080687754,-23.568729873675878],[-46.61239080687754,-23.56879503431751],[-46.612483046685256,-23.56899051624242],[-46.61252916658911,-23.569251158808964],[-46.61252916658911,-23.5693163194506],[-46.61257528649297,-23.5693163194506],[-46.61266752630069,-23.569707283300414],[-46.612759766108404,-23.57009824715023],[-46.61285200591612,-23.570489211000044],[-46.61294424572383,-23.570815014208222],[-46.61299036562769,-23.570945335491494],[-46.61308260543541,-23.57133629934131],[-46.613128725339266,-23.571466620624584],[-46.613128725339266,-23.571531781266216],[-46.61335932485855,-23.571596941907853],[-46.613405444762414,-23.57166210254949],[-46.6136360442817,-23.571727263191125],[-46.61382052389713,-23.57179242383276],[-46.6139588836087,-23.571857584474397],[-46.61400500351256,-23.571922745116034],[-46.61405112341642,-23.571922745116034],[-46.61409724332028,-23.571922745116034],[-46.61414336322414,-23.57198790575767],[-46.614189483127994,-23.572053066399306],[-46.61437396274342,-23.57224854832421],[-46.61446620255114,-23.572313708965847],[-46.61465068216657,-23.572509190890756],[-46.614696802070426,-23.572574351532392],[-46.614696802070426,-23.572639512174028],[-46.614696802070426,-23.572704672815664],[-46.61465068216657,-23.5727698334573],[-46.61465068216657,-23.572834994098933],[-46.61460456226271,-23.57290015474057],[-46.61460456226271,-23.572965315382206],[-46.61460456226271,-23.573030476023842],[-46.61460456226271,-23.573095636665478],[-46.61460456226271,-23.573160797307114],[-46.61460456226271,-23.57322595794875],[-46.61460456226271,-23.573291118590387],[-46.61460456226271,-23.573356279232023],[-46.61460456226271,-23.57342143987366],[-46.61465068216657,-23.57342143987366],[-46.61465068216657,-23.573486600515295],[-46.61465068216657,-23.573551761156928],[-46.614696802070426,-23.573551761156928],[-46.614696802070426,-23.573616921798564],[-46.614835161782004,-23.573747243081836],[-46.614835161782004,-23.573812403723473],[-46.61488128168586,-23.573812403723473],[-46.61492740158972,-23.57387756436511],[-46.61492740158972,-23.573942725006745],[-46.614973521493575,-23.573942725006745],[-46.61501964139743,-23.573942725006745],[-46.61501964139743,-23.57400788564838],[-46.61506576130129,-23.57400788564838],[-46.615111881205145,-23.57400788564838],[-46.615111881205145,-23.574073046290017],[-46.615158001109,-23.574073046290017],[-46.615204121012866,-23.574073046290017],[-46.61525024091672,-23.574138206931654],[-46.61529636082058,-23.574138206931654],[-46.615342480724436,-23.574138206931654],[-46.61538860062829,-23.574138206931654],[-46.61543472053215,-23.574203367573286],[-46.615526960339864,-23.574203367573286],[-46.61557308024373,-23.574268528214922],[-46.615619200147584,-23.574268528214922],[-46.61566532005144,-23.57433368885656],[-46.6157114399553,-23.57433368885656],[-46.615757559859155,-23.574398849498195],[-46.61580367976301,-23.574398849498195],[-46.61580367976301,-23.57446401013983],[-46.61584979966687,-23.57446401013983],[-46.61584979966687,-23.574529170781467],[-46.615895919570725,-23.574529170781467],[-46.615895919570725,-23.574594331423103],[-46.615895919570725,-23.57465949206474],[-46.61594203947459,-23.57465949206474],[-46.61594203947459,-23.574724652706376],[-46.61594203947459,-23.574789813348012],[-46.61594203947459,-23.574854973989645],[-46.61594203947459,-23.57492013463128],[-46.61594203947459,-23.574985295272917],[-46.615895919570725,-23.574985295272917],[-46.615895919570725,-23.575050455914553],[-46.61584979966687,-23.575050455914553],[-46.6160342792823,-23.57511561655619],[-46.61617263899387,-23.575311098481098],[-46.61626487880159,-23.57544141976437],[-46.61631099870545,-23.57544141976437],[-46.61631099870545,-23.575506580406007],[-46.61635711860931,-23.575506580406007],[-46.61635711860931,-23.57557174104764],[-46.616403238513165,-23.57557174104764],[-46.616403238513165,-23.575636901689276],[-46.61644935841702,-23.575636901689276],[-46.61644935841702,-23.57570206233091],[-46.61649547832088,-23.57570206233091],[-46.616541598224735,-23.57570206233091],[-46.616541598224735,-23.575767222972548],[-46.61658771812859,-23.575767222972548],[-46.61658771812859,-23.575832383614184],[-46.61663383803245,-23.575832383614184],[-46.61667995793631,-23.575832383614184],[-46.61667995793631,-23.57589754425582],[-46.61686443755174,-23.575962704897456],[-46.6169105574556,-23.575962704897456],[-46.616956677359454,-23.576027865539093],[-46.617048917167175,-23.576027865539093],[-46.61709503707103,-23.57609302618073],[-46.61714115697489,-23.57609302618073],[-46.617187276878745,-23.57609302618073],[-46.6172333967826,-23.576158186822365],[-46.61727951668646,-23.576158186822365],[-46.617325636590316,-23.576223347463998],[-46.61737175649417,-23.576223347463998],[-46.61737175649417,-23.576288508105634],[-46.61741787639804,-23.576288508105634],[-46.61746399630189,-23.576288508105634],[-46.61746399630189,-23.57635366874727],[-46.617602356013464,-23.576483990030543],[-46.61764847591732,-23.57654915067218],[-46.61764847591732,-23.576614311313815],[-46.61769459582118,-23.576614311313815],[-46.617740715725034,-23.57667947195545],[-46.6177868356289,-23.57667947195545],[-46.6177868356289,-23.576744632597087],[-46.617832955532755,-23.576744632597087],[-46.617832955532755,-23.576809793238724],[-46.61787907543661,-23.576809793238724],[-46.61792519534047,-23.576874953880356],[-46.617971315244326,-23.576874953880356],[-46.61801743514818,-23.576874953880356],[-46.61801743514818,-23.576940114521992],[-46.61806355505204,-23.576940114521992],[-46.618109674955896,-23.576940114521992],[-46.61815579485976,-23.576940114521992],[-46.61820191476362,-23.576940114521992],[-46.61820191476362,-23.57700527516363],[-46.618248034667474,-23.57700527516363],[-46.61829415457133,-23.57700527516363],[-46.61834027447519,-23.57700527516363],[-46.61834027447519,-23.577070435805265],[-46.618386394379044,-23.577070435805265],[-46.6184325142829,-23.577070435805265],[-46.6184325142829,-23.5771355964469],[-46.61847863418676,-23.5771355964469],[-46.61847863418676,-23.577200757088537],[-46.61852475409062,-23.577200757088537],[-46.61857087399448,-23.577265917730173],[-46.61857087399448,-23.57733107837181],[-46.618616993898335,-23.577461399655082],[-46.61866311380219,-23.577526560296718],[-46.61870923370605,-23.57759172093835],[-46.61870923370605,-23.577656881579987],[-46.618755353609906,-23.577656881579987],[-46.61866311380219,-23.57778720286326],[-46.618616993898335,-23.57791752414653],[-46.61847863418676,-23.57811300607144],[-46.6184325142829,-23.57824332735471],[-46.618386394379044,-23.578308487996345],[-46.61834027447519,-23.578308487996345],[-46.61829415457133,-23.578503969921254],[-46.618248034667474,-23.578503969921254],[-46.618248034667474,-23.57856913056289],[-46.61820191476362,-23.578634291204526],[-46.61820191476362,-23.578699451846163],[-46.61815579485976,-23.578699451846163],[-46.61815579485976,-23.5787646124878],[-46.61815579485976,-23.578829773129435],[-46.61815579485976,-23.578894933771068],[-46.61815579485976,-23.578960094412704],[-46.61815579485976,-23.57902525505434],[-46.61820191476362,-23.57902525505434],[-46.61820191476362,-23.579090415695976],[-46.618248034667474,-23.57902525505434],[-46.61829415457133,-23.57902525505434],[-46.618893713321484,-23.57856913056289],[-46.61912431284077,-23.578438809279618],[-46.619262672552345,-23.578308487996345],[-46.61935491236006,-23.57824332735471],[-46.619401032263916,-23.57824332735471],[-46.61944715216777,-23.578178166713077],[-46.61949327207163,-23.578178166713077],[-46.619539391975486,-23.578178166713077],[-46.61958551187935,-23.578178166713077],[-46.61963163178321,-23.578178166713077],[-46.61990835120635,-23.578178166713077],[-46.62013895072564,-23.578178166713077],[-46.62027731043721,-23.578178166713077],[-46.620323430341074,-23.578178166713077],[-46.62055402986036,-23.57824332735471],[-46.620830749283506,-23.57824332735471],[-46.621107468706654,-23.57824332735471],[-46.621476427937516,-23.57824332735471],[-46.62166090755294,-23.57824332735471],[-46.62184538716838,-23.57824332735471],[-46.622029866783805,-23.57824332735471],[-46.62216822649538,-23.57824332735471],[-46.62262942553396,-23.57824332735471],[-46.622813905149386,-23.57824332735471],[-46.62341346389954,-23.57824332735471],[-46.62392078284197,-23.57824332735471],[-46.62415138236126,-23.57824332735471],[-46.624658701303694,-23.57824332735471],[-46.6249815406307,-23.57824332735471],[-46.62548885957314,-23.57824332735471],[-46.62558109938085,-23.57824332735471],[-46.62571945909242,-23.57824332735471],[-46.625857818804,-23.578308487996345],[-46.62604229841943,-23.578308487996345],[-46.626088418323285,-23.578308487996345],[-46.626180658131005,-23.578308487996345],[-46.626319017842576,-23.578308487996345],[-46.62668797707344,-23.578308487996345],[-46.626872456688865,-23.578308487996345],[-46.627518135342875,-23.578308487996345],[-46.62756425524673,-23.578308487996345],[-46.62765649505445,-23.578308487996345],[-46.62797933438145,-23.578308487996345],[-46.62807157418917,-23.578308487996345],[-46.62811769409303,-23.578438809279618],[-46.62820993390074,-23.57856913056289],[-46.6282560538046,-23.57856913056289],[-46.6282560538046,-23.578634291204526],[-46.628302173708455,-23.578634291204526],[-46.62834829361231,-23.578634291204526],[-46.62834829361231,-23.578699451846163],[-46.628394413516176,-23.578699451846163],[-46.62844053342003,-23.578699451846163],[-46.62844053342003,-23.5787646124878],[-46.62848665332389,-23.5787646124878],[-46.62853277322775,-23.5787646124878],[-46.6285788931316,-23.5787646124878],[-46.62862501303546,-23.578829773129435],[-46.62867113293932,-23.578829773129435],[-46.628717252843174,-23.578829773129435],[-46.628809492650895,-23.578829773129435],[-46.62890173245861,-23.578829773129435],[-46.628947852362465,-23.578829773129435],[-46.62899397226632,-23.578829773129435],[-46.62904009217018,-23.578829773129435],[-46.62931681159333,-23.578894933771068],[-46.629362931497184,-23.578894933771068],[-46.62963965092033,-23.578894933771068],[-46.62968577082419,-23.578829773129435],[-46.629731890728046,-23.578829773129435],[-46.6297780106319,-23.578829773129435],[-46.629824130535766,-23.578829773129435],[-46.62987025043962,-23.578829773129435],[-46.630146969862764,-23.578829773129435],[-46.63088488832449,-23.5787646124878],[-46.63111548784378,-23.5787646124878],[-46.63125384755535,-23.578699451846163],[-46.63139220726693,-23.578699451846163],[-46.631438327170784,-23.578699451846163],[-46.63148444707464,-23.578699451846163],[-46.6315305669785,-23.578699451846163],[-46.631668926690075,-23.578699451846163],[-46.631945646113216,-23.578699451846163],[-46.63203788592094,-23.578634291204526],[-46.63217624563251,-23.578634291204526],[-46.6324068451518,-23.578634291204526],[-46.632452965055656,-23.578634291204526],[-46.63249908495951,-23.578634291204526],[-46.63263744467108,-23.578634291204526],[-46.63277580438266,-23.578438809279618],[-46.63282192428652,-23.578438809279618],[-46.632868044190374,-23.57837364863798],[-46.632868044190374,-23.578308487996345],[-46.63291416409423,-23.578308487996345],[-46.63291416409423,-23.57824332735471],[-46.633006403901945,-23.578047845429804],[-46.6330525238058,-23.57759172093835],[-46.63309864370966,-23.577461399655082],[-46.63309864370966,-23.5771355964469],[-46.63314476361352,-23.57700527516363],[-46.63314476361352,-23.576874953880356],[-46.63319088351738,-23.576809793238724],[-46.63319088351738,-23.576744632597087],[-46.633237003421236,-23.57667947195545],[-46.633237003421236,-23.576614311313815],[-46.63328312332509,-23.576614311313815],[-46.63337536313281,-23.57635366874727],[-46.63355984274824,-23.57609302618073],[-46.633652082555955,-23.57589754425582],[-46.633790442267525,-23.575767222972548],[-46.633790442267525,-23.57570206233091],[-46.63383656217138,-23.57570206233091],[-46.633882682075246,-23.57570206233091],[-46.6339288019791,-23.57570206233091],[-46.6339288019791,-23.575636901689276],[-46.63397492188296,-23.575636901689276],[-46.634021041786816,-23.575636901689276],[-46.634021041786816,-23.57570206233091],[-46.63406716169067,-23.57570206233091],[-46.63411328159453,-23.57570206233091],[-46.63415940149839,-23.57570206233091],[-46.634205521402244,-23.57570206233091],[-46.63425164130611,-23.57570206233091],[-46.634297761209965,-23.57570206233091],[-46.63434388111382,-23.57570206233091],[-46.63434388111382,-23.575636901689276],[-46.63439000101768,-23.575636901689276],[-46.63439000101768,-23.57557174104764],[-46.634436120921535,-23.57557174104764],[-46.634436120921535,-23.575506580406007],[-46.634297761209965,-23.575376259122734],[-46.63425164130611,-23.575376259122734],[-46.634205521402244,-23.575311098481098],[-46.63406716169067,-23.575180777197826],[-46.6339288019791,-23.57511561655619],[-46.633882682075246,-23.575050455914553],[-46.63397492188296,-23.575050455914553],[-46.634021041786816,-23.575050455914553],[-46.63406716169067,-23.575050455914553],[-46.63411328159453,-23.575050455914553],[-46.63415940149839,-23.575050455914553],[-46.63439000101768,-23.575050455914553],[-46.6348050801524,-23.57511561655619],[-46.635220159287115,-23.57511561655619],[-46.63549687871026,-23.57511561655619],[-46.63554299861412,-23.57511561655619],[-46.63558911851798,-23.57511561655619],[-46.63581971803727,-23.575050455914553],[-46.63595807774884,-23.574985295272917],[-46.636004197652696,-23.574985295272917],[-46.63605031755656,-23.574985295272917],[-46.63618867726813,-23.57492013463128],[-46.636280917075844,-23.57492013463128],[-46.6363270369797,-23.57492013463128],[-46.63669599621056,-23.574789813348012],[-46.636926595729854,-23.574724652706376],[-46.637064955441424,-23.57465949206474],[-46.63711107534528,-23.57465949206474],[-46.637157195249145,-23.57465949206474],[-46.63738779476843,-23.574529170781467],[-46.63761839428772,-23.57446401013983],[-46.637848993807005,-23.574398849498195],[-46.637941233614725,-23.574398849498195],[-46.63812571323015,-23.57433368885656],[-46.638725271980306,-23.574138206931654],[-46.63904811130731,-23.57400788564838],[-46.639370950634316,-23.573942725006745],[-46.639509310345886,-23.57387756436511],[-46.63973990986518,-23.573812403723473],[-46.64001662928832,-23.573747243081836],[-46.64029334871147,-23.573616921798564],[-46.64052394823076,-23.573551761156928],[-46.64075454775004,-23.573486600515295],[-46.640800667653906,-23.573486600515295],[-46.641123506980904,-23.573356279232023],[-46.641215746788625,-23.573356279232023],[-46.64140022640405,-23.573291118590387],[-46.64144634630791,-23.573291118590387],[-46.641584706019486,-23.57322595794875],[-46.64172306573106,-23.573160797307114],[-46.64195366525035,-23.573095636665478],[-46.642138144865775,-23.572965315382206],[-46.64236874438507,-23.572834994098933],[-46.642783823519785,-23.572509190890756],[-46.64301442303908,-23.572313708965847],[-46.64315278275065,-23.572183387682575],[-46.64329114246222,-23.572118227040942],[-46.643567861885366,-23.571857584474397],[-46.643706221596936,-23.571727263191125],[-46.6437523415008,-23.571727263191125],[-46.64393682111623,-23.571596941907853],[-46.64393682111623,-23.571531781266216],[-46.643982941020084,-23.571531781266216],[-46.644213540539376,-23.57133629934131],[-46.644351900250946,-23.57120597805804],[-46.64453637986638,-23.571401459982948],[-46.644766979385665,-23.57120597805804],[-46.64504369880881,-23.57101049613313],[-46.64550489784739,-23.570684692924953],[-46.64573549736668,-23.570489211000044],[-46.645919976982114,-23.570358889716772],[-46.64624281630911,-23.57009824715023],[-46.646611775539974,-23.56977244394205],[-46.64679625515541,-23.569642122658777],[-46.64721133429013,-23.569381480092236],[-46.647488053713275,-23.56912083752569],[-46.64753417361713,-23.56912083752569],[-46.6476725333287,-23.56899051624242],[-46.64817985227114,-23.568599552392605],[-46.64859493140586,-23.568273749184424],[-46.64864105130972,-23.568273749184424],[-46.64877941102129,-23.568143427901152],[-46.64896389063672,-23.568013106617883],[-46.64910225034829,-23.56788278533461],[-46.64914837025215,-23.56788278533461],[-46.649194490156006,-23.567817624692974],[-46.64928672996373,-23.56775246405134],[-46.649332849867584,-23.56775246405134],[-46.65002464842545,-23.567166018276616],[-46.650255247944735,-23.566970536351707],[-46.650485847464026,-23.5667750544268],[-46.65099316640646,-23.56631892993535],[-46.651131526118036,-23.566253769293713],[-46.651131526118036,-23.566188608652077],[-46.65136212563732,-23.566058287368808],[-46.65163884506047,-23.565797644802263],[-46.65186944457976,-23.565602162877354],[-46.65228452371448,-23.565276359669177],[-46.652469003329905,-23.565146038385905],[-46.652561243137626,-23.565015717102632],[-46.653114681983915,-23.564559592611182],[-46.653622000926354,-23.564168628761365],[-46.653898720349495,-23.563907986194824],[-46.65394484025335,-23.563907986194824],[-46.65408319996493,-23.56377766491155],[-46.65449827909965,-23.56345186170337],[-46.65459051890736,-23.5633215404201],[-46.6547749985228,-23.56319121913683],[-46.654959478138224,-23.563060897853557],[-46.65542067717681,-23.562669934003743],[-46.65578963640767,-23.562344130795562],[-46.655974116023096,-23.56221380951229],[-46.65606635583081,-23.562148648870654],[-46.656112475734666,-23.562083488229018],[-46.65643531506167,-23.561822845662476],[-46.65657367477325,-23.561692524379204],[-46.656896514100254,-23.56143188181266],[-46.65721935342725,-23.56110607860448],[-46.65735771313883,-23.56097575732121],[-46.657818912177405,-23.560584793471396],[-46.658187871408266,-23.560258990263215],[-46.65841847092756,-23.560063508338306],[-46.65915638938928,-23.559411901921948],[-46.65920250929314,-23.559346741280315],[-46.65952534862014,-23.55908609871377],[-46.65961758842786,-23.558955777430498],[-46.66040162679344,-23.55830417101414],[-46.66113954525516,-23.55765256459778],[-46.66118566515902,-23.55765256459778],[-46.661231785062874,-23.557587403956145],[-46.66141626467831,-23.557457082672872],[-46.66220030304389,-23.556740315614878],[-46.66233866275546,-23.55660999433161],[-46.662523142370894,-23.556479673048337],[-46.662892101601756,-23.556153869840156],[-46.66293822150561,-23.55608870919852],[-46.66298434140947,-23.55608870919852],[-46.663030461313326,-23.55608870919852],[-46.66307658121718,-23.55608870919852],[-46.66312270112105,-23.55608870919852],[-46.663168821024904,-23.55608870919852],[-46.66326106083262,-23.556153869840156],[-46.663445540448045,-23.55621903048179],[-46.663537780255766,-23.556284191123428],[-46.66363002006348,-23.556284191123428],[-46.66376837977505,-23.556349351765064],[-46.66386061958277,-23.556479673048337],[-46.66399897929434,-23.55660999433161],[-46.66427569871749,-23.55660999433161],[-46.66469077785221,-23.55667515497324],[-46.664875257467635,-23.55667515497324],[-46.66505973708307,-23.55660999433161],[-46.66515197689078,-23.55660999433161],[-46.6652442166985,-23.55660999433161],[-46.66542869631393,-23.556544833689973],[-46.665520936121645,-23.556544833689973],[-46.66565929583322,-23.556479673048337],[-46.66584377544865,-23.556479673048337],[-46.665936015256364,-23.5564145124067],[-46.66598213516022,-23.5564145124067],[-46.66607437496794,-23.556349351765064],[-46.66625885458337,-23.556284191123428],[-46.666304974487225,-23.556284191123428],[-46.66658169391037,-23.556153869840156],[-46.66727349246824,-23.555893227273614],[-46.66727349246824,-23.555828066631978],[-46.667596331795245,-23.555697745348706],[-46.66791917112225,-23.555567424065433],[-46.668149770641534,-23.555502263423797],[-46.66861096968012,-23.555306781498892],[-46.66897992891098,-23.555111299573984],[-46.6693950080457,-23.55498097829071],[-46.66976396727656,-23.554785496365803],[-46.66990232698813,-23.554720335724166],[-46.6700406866997,-23.554655175082534],[-46.670225166315134,-23.554590014440898],[-46.67050188573828,-23.554459693157625],[-46.67064024544985,-23.55439453251599],[-46.670870844969144,-23.554329371874353],[-46.67110144448843,-23.55419905059108],[-46.67128592410386,-23.554133889949444],[-46.67147040371929,-23.554068729307808],[-46.67156264352701,-23.554068729307808],[-46.671654883334725,-23.55400356866617],[-46.67170100323858,-23.55400356866617],[-46.671793243046295,-23.55393840802454],[-46.67197772266173,-23.553873247382903],[-46.672300561988735,-23.55374292609963],[-46.672577281411876,-23.553612604816358],[-46.67280788093117,-23.553547444174722],[-46.67340743968132,-23.55328680160818],[-46.67359191929675,-23.553221640966544],[-46.673868638719895,-23.553091319683272],[-46.674006998431466,-23.553026159041636],[-46.6741914780469,-23.5529609984],[-46.67423759795076,-23.5529609984],[-46.674283717854614,-23.552895837758363],[-46.674422077566184,-23.552895837758363],[-46.67460655718162,-23.55276551647509],[-46.674652677085476,-23.55276551647509],[-46.67469879698933,-23.55276551647509],[-46.67483715670091,-23.552700355833455],[-46.67502163631634,-23.552635195191822],[-46.675067756220194,-23.552635195191822],[-46.67511387612405,-23.552570034550186],[-46.67515999602791,-23.552570034550186],[-46.67525223583563,-23.55250487390855],[-46.67552895525877,-23.552439713266914],[-46.675575075162634,-23.552374552625277],[-46.67566731497035,-23.552374552625277],[-46.675851794585775,-23.55230939198364],[-46.67599015429735,-23.552244231342005],[-46.675944034393495,-23.552113910058733],[-46.67580567468192,-23.551918428133828],[-46.67575955477806,-23.55172294620892],[-46.67562119506649,-23.551462303642374],[-46.67548283535491,-23.551201661075833],[-46.675436715451056,-23.551006179150924],[-46.67534447564334,-23.55094101850929],[-46.67534447564334,-23.550810697226016],[-46.67525223583563,-23.55074553658438],[-46.67520611593177,-23.55061521530111],[-46.67511387612405,-23.550419733376202],[-46.675067756220194,-23.55028941209293],[-46.67502163631634,-23.550224251451294],[-46.67497551641248,-23.55009393016802],[-46.674929396508624,-23.550028769526385],[-46.67488327660477,-23.54996360888475],[-46.67483715670091,-23.54983328760148],[-46.674791036797046,-23.549768126959844],[-46.674791036797046,-23.549702966318208],[-46.67474491689319,-23.54963780567657],[-46.674652677085476,-23.549442323751663],[-46.67460655718162,-23.54931200246839],[-46.67446819747005,-23.54905135990185],[-46.67437595766233,-23.548790717335304],[-46.67423759795076,-23.548530074768763],[-46.6741914780469,-23.548530074768763],[-46.67414535814304,-23.54839975348549],[-46.67409923823919,-23.548334592843855],[-46.67405311833532,-23.548334592843855],[-46.67396087852761,-23.548334592843855],[-46.67377639891218,-23.548334592843855],[-46.67359191929675,-23.548334592843855],[-46.673499679489034,-23.54826943220222],[-46.67340743968132,-23.54826943220222],[-46.673222960065885,-23.548204271560582],[-46.67303848045046,-23.548204271560582],[-46.6729923605466,-23.548204271560582],[-46.67294624064274,-23.548139110918946],[-46.67290012073888,-23.548139110918946],[-46.672854000835024,-23.548139110918946],[-46.67280788093117,-23.548139110918946],[-46.67276176102731,-23.548139110918946],[-46.67276176102731,-23.54807395027731],[-46.67271564112345,-23.54807395027731],[-46.672669521219596,-23.54807395027731],[-46.67262340131574,-23.548008789635674],[-46.672577281411876,-23.548008789635674],[-46.67253116150802,-23.548008789635674],[-46.67248504160416,-23.548008789635674],[-46.67248504160416,-23.547943628994037],[-46.672438921700305,-23.547943628994037],[-46.67234668189259,-23.547878468352405],[-46.672300561988735,-23.547878468352405],[-46.672208322181014,-23.54781330771077],[-46.67216220227716,-23.54781330771077],[-46.67216220227716,-23.547748147069132],[-46.6721160823733,-23.547748147069132],[-46.67206996246944,-23.547682986427496],[-46.67202384256559,-23.547682986427496],[-46.67197772266173,-23.54761782578586],[-46.671885482854016,-23.547552665144224],[-46.67183936295015,-23.547487504502588],[-46.67174712314244,-23.54742234386095],[-46.67170100323858,-23.547357183219315],[-46.671654883334725,-23.547357183219315],[-46.67160876343087,-23.54729202257768],[-46.671516523623154,-23.547226861936046],[-46.67142428381543,-23.54716170129441],[-46.67137816391158,-23.547096540652774],[-46.67133204400772,-23.547096540652774],[-46.67119368429615,-23.5469662193695],[-46.67096308477686,-23.546770737444593],[-46.67073248525757,-23.54664041616132],[-46.670594125545996,-23.546575255519688],[-46.67040964593056,-23.546444934236415],[-46.670225166315134,-23.54637977359478],[-46.6700406866997,-23.546249452311507],[-46.669948446891986,-23.54618429166987],[-46.66925664833412,-23.545858488461693],[-46.66925664833412,-23.545793327820057],[-46.66921052843026,-23.545793327820057],[-46.66911828862255,-23.545793327820057],[-46.66907216871869,-23.54572816717842],[-46.66897992891098,-23.54572816717842],[-46.66874932939169,-23.54559784589515],[-46.66870320948783,-23.54559784589515],[-46.66861096968012,-23.545532685253512],[-46.66856484977625,-23.545532685253512],[-46.66842649006468,-23.545467524611876],[-46.668380370160826,-23.545467524611876],[-46.66833425025697,-23.54540236397024],[-46.66828813035311,-23.54540236397024],[-46.668242010449255,-23.54540236397024],[-46.66819589054539,-23.54540236397024],[-46.66810365073768,-23.545337203328604],[-46.66805753083382,-23.545337203328604],[-46.668011410929964,-23.545337203328604],[-46.66796529102611,-23.545337203328604],[-46.66787305121839,-23.545272042686967],[-46.66782693131453,-23.545272042686967],[-46.667734691506816,-23.545272042686967],[-46.667596331795245,-23.545206882045335],[-46.66755021189139,-23.545206882045335],[-46.66745797208367,-23.5451417214037],[-46.66741185217981,-23.5451417214037],[-46.667365732275954,-23.5451417214037],[-46.6673196123721,-23.5451417214037],[-46.66727349246824,-23.5451417214037],[-46.66718125266053,-23.5451417214037],[-46.66699677304509,-23.545076560762062],[-46.66690453323738,-23.545076560762062],[-46.66685841333352,-23.545076560762062],[-46.666812293429665,-23.545011400120426],[-46.66676617352581,-23.545011400120426],[-46.666720053621944,-23.545011400120426],[-46.66667393371809,-23.545011400120426],[-46.66667393371809,-23.54494623947879],[-46.66662781381423,-23.54494623947879],[-46.66658169391037,-23.54494623947879],[-46.66653557400652,-23.544881078837154],[-46.66648945410266,-23.544881078837154],[-46.66648945410266,-23.544815918195518],[-46.6664433341988,-23.544815918195518],[-46.6664433341988,-23.54475075755388],[-46.666397214294946,-23.54475075755388],[-46.66635109439108,-23.544685596912245],[-46.666304974487225,-23.54462043627061],[-46.666304974487225,-23.544555275628976],[-46.66625885458337,-23.54449011498734],[-46.66625885458337,-23.544424954345704],[-46.66621273467951,-23.544359793704068],[-46.666166614775655,-23.54429463306243],[-46.666166614775655,-23.544229472420795],[-46.6661204948718,-23.54416431177916],[-46.6661204948718,-23.544099151137523],[-46.66607437496794,-23.544099151137523],[-46.66607437496794,-23.544033990495887],[-46.66607437496794,-23.54396882985425],[-46.666028255064084,-23.54396882985425],[-46.666028255064084,-23.543903669212618],[-46.66598213516022,-23.543838508570982],[-46.665936015256364,-23.543773347929346],[-46.66588989535251,-23.543643026646073],[-46.66584377544865,-23.5435127053628],[-46.66579765554479,-23.54338238407953],[-46.66570541573708,-23.543186902154623],[-46.66570541573708,-23.543121741512987],[-46.66561317592936,-23.542991420229715],[-46.66561317592936,-23.54292625958808],[-46.66533645650622,-23.542339813813356],[-46.6652442166985,-23.54207917124681],[-46.665105856986926,-23.541753368038634],[-46.66505973708307,-23.54162304675536],[-46.664967497275356,-23.541362404188817],[-46.664875257467635,-23.541232082905545],[-46.66455241814063,-23.54038499456428],[-46.66441405842906,-23.540124351997736],[-46.66441405842906,-23.5400591913561],[-46.6643679385252,-23.539994030714464],[-46.6643679385252,-23.539928870072828],[-46.664321818621346,-23.539863709431195],[-46.66427569871749,-23.539668227506287],[-46.66427569871749,-23.53960306686465],[-46.66427569871749,-23.539537906223014],[-46.66422957881363,-23.539537906223014],[-46.66422957881363,-23.539472745581378],[-46.66422957881363,-23.53940758493974],[-46.66422957881363,-23.539342424298106],[-46.66422957881363,-23.53927726365647],[-46.66418345890977,-23.53927726365647],[-46.66418345890977,-23.539212103014833],[-46.66418345890977,-23.5391469423732],[-46.66418345890977,-23.538951460448292],[-46.66418345890977,-23.53862565724011],[-46.66418345890977,-23.538560496598475],[-46.66418345890977,-23.538495335956842],[-46.66413733900591,-23.538430175315206],[-46.66413733900591,-23.53836501467357],[-46.66413733900591,-23.538299854031933],[-46.66413733900591,-23.538234693390297],[-46.66413733900591,-23.53816953274866],[-46.664091219102055,-23.53816953274866],[-46.664091219102055,-23.538104372107025],[-46.664091219102055,-23.53803921146539],[-46.664091219102055,-23.537974050823752],[-46.6640450991982,-23.537908890182116],[-46.6640450991982,-23.537843729540484],[-46.6640450991982,-23.537778568898847],[-46.66399897929434,-23.53771340825721],[-46.66399897929434,-23.537648247615575],[-46.663952859390484,-23.537648247615575],[-46.663952859390484,-23.53758308697394],[-46.663952859390484,-23.537517926332303],[-46.66390673948663,-23.537517926332303],[-46.66390673948663,-23.537452765690666],[-46.66390673948663,-23.53738760504903],[-46.66386061958277,-23.53738760504903],[-46.66386061958277,-23.537322444407394],[-46.66381449967891,-23.537257283765758],[-46.66381449967891,-23.53719212312412],[-46.66376837977505,-23.53719212312412],[-46.66376837977505,-23.53712696248249],[-46.66376837977505,-23.537061801840853],[-46.663676139967336,-23.536996641199217],[-46.66363002006348,-23.53693148055758],[-46.663537780255766,-23.536670837991036],[-46.66339942054419,-23.536410195424494],[-46.66321494092876,-23.536084392216313],[-46.66279986179404,-23.535237303875046],[-46.662246422947746,-23.534129572967238],[-46.66215418314003,-23.53393409104233],[-46.66178522390917,-23.533217323984335],[-46.66173910400531,-23.533087002701066],[-46.66169298410146,-23.532956681417794],[-46.6616468641976,-23.532956681417794],[-46.6616468641976,-23.532761199492885],[-46.6616468641976,-23.53269603885125],[-46.66155462438988,-23.532565717567977],[-46.66141626467831,-23.5322399143598],[-46.661324024870595,-23.532174753718163],[-46.661231785062874,-23.531914111151618],[-46.66118566515902,-23.531914111151618],[-46.66118566515902,-23.531653468585077],[-46.66118566515902,-23.53158830794344],[-46.66118566515902,-23.531392826018532],[-46.66118566515902,-23.531132183451987],[-46.66118566515902,-23.530871540885446],[-46.661231785062874,-23.530545737677265],[-46.661231785062874,-23.530415416393996],[-46.661231785062874,-23.53035025575236],[-46.661231785062874,-23.530285095110724],[-46.661231785062874,-23.530089613185815],[-46.661231785062874,-23.529959291902543],[-46.66118566515902,-23.52924252484455],[-46.661231785062874,-23.529112203561276],[-46.66118566515902,-23.528656079069826],[-46.66118566515902,-23.528460597144917],[-46.66118566515902,-23.528069633295104],[-46.66118566515902,-23.52780899072856],[-46.661324024870595,-23.527874151370195],[-46.661231785062874,-23.527418026878745],[-46.661231785062874,-23.527287705595473],[-46.66113954525516,-23.52657093853748],[-46.661093425351304,-23.526505777895842],[-46.661093425351304,-23.526440617254206],[-46.66104730544745,-23.526440617254206],[-46.66100118554359,-23.526375456612573],[-46.66095506563973,-23.526375456612573],[-46.660908945735876,-23.526375456612573],[-46.66072446612044,-23.526375456612573],[-46.66058610640887,-23.52591933212112],[-46.66072446612044,-23.52591933212112],[-46.660678346216585,-23.525789010837848],[-46.660263267081866,-23.52422515543859],[-46.66021714717801,-23.52389935223041],[-46.66007878746643,-23.523378067097322],[-46.65994042775486,-23.523117424530778],[-46.659894307851005,-23.522921942605873],[-46.65984818794715,-23.522856781964236],[-46.659802068043284,-23.522856781964236],[-46.659802068043284,-23.5227916213226],[-46.65975594813943,-23.522661300039328],[-46.65970982823557,-23.522530978756055],[-46.65966370833171,-23.522530978756055],[-46.65966370833171,-23.52246581811442],[-46.65961758842786,-23.522400657472783],[-46.659571468524,-23.522400657472783],[-46.65952534862014,-23.52233549683115],[-46.65897190977385,-23.52155356913152],[-46.65823399131212,-23.520836802073525],[-46.65800339179284,-23.52057615950698],[-46.657818912177405,-23.520445838223708],[-46.657680552465834,-23.52031551694044],[-46.6574960728504,-23.52012003501553],[-46.65698875390797,-23.519533589240808],[-46.65615859563853,-23.518751661541177],[-46.65615859563853,-23.51868650089954],[-46.65551291698452,-23.51836069769136],[-46.65505171794594,-23.51810005512482],[-46.65482111842665,-23.518034894483183],[-46.654682758715076,-23.517969733841547],[-46.654544399003505,-23.51790457319991],[-46.65449827909965,-23.51790457319991],[-46.654313799484214,-23.51790457319991],[-46.65412931986879,-23.51790457319991],[-46.654175439772644,-23.517839412558274],[-46.654175439772644,-23.517774251916638],[-46.654175439772644,-23.517709091275],[-46.654175439772644,-23.51764393063337],[-46.65412931986879,-23.517513609350097],[-46.65412931986879,-23.517318127425188],[-46.65403708006107,-23.51686200293374]]]}}]}