{"type":"FeatureCollection","features":[{"type":"Feature","properties":{"DATA_ULT_A":"2009/10/09","DATA_CRIAC":"2009/10/09","id":12,"name":"Vila Mariana","area":26.5,"pop_2010":344632,"pop_density_2010":13005,"budget_2015":37877545},"geometry":{"type":"Polygon","coordinates":[[[-46.64914837025215,-23.56788278533461],[-46.64910225034829,-23.56788278533461],[-46.64896389063672,-23.568013106617883],[-46.64877941102129,-23.568143427901152],[-46.64864105130972,-23.568273749184424],[-46.64859493140586,-23.568273749184424],[-46.64817985227114,-23.568599552392605],[-46.6476725333287,-23.56899051624242],[-46.64753417361713,-23.56912083752569],[-46.647488053713275,-23.56912083752569],[-46.64721133429013,-23.569381480092236],[-46.64679625515541,-23.569642122658777],[-46.646611775539974,-23.56977244394205],[-46.64624281630911,-23.57009824715023],[-46.645919976982114,-23.570358889716772],[-46.64573549736668,-23.570489211000044],[-46.64550489784739,-23.570684692924953],[-46.64504369880881,-23.57101049613313],[-46.644766979385665,-23.57120597805804],[-46.64453637986638,-23.571401459982948],[-46.644351900250946,-23.57120597805804],[-46.644213540539376,-23.57133629934131],[-46.643982941020084,-23.571531781266216],[-46.64393682111623,-23.571531781266216],[-46.64393682111623,-23.571596941907853],[-46.6437523415008,-23.571727263191125],[-46.643706221596936,-23.571727263191125],[-46.643567861885366,-23.571857584474397],[-46.64329114246222,-23.572118227040942],[-46.64315278275065,-23.572183387682575],[-46.64301442303908,-23.572313708965847],[-46.642783823519785,-23.572509190890756],[-46.64236874438507,-23.572834994098933],[-46.642138144865775,-23.572965315382206],[-46.64195366525035,-23.573095636665478],[-46.64172306573106,-23.573160797307114],[-46.641584706019486,-23.57322595794875],[-46.64144634630791,-23.573291118590387],[-46.64140022640405,-23.573291118590387],[-46.641215746788625,-23.573356279232023],[-46.641123506980904,-23.573356279232023],[-46.640800667653906,-23.573486600515295],[-46.64075454775004,-23.573486600515295],[-46.64052394823076,-23.573551761156928],[-46.64029334871147,-23.573616921798564],[-46.64001662928832,-23.573747243081836],[-46.63973990986518,-23.573812403723473],[-46.639509310345886,-23.57387756436511],[-46.639370950634316,-23.573942725006745],[-46.63904811130731,-23.57400788564838],[-46.638725271980306,-23.574138206931654],[-46.63812571323015,-23.57433368885656],[-46.637941233614725,-23.574398849498195],[-46.637848993807005,-23.574398849498195],[-46.63761839428772,-23.57446401013983],[-46.63738779476843,-23.574529170781467],[-46.637157195249145,-23.57465949206474],[-46.63711107534528,-23.57465949206474],[-46.637064955441424,-23.57465949206474],[-46.636926595729854,-23.574724652706376],[-46.63669599621056,-23.574789813348012],[-46.6363270369797,-23.57492013463128],[-46.636280917075844,-23.57492013463128],[-46.63618867726813,-23.57492013463128],[-46.63605031755656,-23.574985295272917],[-46.636004197652696,-23.574985295272917],[-46.63595807774884,-23.574985295272917],[-46.63581971803727,-23.575050455914553],[-46.63558911851798,-23.57511561655619],[-46.63554299861412,-23.57511561655619],[-46.63549687871026,-23.57511561655619],[-46.635220159287115,-23.57511561655619],[-46.6348050801524,-23.57511561655619],[-46.63439000101768,-23.575050455914553],[-46.63415940149839,-23.575050455914553],[-46.63411328159453,-23.575050455914553],[-46.63406716169067,-23.575050455914553],[-46.634021041786816,-23.575050455914553],[-46.63397492188296,-23.575050455914553],[-46.633882682075246,-23.575050455914553],[-46.6339288019791,-23.57511561655619],[-46.63406716169067,-23.575180777197826],[-46.634205521402244,-23.575311098481098],[-46.63425164130611,-23.575376259122734],[-46.634297761209965,-23.575376259122734],[-46.634436120921535,-23.575506580406007],[-46.634436120921535,-23.57557174104764],[-46.63439000101768,-23.57557174104764],[-46.63439000101768,-23.575636901689276],[-46.63434388111382,-23.575636901689276],[-46.63434388111382,-23.57570206233091],[-46.634297761209965,-23.57570206233091],[-46.63425164130611,-23.57570206233091],[-46.634205521402244,-23.57570206233091],[-46.63415940149839,-23.57570206233091],[-46.63411328159453,-23.57570206233091],[-46.63406716169067,-23.57570206233091],[-46.634021041786816,-23.57570206233091],[-46.634021041786816,-23.575636901689276],[-46.63397492188296,-23.575636901689276],[-46.6339288019791,-23.575636901689276],[-46.6339288019791,-23.57570206233091],[-46.633882682075246,-23.57570206233091],[-46.63383656217138,-23.57570206233091],[-46.633790442267525,-23.57570206233091],[-46.633790442267525,-23.575767222972548],[-46.633652082555955,-23.57589754425582],[-46.63355984274824,-23.57609302618073],[-46.63337536313281,-23.57635366874727],[-46.63328312332509,-23.576614311313815],[-46.633237003421236,-23.576614311313815],[-46.633237003421236,-23.57667947195545],[-46.63319088351738,-23.576744632597087],[-46.63319088351738,-23.576809793238724],[-46.63314476361352,-23.576874953880356],[-46.63314476361352,-23.57700527516363],[-46.63309864370966,-23.5771355964469],[-46.63309864370966,-23.577461399655082],[-46.6330525238058,-23.57759172093835],[-46.633006403901945,-23.578047845429804],[-46.63291416409423,-23.57824332735471],[-46.63291416409423,-23.578308487996345],[-46.632868044190374,-23.578308487996345],[-46.632868044190374,-23.57837364863798],[-46.63282192428652,-23.578438809279618],[-46.63277580438266,-23.578438809279618],[-46.63263744467108,-23.578634291204526],[-46.63249908495951,-23.578634291204526],[-46.632452965055656,-23.578634291204526],[-46.6324068451518,-23.578634291204526],[-46.63217624563251,-23.578634291204526],[-46.63203788592094,-23.578634291204526],[-46.631945646113216,-23.578699451846163],[-46.631668926690075,-23.578699451846163],[-46.6315305669785,-23.578699451846163],[-46.63148444707464,-23.578699451846163],[-46.631438327170784,-23.578699451846163],[-46.63139220726693,-23.578699451846163],[-46.63125384755535,-23.578699451846163],[-46.63111548784378,-23.5787646124878],[-46.63088488832449,-23.5787646124878],[-46.630146969862764,-23.578829773129435],[-46.62987025043962,-23.578829773129435],[-46.629824130535766,-23.578829773129435],[-46.6297780106319,-23.578829773129435],[-46.629731890728046,-23.578829773129435],[-46.62968577082419,-23.578829773129435],[-46.62963965092033,-23.578894933771068],[-46.629362931497184,-23.578894933771068],[-46.62931681159333,-23.578894933771068],[-46.62904009217018,-23.578829773129435],[-46.62899397226632,-23.578829773129435],[-46.628947852362465,-23.578829773129435],[-46.62890173245861,-23.578829773129435],[-46.628809492650895,-23.578829773129435],[-46.628717252843174,-23.578829773129435],[-46.62867113293932,-23.578829773129435],[-46.62862501303546,-23.578829773129435],[-46.6285788931316,-23.5787646124878],[-46.62853277322775,-23.5787646124878],[-46.62848665332389,-23.5787646124878],[-46.62844053342003,-23.5787646124878],[-46.62844053342003,-23.578699451846163],[-46.628394413516176,-23.578699451846163],[-46.62834829361231,-23.578699451846163],[-46.62834829361231,-23.578634291204526],[-46.628302173708455,-23.578634291204526],[-46.6282560538046,-23.578634291204526],[-46.6282560538046,-23.57856913056289],[-46.62820993390074,-23.57856913056289],[-46.62811769409303,-23.578438809279618],[-46.62807157418917,-23.578308487996345],[-46.62797933438145,-23.578308487996345],[-46.62765649505445,-23.578308487996345],[-46.62756425524673,-23.578308487996345],[-46.627518135342875,-23.578308487996345],[-46.626872456688865,-23.578308487996345],[-46.62668797707344,-23.578308487996345],[-46.626319017842576,-23.578308487996345],[-46.626180658131005,-23.578308487996345],[-46.626088418323285,-23.578308487996345],[-46.62604229841943,-23.578308487996345],[-46.625857818804,-23.578308487996345],[-46.62571945909242,-23.57824332735471],[-46.62558109938085,-23.57824332735471],[-46.62548885957314,-23.57824332735471],[-46.6249815406307,-23.57824332735471],[-46.624658701303694,-23.57824332735471],[-46.62415138236126,-23.57824332735471],[-46.62392078284197,-23.57824332735471],[-46.62341346389954,-23.57824332735471],[-46.622813905149386,-23.57824332735471],[-46.62262942553396,-23.57824332735471],[-46.62216822649538,-23.57824332735471],[-46.622029866783805,-23.57824332735471],[-46.62184538716838,-23.57824332735471],[-46.62166090755294,-23.57824332735471],[-46.621476427937516,-23.57824332735471],[-46.621107468706654,-23.57824332735471],[-46.620830749283506,-23.57824332735471],[-46.62055402986036,-23.57824332735471],[-46.620323430341074,-23.578178166713077],[-46.62027731043721,-23.578178166713077],[-46.62013895072564,-23.578178166713077],[-46.61990835120635,-23.578178166713077],[-46.61963163178321,-23.578178166713077],[-46.61958551187935,-23.578178166713077],[-46.619539391975486,-23.578178166713077],[-46.61949327207163,-23.578178166713077],[-46.61944715216777,-23.578178166713077],[-46.619401032263916,-23.57824332735471],[-46.61935491236006,-23.57824332735471],[-46.619262672552345,-23.578308487996345],[-46.61912431284077,-23.578438809279618],[-46.618893713321484,-23.57856913056289],[-46.61829415457133,-23.57902525505434],[-46.618248034667474,-23.57902525505434],[-46.61820191476362,-23.579090415695976],[-46.61815579485976,-23.579090415695976],[-46.61815579485976,-23.579155576337612],[-46.618109674955896,-23.579155576337612],[-46.61806355505204,-23.57922073697925],[-46.61801743514818,-23.57922073697925],[-46.61792519534047,-23.579285897620885],[-46.617832955532755,-23.57935105826252],[-46.6177868356289,-23.579416218904157],[-46.61764847591732,-23.579481379545793],[-46.61755623610961,-23.579611700829062],[-46.61751011620575,-23.579611700829062],[-46.61741787639804,-23.5796768614707],[-46.61727951668646,-23.579742022112335],[-46.61700279726331,-23.579937504037243],[-46.61672607784017,-23.580198146603788],[-46.61667995793631,-23.580198146603788],[-46.61658771812859,-23.58026330724542],[-46.616541598224735,-23.580328467887057],[-46.61649547832088,-23.580328467887057],[-46.61626487880159,-23.580523949811965],[-46.61617263899387,-23.5805891104536],[-46.61612651909002,-23.580654271095238],[-46.61608039918616,-23.580654271095238],[-46.615988159378446,-23.580719431736874],[-46.61594203947459,-23.58078459237851],[-46.615895919570725,-23.58078459237851],[-46.61584979966687,-23.580849753020146],[-46.61580367976301,-23.580849753020146],[-46.615757559859155,-23.58091491366178],[-46.6157114399553,-23.58091491366178],[-46.61557308024373,-23.58104523494505],[-46.61548084043601,-23.581110395586688],[-46.61543472053215,-23.581110395586688],[-46.61543472053215,-23.581175556228324],[-46.61529636082058,-23.58124071686996],[-46.615204121012866,-23.581305877511596],[-46.615158001109,-23.581305877511596],[-46.615158001109,-23.581371038153232],[-46.61506576130129,-23.58143619879487],[-46.61474292197428,-23.581631680719774],[-46.614558442358856,-23.581762002003046],[-46.61446620255114,-23.581827162644682],[-46.614327842839565,-23.581957483927955],[-46.61423560303185,-23.581957483927955],[-46.614327842839565,-23.582087805211227],[-46.61442008264728,-23.582283287136132],[-46.61460456226271,-23.582543929702677],[-46.614696802070426,-23.58267425098595],[-46.61474292197428,-23.582739411627585],[-46.61474292197428,-23.58280457226922],[-46.61478904187814,-23.582869732910858],[-46.614835161782004,-23.58293489355249],[-46.61488128168586,-23.583000054194127],[-46.61492740158972,-23.583065214835763],[-46.614973521493575,-23.5831303754774],[-46.61506576130129,-23.583195536119035],[-46.61506576130129,-23.58326069676067],[-46.615111881205145,-23.58326069676067],[-46.61525024091672,-23.583325857402308],[-46.61529636082058,-23.583391018043944],[-46.61538860062829,-23.583391018043944],[-46.61548084043601,-23.58345617868558],[-46.615757559859155,-23.58358649996885],[-46.61584979966687,-23.58358649996885],[-46.615988159378446,-23.583651660610485],[-46.61612651909002,-23.583651660610485],[-46.61626487880159,-23.58371682125212],[-46.616403238513165,-23.58371682125212],[-46.616541598224735,-23.58371682125212],[-46.61667995793631,-23.583781981893758],[-46.61681831764788,-23.583781981893758],[-46.616956677359454,-23.583847142535394],[-46.61709503707103,-23.58391230317703],[-46.617187276878745,-23.583977463818666],[-46.61727951668646,-23.584042624460302],[-46.617325636590316,-23.58410778510194],[-46.61746399630189,-23.584172945743575],[-46.61751011620575,-23.58423810638521],[-46.61755623610961,-23.584303267026844],[-46.617602356013464,-23.584303267026844],[-46.61764847591732,-23.584433588310116],[-46.61769459582118,-23.584498748951752],[-46.617740715725034,-23.58456390959339],[-46.61792519534047,-23.584824552159933],[-46.61801743514818,-23.585020034084838],[-46.61820191476362,-23.58534583729302],[-46.61834027447519,-23.585541319217928],[-46.618386394379044,-23.585671640501197],[-46.61857087399448,-23.585997443709378],[-46.618755353609906,-23.586323246917555],[-46.61893983322534,-23.5865838894841],[-46.619032073033054,-23.58677937140901],[-46.619170432744625,-23.58704001397555],[-46.6193087924562,-23.587235495900458],[-46.619401032263916,-23.587430977825367],[-46.61944715216777,-23.587626459750272],[-46.61949327207163,-23.587691620391908],[-46.619539391975486,-23.58782194167518],[-46.61958551187935,-23.587952262958453],[-46.61963163178321,-23.588082584241725],[-46.619677751687064,-23.588212905524998],[-46.61972387159092,-23.588343226808266],[-46.61976999149478,-23.588538708733175],[-46.61986223130249,-23.588734190658084],[-46.61990835120635,-23.588994833224625],[-46.61990835120635,-23.58905999386626],[-46.62000059101407,-23.58958127899935],[-46.620046710917926,-23.589841921565892],[-46.62013895072564,-23.59029804605734],[-46.620185070629496,-23.590558688623886],[-46.62023119053335,-23.590754170548795],[-46.62027731043721,-23.590949652473704],[-46.620323430341074,-23.59114513439861],[-46.62036955024493,-23.59127545568188],[-46.62036955024493,-23.59147093760679],[-46.62041567014879,-23.591666419531695],[-46.620461790052644,-23.591861901456603],[-46.6205079099565,-23.592057383381512],[-46.62055402986036,-23.59225286530642],[-46.620600149764215,-23.592448347231326],[-46.620600149764215,-23.592578668514598],[-46.620600149764215,-23.59270898979787],[-46.62064626966807,-23.592774150439507],[-46.620692389571936,-23.59290447172278],[-46.62073850947579,-23.593230274930956],[-46.620830749283506,-23.593686399422406],[-46.62087686918736,-23.593881881347315],[-46.62092298909122,-23.59414252391386],[-46.62096910899508,-23.594272845197132],[-46.6210613488028,-23.594663809046946],[-46.621107468706654,-23.594859290971854],[-46.621245828418225,-23.595119933538395],[-46.62133806822594,-23.59538057610494],[-46.62143030803366,-23.595510897388213],[-46.621476427937516,-23.595641218671485],[-46.62156866774523,-23.59583670059639],[-46.62166090755294,-23.5960321825213],[-46.62175314736066,-23.596227664446207],[-46.62184538716838,-23.596357985729476],[-46.62198374687995,-23.59661862829602],[-46.62207598668766,-23.59681411022093],[-46.62221434639924,-23.597009592145838],[-46.62230658620695,-23.597205074070743],[-46.622444945918524,-23.597530877278924],[-46.6225833056301,-23.59772635920383],[-46.62272166534167,-23.597987001770374],[-46.62286002505324,-23.598182483695282],[-46.62295226486096,-23.598443126261824],[-46.623090624572534,-23.598638608186732],[-46.623228984284104,-23.598899250753277],[-46.62341346389954,-23.599225053961455],[-46.623459583803395,-23.599420535886363],[-46.62350570370725,-23.599420535886363],[-46.62355182361111,-23.599550857169636],[-46.623597943514966,-23.59961601781127],[-46.62364406341883,-23.59974633909454],[-46.62373630322654,-23.599876660377813],[-46.623874662938114,-23.600137302944358],[-46.62405914255355,-23.60052826679417],[-46.62419750226512,-23.60072374871908],[-46.624243622168976,-23.600854070002352],[-46.62428974207283,-23.60091923064399],[-46.6243358619767,-23.60104955192726],[-46.62447422168827,-23.601440515777075],[-46.62461258139984,-23.60170115834362],[-46.62470482120756,-23.601831479626888],[-46.62470482120756,-23.601896640268524],[-46.624750941111415,-23.602026961551797],[-46.62484318091913,-23.60215728283507],[-46.625027660534556,-23.602548246684883],[-46.62507378043842,-23.602678567968155],[-46.62521214014999,-23.603004371176336],[-46.62525826005385,-23.60319985310124],[-46.625304379957704,-23.603265013742877],[-46.62535049986156,-23.603330174384514],[-46.62539661976542,-23.603460495667786],[-46.62544273966928,-23.60359081695106],[-46.625534979476996,-23.603786298875963],[-46.62558109938085,-23.603916620159236],[-46.625673339188566,-23.604112102084144],[-46.62571945909242,-23.604242423367417],[-46.62576557899628,-23.60437274465069],[-46.625811698900144,-23.60437274465069],[-46.625811698900144,-23.604437905292322],[-46.625857818804,-23.604568226575594],[-46.62590393870786,-23.60463338721723],[-46.62590393870786,-23.604698547858867],[-46.625950058611714,-23.604763708500503],[-46.62599617851557,-23.604894029783775],[-46.62604229841943,-23.605024351067048],[-46.62613453822714,-23.605154672350317],[-46.62613453822714,-23.605219832991953],[-46.62622677803486,-23.605350154275225],[-46.62622677803486,-23.605480475558497],[-46.62627289793872,-23.605545636200134],[-46.626319017842576,-23.60561079684177],[-46.62636513774643,-23.605741118125042],[-46.62641125765029,-23.60587143940831],[-46.626457377554146,-23.605936600049947],[-46.626503497458,-23.60606692133322],[-46.62654961736187,-23.606197242616492],[-46.626595737265724,-23.60626240325813],[-46.62664185716958,-23.6063927245414],[-46.62668797707344,-23.606457885183033],[-46.626734096977295,-23.606588206466306],[-46.62678021688115,-23.606718527749578],[-46.62682633678501,-23.606783688391214],[-46.626872456688865,-23.60684884903285],[-46.626872456688865,-23.606914009674487],[-46.626964696496586,-23.607109491599395],[-46.6270569363043,-23.607370134165937],[-46.627103056208156,-23.60750045544921],[-46.62714917611201,-23.607565616090845],[-46.62719529601587,-23.607695937374118],[-46.62724141591973,-23.607761098015754],[-46.62733365572745,-23.60795657994066],[-46.627379775631304,-23.60808690122393],[-46.62747201543902,-23.60828238314884],[-46.627518135342875,-23.608347543790476],[-46.62761037515059,-23.608477865073745],[-46.62765649505445,-23.60854302571538],[-46.62770261495831,-23.60873850764029],[-46.627748734862166,-23.608868828923562],[-46.62779485476602,-23.608999150206834],[-46.62784097466988,-23.60906431084847],[-46.62788709457374,-23.609259792773376],[-46.62793321447759,-23.609390114056648],[-46.62797933438145,-23.609455274698284],[-46.62797933438145,-23.60952043533992],[-46.628025454285314,-23.609585595981557],[-46.628025454285314,-23.609650756623193],[-46.628025454285314,-23.609846238548098],[-46.62807157418917,-23.60997655983137],[-46.62807157418917,-23.610041720473006],[-46.62807157418917,-23.61017204175628],[-46.62807157418917,-23.610237202397915],[-46.62807157418917,-23.61030236303955],[-46.62807157418917,-23.610432684322824],[-46.62807157418917,-23.610497844964456],[-46.62807157418917,-23.610563005606092],[-46.62807157418917,-23.610693326889365],[-46.628025454285314,-23.610823648172637],[-46.628025454285314,-23.611019130097546],[-46.62793321447759,-23.611344933305723],[-46.62788709457374,-23.61141009394736],[-46.62788709457374,-23.611540415230632],[-46.62784097466988,-23.611670736513904],[-46.62779485476602,-23.611801057797177],[-46.627748734862166,-23.611931379080445],[-46.62770261495831,-23.612061700363718],[-46.62765649505445,-23.61219202164699],[-46.62756425524673,-23.6123875035719],[-46.627518135342875,-23.612582985496804],[-46.62747201543902,-23.612582985496804],[-46.627379775631304,-23.612908788704985],[-46.62733365572745,-23.613039109988257],[-46.62724141591973,-23.613234591913162],[-46.62724141591973,-23.6132997525548],[-46.62719529601587,-23.613364913196435],[-46.62719529601587,-23.61343007383807],[-46.62714917611201,-23.61362555576298],[-46.627103056208156,-23.613690716404616],[-46.627103056208156,-23.613755877046252],[-46.627103056208156,-23.613821037687888],[-46.6270569363043,-23.61388619832952],[-46.6270569363043,-23.614016519612793],[-46.626964696496586,-23.614472644104247],[-46.626964696496586,-23.614602965387515],[-46.62691857659273,-23.614798447312424],[-46.62691857659273,-23.614928768595696],[-46.62691857659273,-23.614993929237333],[-46.62691857659273,-23.615124250520605],[-46.62691857659273,-23.615189411162238],[-46.626964696496586,-23.61531973244551],[-46.6270569363043,-23.615906178220232],[-46.62714917611201,-23.61610166014514],[-46.62719529601587,-23.616362302711686],[-46.62719529601587,-23.616492623994958],[-46.62728753582359,-23.61688358784477],[-46.62733365572745,-23.61707906976968],[-46.627379775631304,-23.617274551694585],[-46.62742589553516,-23.617470033619494],[-46.62747201543902,-23.61753519426113],[-46.62747201543902,-23.617600354902766],[-46.62742589553516,-23.61773067618604],[-46.627518135342875,-23.61818680067749],[-46.62756425524673,-23.61831712196076],[-46.62761037515059,-23.618447443244033],[-46.62765649505445,-23.618577764527302],[-46.62770261495831,-23.618708085810574],[-46.62770261495831,-23.61877324645221],[-46.627748734862166,-23.619033889018755],[-46.62779485476602,-23.619164210302028],[-46.62779485476602,-23.61922937094366],[-46.62779485476602,-23.619294531585297],[-46.62779485476602,-23.61942485286857],[-46.62779485476602,-23.619620334793478],[-46.62779485476602,-23.61975065607675],[-46.62784097466988,-23.619946138001655],[-46.62784097466988,-23.62001129864329],[-46.62784097466988,-23.62040226249311],[-46.62784097466988,-23.620923547626195],[-46.62784097466988,-23.621053868909467],[-46.62788709457374,-23.621249350834372],[-46.62788709457374,-23.62144483275928],[-46.62788709457374,-23.621705475325825],[-46.62788709457374,-23.62190095725073],[-46.62793321447759,-23.62209643917564],[-46.62793321447759,-23.62222676045891],[-46.62797933438145,-23.622487403025456],[-46.628025454285314,-23.622617724308725],[-46.62807157418917,-23.622813206233634],[-46.62811769409303,-23.62307384880018],[-46.62820993390074,-23.623269330725083],[-46.6282560538046,-23.623529973291628],[-46.628394413516176,-23.623920937141442],[-46.62844053342003,-23.62411641906635],[-46.62853277322775,-23.624377061632895],[-46.6285788931316,-23.624507382916168],[-46.62862501303546,-23.62476802548271],[-46.628717252843174,-23.625028668049254],[-46.628809492650895,-23.625224149974162],[-46.628809492650895,-23.62535447125743],[-46.62890173245861,-23.62554995318234],[-46.62899397226632,-23.625940917032153],[-46.62904009217018,-23.626136398957062],[-46.629086212074036,-23.626266720240334],[-46.6291323319779,-23.62633188088197],[-46.62917845188176,-23.62652736280688],[-46.62922457178561,-23.626657684090148],[-46.62927069168947,-23.626853166015056],[-46.62931681159333,-23.62698348729833],[-46.629362931497184,-23.6271138085816],[-46.62950129120876,-23.627700254356323],[-46.62954741111262,-23.627895736281232],[-46.629593531016475,-23.628156378847773],[-46.62963965092033,-23.628351860772682],[-46.62968577082419,-23.62867766398086],[-46.629731890728046,-23.628938306547404],[-46.629731890728046,-23.62900346718904],[-46.6297780106319,-23.62919894911395],[-46.6297780106319,-23.629264109755585],[-46.6297780106319,-23.629394431038854],[-46.629824130535766,-23.629394431038854],[-46.630008610151194,-23.629394431038854],[-46.63019308976663,-23.62945959168049],[-46.630515929093626,-23.62945959168049],[-46.630792648516774,-23.629524752322126],[-46.63125384755535,-23.629589912963763],[-46.6315305669785,-23.629589912963763],[-46.63189952620936,-23.6296550736054],[-46.632222365536364,-23.629720234247035],[-46.6327296844788,-23.62978539488867],[-46.6330525238058,-23.629850555530307],[-46.63332924322895,-23.629850555530307],[-46.633513722844384,-23.629915716171944],[-46.633652082555955,-23.629915716171944],[-46.63374432236367,-23.629915716171944],[-46.63415940149839,-23.629915716171944],[-46.634436120921535,-23.629915716171944],[-46.63540463890255,-23.629915716171944],[-46.636004197652696,-23.629850555530307],[-46.63605031755656,-23.629850555530307],[-46.6363270369797,-23.629850555530307],[-46.636511516595135,-23.629850555530307],[-46.636649876306706,-23.629850555530307],[-46.63674211611442,-23.62978539488867],[-46.63734167486457,-23.629720234247035],[-46.63766451419158,-23.6296550736054],[-46.63854079236487,-23.629589912963763],[-46.63909423121117,-23.629524752322126],[-46.6396015501536,-23.62945959168049],[-46.64029334871147,-23.629394431038854],[-46.64038558851918,-23.629394431038854],[-46.640431708423044,-23.629394431038854],[-46.640570068134615,-23.629394431038854],[-46.64075454775004,-23.629394431038854],[-46.64084678755776,-23.629394431038854],[-46.64098514726933,-23.629394431038854],[-46.64116962688477,-23.629394431038854],[-46.641215746788625,-23.629394431038854],[-46.64126186669248,-23.629394431038854],[-46.64130798659634,-23.62945959168049],[-46.641492466211766,-23.62945959168049],[-46.64153858611563,-23.62945959168049],[-46.641584706019486,-23.62945959168049],[-46.6416769458272,-23.62945959168049],[-46.64181530553877,-23.629524752322126],[-46.64190754534649,-23.629524752322126],[-46.64195366525035,-23.629524752322126],[-46.64204590505806,-23.629589912963763],[-46.64223038467349,-23.6296550736054],[-46.64227650457735,-23.6296550736054],[-46.642414864288924,-23.629720234247035],[-46.64250710409664,-23.62978539488867],[-46.642645463808215,-23.629850555530307],[-46.64269158371207,-23.629850555530307],[-46.64273770361593,-23.629850555530307],[-46.642783823519785,-23.629915716171944],[-46.64282994342364,-23.629915716171944],[-46.64296830313521,-23.630046037455212],[-46.64306054294293,-23.630046037455212],[-46.64310666284679,-23.63011119809685],[-46.643198902654504,-23.630176358738485],[-46.64324502255836,-23.63024151938012],[-46.643429502173795,-23.63043700130503],[-46.64402906092394,-23.630827965154843],[-46.64416742063552,-23.63089312579648],[-46.64425966044323,-23.63089312579648],[-46.644490259962524,-23.630958286438116],[-46.644628619674094,-23.63102344707975],[-46.644766979385665,-23.63102344707975],[-46.644859219193386,-23.63102344707975],[-46.64490533909724,-23.63102344707975],[-46.644997578904956,-23.63102344707975],[-46.64513593861653,-23.630958286438116],[-46.64518205852039,-23.630958286438116],[-46.64550489784739,-23.63089312579648],[-46.645643257558966,-23.63102344707975],[-46.64568937746282,-23.630958286438116],[-46.645781617270536,-23.631088607721388],[-46.6464734158284,-23.63187053542102],[-46.64656565563612,-23.632000856704288],[-46.64675013525155,-23.631935696062655],[-46.64679625515541,-23.63187053542102],[-46.646842375059265,-23.631805374779383],[-46.64688849496312,-23.63167505349611],[-46.646980734770835,-23.6314795715712],[-46.646980734770835,-23.631414410929565],[-46.6470268546747,-23.631284089646297],[-46.6470268546747,-23.63121892900466],[-46.647072974578556,-23.631153768363024],[-46.647072974578556,-23.631088607721388],[-46.64711909448241,-23.63102344707975],[-46.64716521438627,-23.630958286438116],[-46.64725745419398,-23.630827965154843],[-46.64730357409784,-23.630762804513207],[-46.6473496940017,-23.63069764387157],[-46.64744193380942,-23.630567322588302],[-46.6476725333287,-23.630371840663393],[-46.6476725333287,-23.630306680021757],[-46.64771865323256,-23.63024151938012],[-46.64776477313642,-23.63024151938012],[-46.64771865323256,-23.630502161946666],[-46.64776477313642,-23.630502161946666],[-46.64781089304028,-23.630371840663393],[-46.64781089304028,-23.630306680021757],[-46.64785701294414,-23.630306680021757],[-46.64790313284799,-23.630306680021757],[-46.64794925275185,-23.630306680021757],[-46.64817985227114,-23.630306680021757],[-46.648272092078855,-23.630306680021757],[-46.64831821198271,-23.63024151938012],[-46.64836433188657,-23.63024151938012],[-46.6497479290023,-23.629850555530307],[-46.650624207175596,-23.6296550736054],[-46.650624207175596,-23.629589912963763],[-46.65067032707946,-23.629589912963763],[-46.65071644698332,-23.629589912963763],[-46.650762566887174,-23.629524752322126],[-46.65080868679103,-23.629524752322126],[-46.65080868679103,-23.62945959168049],[-46.65163884506047,-23.628351860772682],[-46.65173108486818,-23.62822153948941],[-46.651777204772046,-23.628091218206137],[-46.65186944457976,-23.627960896922865],[-46.65223840381062,-23.627178969223237],[-46.65293020236849,-23.625484792540703],[-46.65306856208006,-23.625224149974162],[-46.653114681983915,-23.625158989332526],[-46.65316080188777,-23.625028668049254],[-46.65325304169549,-23.62489834676598],[-46.65329916159935,-23.624833186124345],[-46.65343752131092,-23.624572543557804],[-46.65403708006107,-23.623595133933264],[-46.654175439772644,-23.62333449136672],[-46.6542215596765,-23.62333449136672],[-46.654313799484214,-23.623139009441815],[-46.65435991938808,-23.62307384880018],[-46.654406039291935,-23.622943527516906],[-46.65449827909965,-23.62287836687527],[-46.65459051890736,-23.62268288495036],[-46.6547749985228,-23.622357081742184],[-46.65482111842665,-23.622357081742184],[-46.65486723833051,-23.62222676045891],[-46.65500559804208,-23.622031278534003],[-46.6550978378498,-23.62177063596746],[-46.655328437369086,-23.62144483275928],[-46.655328437369086,-23.621379672117644],[-46.65528231746523,-23.621314511476008],[-46.655190077657515,-23.621249350834372],[-46.65514395775366,-23.62118419019274],[-46.6550978378498,-23.62118419019274],[-46.6550978378498,-23.621119029551103],[-46.65514395775366,-23.621119029551103],[-46.65542067717681,-23.62098870826783],[-46.65569739659995,-23.620793226342922],[-46.65588187621538,-23.62066290505965],[-46.65602023592695,-23.62053258377638],[-46.656250835446244,-23.62040226249311],[-46.656389195157814,-23.620337101851472],[-46.65657367477325,-23.6202067805682],[-46.65671203448482,-23.620141619926564],[-46.656896514100254,-23.62001129864329],[-46.65712711361954,-23.61988097736002],[-46.6574960728504,-23.61975065607675],[-46.657957271888975,-23.619490013510205],[-46.65864907044684,-23.619164210302028],[-46.65920250929314,-23.618903567735483],[-46.659479228716286,-23.61877324645221],[-46.65952534862014,-23.61877324645221],[-46.65961758842786,-23.618708085810574],[-46.65998654765872,-23.61851260388567],[-46.66007878746643,-23.61851260388567],[-46.66021714717801,-23.618382282602397],[-46.660816705928156,-23.618121640035852],[-46.66086282583201,-23.618121640035852],[-46.661093425351304,-23.618056479394216],[-46.661093425351304,-23.61799131875258],[-46.66113954525516,-23.61799131875258],[-46.66183134381303,-23.617665515544402],[-46.6619697035246,-23.617600354902766],[-46.66206194333232,-23.61753519426113],[-46.6619697035246,-23.617404872977858],[-46.661877463716884,-23.617274551694585],[-46.66201582342846,-23.61720939105295],[-46.66206194333232,-23.61720939105295],[-46.66220030304389,-23.617144230411316],[-46.6622925428516,-23.61707906976968],[-46.66243090256318,-23.617013909128044],[-46.662523142370894,-23.617013909128044],[-46.66261538217861,-23.616948748486408],[-46.66279986179404,-23.616818427203135],[-46.66339942054419,-23.61655778463659],[-46.66363002006348,-23.61642746335332],[-46.663676139967336,-23.61642746335332],[-46.66381449967891,-23.616362302711686],[-46.664091219102055,-23.616231981428413],[-46.66427569871749,-23.616166820786777],[-46.66441405842906,-23.616166820786777],[-46.664736897756065,-23.61610166014514],[-46.66482913756378,-23.61610166014514],[-46.66501361717921,-23.616036499503505],[-46.6652442166985,-23.61597133886187],[-46.6655670560255,-23.615906178220232],[-46.6661204948718,-23.615775856936963],[-46.66625885458337,-23.615775856936963],[-46.66635109439108,-23.615710696295327],[-46.66648945410266,-23.615710696295327],[-46.66658169391037,-23.615710696295327],[-46.666720053621944,-23.61564553565369],[-46.66685841333352,-23.615580375012055],[-46.666950653141235,-23.615580375012055],[-46.66704289294895,-23.61551521437042],[-46.66713513275667,-23.61551521437042],[-46.66722737256438,-23.615450053728782],[-46.66741185217981,-23.615384893087146],[-46.66750409198753,-23.61531973244551],[-46.6676424516991,-23.615254571803874],[-46.667734691506816,-23.615189411162238],[-46.66782693131453,-23.615124250520605],[-46.66796529102611,-23.61505908987897],[-46.66810365073768,-23.614928768595696],[-46.66819589054539,-23.61486360795406],[-46.66833425025697,-23.614733286670788],[-46.668380370160826,-23.614733286670788],[-46.66907216871869,-23.614146840896066],[-46.66921052843026,-23.61408168025443],[-46.66990232698813,-23.613495234479707],[-46.67027128621899,-23.613234591913162],[-46.67031740612285,-23.613234591913162],[-46.670363526026705,-23.613169431271526],[-46.67068636535371,-23.613039109988257],[-46.67073248525757,-23.61297394934662],[-46.670870844969144,-23.612908788704985],[-46.67114756439229,-23.612778467421712],[-46.67128592410386,-23.612713306780076],[-46.671516523623154,-23.61264814613844],[-46.67156264352701,-23.612582985496804],[-46.67197772266173,-23.6123875035719],[-46.67225444208488,-23.612257182288626],[-46.672438921700305,-23.61219202164699],[-46.67253116150802,-23.612126861005354],[-46.67303848045046,-23.611931379080445],[-46.673084600354315,-23.611931379080445],[-46.673222960065885,-23.61186621843881],[-46.67359191929675,-23.611670736513904],[-46.67368415910446,-23.611605575872268],[-46.67377639891218,-23.611540415230632],[-46.673868638719895,-23.611475254588996],[-46.674006998431466,-23.61141009394736],[-46.67414535814304,-23.611279772664087],[-46.67437595766233,-23.611084290739182],[-46.67456043727776,-23.611019130097546],[-46.67460655718162,-23.61095396945591],[-46.674652677085476,-23.610888808814273],[-46.67474491689319,-23.610758487531],[-46.67483715670091,-23.610693326889365],[-46.67497551641248,-23.610497844964456],[-46.67511387612405,-23.61030236303955],[-46.67534447564334,-23.60997655983137],[-46.67548283535491,-23.609781077906465],[-46.67580567468192,-23.609390114056648],[-46.67599015429735,-23.609129471490103],[-46.67603627420121,-23.609129471490103],[-46.676082394105066,-23.60906431084847],[-46.67617463391278,-23.608868828923562],[-46.676359113528214,-23.608608186357017],[-46.67640523343207,-23.60854302571538],[-46.67645135333593,-23.608477865073745],[-46.67645135333593,-23.608412704432112],[-46.67654359314364,-23.60828238314884],[-46.67654359314364,-23.608217222507204],[-46.67640523343207,-23.60795657994066],[-46.67631299362436,-23.607695937374118],[-46.67617463391278,-23.6073049735243],[-46.67612851400892,-23.607174652241028],[-46.67599015429735,-23.606914009674487],[-46.67599015429735,-23.60684884903285],[-46.675944034393495,-23.606718527749578],[-46.675851794585775,-23.606457885183033],[-46.67580567468192,-23.606327563899764],[-46.675713434874204,-23.606197242616492],[-46.67566731497035,-23.605936600049947],[-46.67552895525877,-23.60561079684177],[-46.6753905955472,-23.60528499363359],[-46.67534447564334,-23.605219832991953],[-46.67525223583563,-23.605154672350317],[-46.67520611593177,-23.605024351067048],[-46.67515999602791,-23.605024351067048],[-46.67515999602791,-23.60495919042541],[-46.67511387612405,-23.604894029783775],[-46.675067756220194,-23.604698547858867],[-46.67502163631634,-23.604568226575594],[-46.67497551641248,-23.604503065933958],[-46.67497551641248,-23.604437905292322],[-46.67497551641248,-23.60437274465069],[-46.674929396508624,-23.604307584009053],[-46.67497551641248,-23.604242423367417],[-46.67497551641248,-23.60417726272578],[-46.674929396508624,-23.60417726272578],[-46.674929396508624,-23.60404694144251],[-46.674791036797046,-23.603655977592695],[-46.67456043727776,-23.603069531817972],[-46.674514317373905,-23.602874049893064],[-46.67446819747005,-23.60274372860979],[-46.674422077566184,-23.602548246684883],[-46.67437595766233,-23.602483086043247],[-46.674283717854614,-23.602222443476705],[-46.67423759795076,-23.602092122193433],[-46.67423759795076,-23.602026961551797],[-46.6741914780469,-23.601831479626888],[-46.67409923823919,-23.60137535513544],[-46.67405311833532,-23.60104955192726],[-46.67405311833532,-23.600788909360716],[-46.674006998431466,-23.600593427435808],[-46.674006998431466,-23.600463106152535],[-46.67396087852761,-23.600332784869266],[-46.67396087852761,-23.600202463585994],[-46.67396087852761,-23.600006981661085],[-46.67396087852761,-23.599876660377813],[-46.67396087852761,-23.599681178452908],[-46.67396087852761,-23.599550857169636],[-46.67396087852761,-23.599485696528],[-46.67391475862375,-23.599355375244727],[-46.67391475862375,-23.59929021460309],[-46.67391475862375,-23.59915989331982],[-46.67391475862375,-23.598964411394913],[-46.67391475862375,-23.598573447545096],[-46.67391475862375,-23.59850828690346],[-46.67391475862375,-23.598377965620188],[-46.67396087852761,-23.598312804978555],[-46.67396087852761,-23.598182483695282],[-46.67396087852761,-23.598117323053646],[-46.67396087852761,-23.597987001770374],[-46.67396087852761,-23.5978566804871],[-46.67396087852761,-23.597791519845465],[-46.67396087852761,-23.59772635920383],[-46.67396087852761,-23.597661198562196],[-46.67396087852761,-23.59759603792056],[-46.67396087852761,-23.597530877278924],[-46.67391475862375,-23.597465716637288],[-46.67391475862375,-23.59740055599565],[-46.673868638719895,-23.597335395354015],[-46.67377639891218,-23.59707475278747],[-46.67368415910446,-23.596879270862566],[-46.673638039200604,-23.596748949579293],[-46.67359191929675,-23.59661862829602],[-46.67354579939289,-23.596553467654385],[-46.673499679489034,-23.596423146371112],[-46.67345355958518,-23.596357985729476],[-46.67345355958518,-23.596292825087843],[-46.67336131977746,-23.59616250380457],[-46.67336131977746,-23.596097343162935],[-46.6733151998736,-23.5960321825213],[-46.6733151998736,-23.595967021879662],[-46.67326907996974,-23.595967021879662],[-46.67326907996974,-23.595901861238026],[-46.67326907996974,-23.59583670059639],[-46.67326907996974,-23.595771539954754],[-46.673222960065885,-23.595771539954754],[-46.673222960065885,-23.595706379313118],[-46.673222960065885,-23.595641218671485],[-46.67317684016203,-23.59557605802985],[-46.67317684016203,-23.595510897388213],[-46.67313072025817,-23.59538057610494],[-46.67313072025817,-23.595315415463304],[-46.67313072025817,-23.595250254821668],[-46.673084600354315,-23.595250254821668],[-46.673084600354315,-23.59518509418003],[-46.673084600354315,-23.595119933538395],[-46.67303848045046,-23.59492445161349],[-46.67303848045046,-23.594859290971854],[-46.67303848045046,-23.594663809046946],[-46.6729923605466,-23.594468327122037],[-46.6729923605466,-23.594272845197132],[-46.6729923605466,-23.594207684555496],[-46.67294624064274,-23.594077363272223],[-46.67294624064274,-23.594012202630587],[-46.67294624064274,-23.593881881347315],[-46.67294624064274,-23.59381672070568],[-46.67294624064274,-23.593751560064042],[-46.67294624064274,-23.593621238780774],[-46.67290012073888,-23.593556078139137],[-46.67290012073888,-23.59336059621423],[-46.67290012073888,-23.593295435572593],[-46.67290012073888,-23.593230274930956],[-46.672854000835024,-23.593034793006048],[-46.672854000835024,-23.59290447172278],[-46.672854000835024,-23.59270898979787],[-46.67280788093117,-23.59251350787296],[-46.67280788093117,-23.59238318658969],[-46.67276176102731,-23.591992222739876],[-46.67276176102731,-23.59192706209824],[-46.67276176102731,-23.591861901456603],[-46.67271564112345,-23.591796740814967],[-46.672669521219596,-23.591340616323517],[-46.67262340131574,-23.59114513439861],[-46.67262340131574,-23.591014813115336],[-46.67262340131574,-23.590949652473704],[-46.672577281411876,-23.590884491832067],[-46.672577281411876,-23.59081933119043],[-46.672577281411876,-23.590754170548795],[-46.672577281411876,-23.59068900990716],[-46.67253116150802,-23.590623849265523],[-46.67253116150802,-23.590558688623886],[-46.67248504160416,-23.590428367340614],[-46.672438921700305,-23.59029804605734],[-46.672438921700305,-23.59023288541571],[-46.672438921700305,-23.590167724774073],[-46.67239280179645,-23.590167724774073],[-46.67234668189259,-23.5900374034908],[-46.67234668189259,-23.589972242849164],[-46.67234668189259,-23.589907082207528],[-46.672300561988735,-23.589841921565892],[-46.67225444208488,-23.58971160028262],[-46.672208322181014,-23.58945095771608],[-46.67216220227716,-23.589385797074442],[-46.6721160823733,-23.58925547579117],[-46.6721160823733,-23.589190315149533],[-46.6721160823733,-23.589125154507897],[-46.67206996246944,-23.58905999386626],[-46.67206996246944,-23.588994833224625],[-46.67197772266173,-23.588734190658084],[-46.671885482854016,-23.588343226808266],[-46.67183936295015,-23.58827806616663],[-46.67174712314244,-23.587887102316817],[-46.67170100323858,-23.587756781033544],[-46.67160876343087,-23.58756129910864],[-46.67147040371929,-23.587105174617186],[-46.67142428381543,-23.58690969269228],[-46.67142428381543,-23.586844532050645],[-46.67137816391158,-23.58677937140901],[-46.67133204400772,-23.586649050125736],[-46.671239804200006,-23.58638840755919],[-46.67114756439229,-23.58612776499265],[-46.67105532458457,-23.58593228306774],[-46.671009204680715,-23.585867122426105],[-46.67096308477686,-23.58580196178447],[-46.67096308477686,-23.585736801142833],[-46.670916964873,-23.585671640501197],[-46.670870844969144,-23.58560647985956],[-46.67082472506529,-23.58560647985956],[-46.67082472506529,-23.585541319217928],[-46.67077860516143,-23.585541319217928],[-46.67050188573828,-23.585020034084838],[-46.670225166315134,-23.584303267026844],[-46.67017904641128,-23.58423810638521],[-46.67013292650742,-23.58423810638521],[-46.670086806603564,-23.584172945743575],[-46.6700406866997,-23.58410778510194],[-46.669948446891986,-23.584042624460302],[-46.66990232698813,-23.583977463818666],[-46.669164408526406,-23.58358649996885],[-46.6688415691994,-23.583391018043944],[-46.668795449295544,-23.583391018043944],[-46.668657089583974,-23.58326069676067],[-46.66750409198753,-23.582609090344313],[-46.6673196123721,-23.58247876906104],[-46.66718125266053,-23.582413608419404],[-46.666812293429665,-23.5822181264945],[-46.66607437496794,-23.581762002003046],[-46.66584377544865,-23.581631680719774],[-46.66570541573708,-23.581566520078137],[-46.66565929583322,-23.581566520078137],[-46.6655670560255,-23.581501359436505],[-46.66542869631393,-23.58143619879487],[-46.66515197689078,-23.58124071686996],[-46.664875257467635,-23.581110395586688],[-46.66446017833292,-23.580849753020146],[-46.6643679385252,-23.58078459237851],[-46.66422957881363,-23.580719431736874],[-46.66386061958277,-23.580523949811965],[-46.663676139967336,-23.580393628528693],[-46.66307658121718,-23.580067825320516],[-46.662753741890185,-23.579872343395607],[-46.66261538217861,-23.57980718275397],[-46.662523142370894,-23.579742022112335],[-46.66247702246704,-23.579742022112335],[-46.66247702246704,-23.5796768614707],[-46.6622925428516,-23.579611700829062],[-46.66192358362074,-23.57935105826252],[-46.661877463716884,-23.57935105826252],[-46.661231785062874,-23.578960094412704],[-46.660816705928156,-23.578634291204526],[-46.660678346216585,-23.57856913056289],[-46.66058610640887,-23.578438809279618],[-46.65998654765872,-23.57791752414653],[-46.659802068043284,-23.577722042221623],[-46.65970982823557,-23.577656881579987],[-46.65952534862014,-23.577526560296718],[-46.65929474910085,-23.577265917730173],[-46.6590180296777,-23.57700527516363],[-46.65892578986999,-23.576940114521992],[-46.65855683063913,-23.576614311313815],[-46.658464590831414,-23.576483990030543],[-46.65841847092756,-23.576483990030543],[-46.65823399131212,-23.57635366874727],[-46.658049511696696,-23.576158186822365],[-46.65800339179284,-23.57609302618073],[-46.65786503208126,-23.576027865539093],[-46.657680552465834,-23.575832383614184],[-46.65744995294654,-23.575636901689276],[-46.657265473331115,-23.57544141976437],[-46.657034873811824,-23.575245937839462],[-46.65685039419639,-23.575050455914553],[-46.656758154388676,-23.574985295272917],[-46.656389195157814,-23.57465949206474],[-46.65620471554239,-23.57446401013983],[-46.656112475734666,-23.574398849498195],[-46.655835756311525,-23.574138206931654],[-46.65555903688838,-23.57387756436511],[-46.65523619756137,-23.573616921798564],[-46.6550978378498,-23.57342143987366],[-46.654959478138224,-23.573356279232023],[-46.65486723833051,-23.573291118590387],[-46.65472887861894,-23.573160797307114],[-46.65426767958036,-23.572704672815664],[-46.65394484025335,-23.57244403024912],[-46.65380648054178,-23.57224854832421],[-46.653760360637925,-23.57224854832421],[-46.65366812083021,-23.572183387682575],[-46.65366812083021,-23.572118227040942],[-46.653622000926354,-23.572118227040942],[-46.65348364121478,-23.57198790575767],[-46.65329916159935,-23.57179242383276],[-46.653114681983915,-23.57166210254949],[-46.65288408246463,-23.571466620624584],[-46.65265348294534,-23.571271138699675],[-46.65260736304148,-23.57120597805804],[-46.65251512323377,-23.571140817416403],[-46.65242288342605,-23.57101049613313],[-46.65237676352219,-23.57101049613313],[-46.652330643618335,-23.570945335491494],[-46.652192283906764,-23.570815014208222],[-46.65196168438747,-23.570619532283317],[-46.651915564483616,-23.57055437164168],[-46.651777204772046,-23.570489211000044],[-46.651777204772046,-23.570424050358408],[-46.651684964964325,-23.570358889716772],[-46.65163884506047,-23.570358889716772],[-46.65163884506047,-23.570293729075136],[-46.65159272515661,-23.570293729075136],[-46.65145436544504,-23.570163407791863],[-46.651408245541184,-23.57009824715023],[-46.65131600573346,-23.570033086508595],[-46.651269885829606,-23.56996792586696],[-46.65117764602189,-23.569902765225322],[-46.65103928631032,-23.56977244394205],[-46.65080868679103,-23.56957696201714],[-46.65067032707946,-23.569381480092236],[-46.65020912804088,-23.56899051624242],[-46.65002464842545,-23.56879503431751],[-46.64988628871387,-23.56866471303424],[-46.649701809098445,-23.568469231109333],[-46.649332849867584,-23.56807826725952],[-46.64928672996373,-23.568013106617883],[-46.64914837025215,-23.56788278533461]]]}}]}