{"type":"FeatureCollection","features":[{"type":"Feature","properties":{"DATA_ULT_A":"2009/10/09","DATA_CRIAC":"2009/10/09","id":"07","name":"Vila Maria/Vila Guilherme","area":26.4,"pop_2010":297713,"pop_density_2010":11277,"budget_2015":38045761},"geometry":{"type":"Polygon","coordinates":[[[-46.58365810677417,-23.47815658180204],[-46.58356586696646,-23.478091421160403],[-46.5835197470626,-23.478091421160403],[-46.583473627158746,-23.478026260518767],[-46.58338138735103,-23.477961099877135],[-46.58328914754331,-23.477961099877135],[-46.5831969077356,-23.477830778593862],[-46.58315078783174,-23.477830778593862],[-46.583104667927884,-23.477765617952226],[-46.58305854802403,-23.47770045731059],[-46.58305854802403,-23.477635296668954],[-46.58301242812017,-23.47750497538568],[-46.58301242812017,-23.477439814744045],[-46.58296630821631,-23.47737465410241],[-46.58292018831245,-23.47724433281914],[-46.58287406840859,-23.477179172177504],[-46.582827948504736,-23.477179172177504],[-46.58278182860088,-23.477114011535868],[-46.58273570869702,-23.47704885089423],[-46.5826434688893,-23.47704885089423],[-46.582597348985445,-23.476983690252595],[-46.582458989273874,-23.47691852961096],[-46.582458989273874,-23.476853368969323],[-46.58241286937002,-23.476853368969323],[-46.582320629562304,-23.476788208327687],[-46.582320629562304,-23.47672304768605],[-46.58227450965844,-23.47672304768605],[-46.58227450965844,-23.476657887044418],[-46.582182269850726,-23.47659272640278],[-46.58213614994687,-23.476527565761145],[-46.58209003004301,-23.47646240511951],[-46.58209003004301,-23.476397244477873],[-46.582043910139156,-23.476397244477873],[-46.582043910139156,-23.476332083836237],[-46.58190555042758,-23.47613660191133],[-46.581813310619864,-23.475941119986423],[-46.58172107081215,-23.47581079870315],[-46.58162883100444,-23.47568047741988],[-46.58158271110058,-23.47568047741988],[-46.581536591196716,-23.47568047741988],[-46.58149047129286,-23.475615316778242],[-46.581444351389,-23.475615316778242],[-46.58135211158129,-23.475550156136606],[-46.58130599167743,-23.475550156136606],[-46.58121375186972,-23.47548499549497],[-46.581029272254284,-23.475419834853334],[-46.58089091254271,-23.475354674211697],[-46.58084479263886,-23.475289513570065],[-46.58079867273499,-23.47522435292843],[-46.580752552831136,-23.47522435292843],[-46.58070643292728,-23.475159192286792],[-46.580614193119565,-23.475094031645156],[-46.58052195331185,-23.47502887100352],[-46.58052195331185,-23.474963710361884],[-46.580475833407995,-23.474898549720248],[-46.58042971350413,-23.47483338907861],[-46.580383593600274,-23.47483338907861],[-46.580383593600274,-23.474768228436975],[-46.58033747369642,-23.47470306779534],[-46.58029135379256,-23.47470306779534],[-46.580245233888704,-23.474637907153706],[-46.58019911398485,-23.47457274651207],[-46.58010687417713,-23.47457274651207],[-46.58006075427327,-23.474507585870434],[-46.5799223945617,-23.474442425228798],[-46.57978403485013,-23.47437726458716],[-46.57978403485013,-23.474312103945525],[-46.57969179504241,-23.47424694330389],[-46.57955343533084,-23.474181782662253],[-46.57950731542698,-23.474116622020617],[-46.57946119552312,-23.474116622020617],[-46.579415075619266,-23.47405146137898],[-46.57936895571541,-23.47405146137898],[-46.57927671590769,-23.473986300737344],[-46.57923059600383,-23.473986300737344],[-46.579184476099975,-23.473986300737344],[-46.579046116388405,-23.473986300737344],[-46.57886163677297,-23.473986300737344],[-46.5787232770614,-23.473986300737344],[-46.57858491734982,-23.47392114009571],[-46.57849267754211,-23.47392114009571],[-46.578262078022824,-23.47392114009571],[-46.57807759840739,-23.47392114009571],[-46.57793923869582,-23.473986300737344],[-46.57789311879196,-23.473986300737344],[-46.5778469988881,-23.473986300737344],[-46.57780087898424,-23.473986300737344],[-46.57770863917653,-23.47392114009571],[-46.577616399368814,-23.47392114009571],[-46.57757027946496,-23.473855979454076],[-46.57747803965724,-23.473855979454076],[-46.57729356004181,-23.473725658170803],[-46.57715520033023,-23.473660497529167],[-46.57701684061866,-23.47359533688753],[-46.57687848090709,-23.47359533688753],[-46.576832361003234,-23.47359533688753],[-46.57678624109937,-23.47359533688753],[-46.5766478813878,-23.47359533688753],[-46.57660176148394,-23.473530176245895],[-46.57641728186851,-23.47346501560426],[-46.57637116196465,-23.47346501560426],[-46.576186682349224,-23.473399854962622],[-46.57614056244537,-23.473334694320986],[-46.57609444254151,-23.473334694320986],[-46.57604832263765,-23.473334694320986],[-46.57600220273379,-23.473334694320986],[-46.575909962926076,-23.473269533679353],[-46.57581772311836,-23.473269533679353],[-46.575771603214505,-23.473269533679353],[-46.57572548331065,-23.473269533679353],[-46.57563324350293,-23.473334694320986],[-46.57535652407979,-23.473399854962622],[-46.57521816436821,-23.473399854962622],[-46.57503368475278,-23.473399854962622],[-46.574895325041204,-23.473399854962622],[-46.57471084542578,-23.473399854962622],[-46.574480245906486,-23.473399854962622],[-46.574341886194915,-23.473399854962622],[-46.5742496463872,-23.473334694320986],[-46.57415740657948,-23.473334694320986],[-46.574111286675624,-23.473334694320986],[-46.57397292696405,-23.473334694320986],[-46.573834567252476,-23.473204373037717],[-46.57378844734862,-23.473204373037717],[-46.57374232744476,-23.47313921239608],[-46.57374232744476,-23.473074051754445],[-46.573696207540905,-23.473074051754445],[-46.57365008763705,-23.47300889111281],[-46.57360396773319,-23.472943730471172],[-46.57351172792548,-23.472878569829536],[-46.573465608021614,-23.472878569829536],[-46.5733733682139,-23.472878569829536],[-46.57328112840619,-23.4728134091879],[-46.57318888859847,-23.4728134091879],[-46.573142768694616,-23.4728134091879],[-46.572912169175325,-23.472748248546264],[-46.572681569656034,-23.472748248546264],[-46.57254320994446,-23.472748248546264],[-46.572404850232886,-23.472748248546264],[-46.57235873032903,-23.4728134091879],[-46.572266490521315,-23.472748248546264],[-46.5721742507136,-23.472748248546264],[-46.572128130809745,-23.472683087904628],[-46.572035891002024,-23.472617927262995],[-46.57194365119431,-23.472422445338086],[-46.57189753129045,-23.47235728469645],[-46.5718514113866,-23.47235728469645],[-46.5718514113866,-23.472422445338086],[-46.57180529148274,-23.472487605979723],[-46.571713051675026,-23.472683087904628],[-46.57166693177116,-23.472748248546264],[-46.571620811867305,-23.4728134091879],[-46.571482452155735,-23.473074051754445],[-46.57143633225188,-23.47313921239608],[-46.57143633225188,-23.473204373037717],[-46.57125185263644,-23.47346501560426],[-46.57125185263644,-23.473530176245895],[-46.57120573273259,-23.473530176245895],[-46.57120573273259,-23.47359533688753],[-46.571067373021016,-23.47379081881244],[-46.5709751332133,-23.473986300737344],[-46.5709751332133,-23.47405146137898],[-46.57092901330944,-23.474116622020617],[-46.57088289340558,-23.474181782662253],[-46.57079065359787,-23.474312103945525],[-46.570698413790154,-23.474507585870434],[-46.57060617398244,-23.474637907153706],[-46.57056005407858,-23.47470306779534],[-46.57056005407858,-23.474768228436975],[-46.57051393417472,-23.474768228436975],[-46.57037557446315,-23.47502887100352],[-46.570283334655436,-23.47522435292843],[-46.57023721475158,-23.475289513570065],[-46.57023721475158,-23.475354674211697],[-46.57009885504,-23.475550156136606],[-46.57000661523229,-23.475745638061515],[-46.569914375424574,-23.475875959344787],[-46.56968377590528,-23.476332083836237],[-46.56959153609757,-23.47646240511951],[-46.569499296289855,-23.47659272640278],[-46.569407056482135,-23.476853368969323],[-46.56922257686671,-23.477114011535868],[-46.56913033705899,-23.477309493460776],[-46.568991977347416,-23.47750497538568],[-46.56894585744356,-23.477570136027317],[-46.5688997375397,-23.477765617952226],[-46.56871525792427,-23.478026260518767],[-46.568623018116554,-23.478221742443676],[-46.568484658404984,-23.478417224368584],[-46.56839241859727,-23.478612706293493],[-46.56830017878955,-23.478743027576762],[-46.56788509965483,-23.479524955276393],[-46.567838979750974,-23.47959011591803],[-46.56774673994326,-23.479785597842938],[-46.567654500135546,-23.479981079767846],[-46.56751614042397,-23.48017656169275],[-46.5673777807124,-23.480437204259296],[-46.56733166080854,-23.480502364900932],[-46.567193301096964,-23.480763007467473],[-46.56700882148154,-23.48115397131729],[-46.56696270157768,-23.481219131958927],[-46.566916581673816,-23.481284292600563],[-46.56687046176996,-23.4813494532422],[-46.566778221962245,-23.481544935167104],[-46.56659374234682,-23.481870738375285],[-46.56645538263524,-23.482131380941826],[-46.56636314282753,-23.4822617022251],[-46.56631702292367,-23.48239202350837],[-46.566224783115956,-23.482522344791644],[-46.566224783115956,-23.48258750543328],[-46.566132543308235,-23.482717826716552],[-46.56608642340438,-23.482782987358185],[-46.565855823885094,-23.483173951208002],[-46.5656252243658,-23.483564915057816],[-46.5656252243658,-23.483630075699452],[-46.56553298455809,-23.483760396982724],[-46.56525626513494,-23.48428168211581],[-46.56511790542337,-23.484542324682355],[-46.56502566561565,-23.484672645965627],[-46.564933425807936,-23.484868127890532],[-46.56488730590408,-23.484868127890532],[-46.56488730590408,-23.48493328853217],[-46.56465670638479,-23.485128770457077],[-46.56447222676936,-23.48525909174035],[-46.56405714763464,-23.48551973430689],[-46.56396490782692,-23.485584894948527],[-46.563918787923065,-23.485584894948527],[-46.56345758888449,-23.485910698156708],[-46.563134749557484,-23.48617134072325],[-46.56308862965363,-23.48617134072325],[-46.56295026994206,-23.486236501364885],[-46.562489070903474,-23.486562304573066],[-46.56230459128805,-23.48669262585634],[-46.56212011167261,-23.486822947139608],[-46.56179727234561,-23.487018429064516],[-46.56161279273018,-23.487083589706153],[-46.56124383349932,-23.487344232272697],[-46.56124383349932,-23.487474553555966],[-46.561151593691605,-23.487865517405783],[-46.56110547378775,-23.488126159972325],[-46.56096711407617,-23.488321641897233],[-46.5608287543646,-23.48851712382214],[-46.56059815484531,-23.488647445105414],[-46.56032143542216,-23.488908087671955],[-46.56022919561445,-23.489103569596864],[-46.56013695580673,-23.489429372805045],[-46.56009083590288,-23.48982033665486],[-46.56013695580673,-23.49027646114631],[-46.56018307571059,-23.490797746279394],[-46.56013695580673,-23.491579673979025],[-46.56018307571059,-23.492166119753747],[-46.56018307571059,-23.492687404886837],[-46.56018307571059,-23.49327385066156],[-46.56018307571059,-23.493990617719554],[-46.56022919561445,-23.494446742211004],[-46.56041367522988,-23.49529383055227],[-46.56041367522988,-23.495358991193907],[-46.56059815484531,-23.496140918893538],[-46.56078263446074,-23.49672736466826],[-46.56087487426846,-23.496922846593165],[-46.561289953403175,-23.49763961365116],[-46.56175115244175,-23.498356380709154],[-46.56216623157648,-23.499007987125513],[-46.56225847138419,-23.499333790333694],[-46.56230459128805,-23.49965959354187],[-46.562350711191904,-23.499789914825143],[-46.56230459128805,-23.499985396750052],[-46.56225847138419,-23.50018087867496],[-46.561935632057185,-23.500441521241502],[-46.56175115244175,-23.500767324449683],[-46.56152055292247,-23.501158288299496],[-46.56096711407617,-23.502135697924036],[-46.560367555326025,-23.503047946906936],[-46.55990635628744,-23.503829874606566],[-46.55958351696044,-23.504285999098016],[-46.55949127715272,-23.50454664166456],[-46.55949127715272,-23.504937605514375],[-46.55958351696044,-23.505393730005828],[-46.55967575676816,-23.505915015138914],[-46.55958351696044,-23.506240818347095],[-46.55953739705658,-23.506436300272],[-46.55944515724887,-23.506696942838545],[-46.55939903734501,-23.506827264121817],[-46.559306797537296,-23.507022746046722],[-46.55926067763344,-23.507153067329995],[-46.55903007811415,-23.507348549254903],[-46.55884559849871,-23.507609191821444],[-46.55856887907557,-23.50786983438799],[-46.55847663926785,-23.507934995029625],[-46.557877080517706,-23.508260798237806],[-46.55769260090227,-23.50845628016271],[-46.5575542411907,-23.508521440804348],[-46.55746200138299,-23.508586601445984],[-46.557369761575266,-23.508716922729256],[-46.55713916205598,-23.508912404654165],[-46.556862442632834,-23.50910788657907],[-46.556724082921264,-23.509173047220706],[-46.55653960330583,-23.50930336850398],[-46.556447363498116,-23.50943368978725],[-46.55640124359426,-23.50943368978725],[-46.5563551236904,-23.50943368978725],[-46.55630900378654,-23.509498850428887],[-46.55630900378654,-23.509564011070523],[-46.556216763978824,-23.509564011070523],[-46.556216763978824,-23.509629171712156],[-46.55612452417111,-23.50975949299543],[-46.5560322843634,-23.509824653637065],[-46.55561720522868,-23.51008529620361],[-46.55584780474796,-23.510606581336695],[-46.55598616445954,-23.51099754518651],[-46.5560322843634,-23.511193027111418],[-46.55626288388268,-23.511714312244504],[-46.5563551236904,-23.512235597377593],[-46.55640124359426,-23.512365918660862],[-46.55653960330583,-23.512952364435588],[-46.55663184311354,-23.51379945277685],[-46.55663184311354,-23.51432073790994],[-46.55663184311354,-23.515102665609568],[-46.556585723209686,-23.515493629459385],[-46.556447363498116,-23.515949753950835],[-46.55640124359426,-23.516145235875744],[-46.556216763978824,-23.51699232421701],[-46.55612452417111,-23.51744844870846],[-46.5560322843634,-23.51790457319991],[-46.55584780474796,-23.518751661541177],[-46.55584780474796,-23.51888198282445],[-46.55584780474796,-23.519729071165713],[-46.55589392465182,-23.520185195657167],[-46.55617064407497,-23.520836802073525],[-46.556447363498116,-23.52135808720661],[-46.55667796301741,-23.521683890414792],[-46.55704692224827,-23.522074854264606],[-46.55727752176755,-23.52233549683115],[-46.558015440229276,-23.522726460680964],[-46.558522759171716,-23.523117424530778],[-46.55884559849871,-23.52324774581405],[-46.55944515724887,-23.52344322773896],[-46.56009083590288,-23.523508388380595],[-46.56078263446074,-23.523508388380595],[-46.56133607330703,-23.523508388380595],[-46.56179727234561,-23.523508388380595],[-46.56239683109576,-23.52344322773896],[-46.56304250974977,-23.52344322773896],[-46.5635498286922,-23.52344322773896],[-46.5641032675385,-23.523508388380595],[-46.56451834667322,-23.523638709663867],[-46.56544074475037,-23.523834191588772],[-46.566224783115956,-23.52422515543859],[-46.566916581673816,-23.524550958646767],[-46.568069579270265,-23.525202565063125],[-46.568623018116554,-23.525528368271306],[-46.569268696770564,-23.525854171479484],[-46.57032945455929,-23.526179974687665],[-46.57092901330944,-23.526310295970937],[-46.57120573273259,-23.526375456612573],[-46.57235873032903,-23.526505777895842],[-46.57323500850233,-23.526440617254206],[-46.573834567252476,-23.526375456612573],[-46.57471084542578,-23.526310295970937],[-46.575541003695214,-23.526179974687665],[-46.57660176148394,-23.5262451353293],[-46.577339679945666,-23.526375456612573],[-46.57821595811896,-23.52657093853748],[-46.579046116388405,-23.526766420462387],[-46.58042971350413,-23.5271573843122],[-46.58130599167743,-23.527418026878745],[-46.582689588793166,-23.527743830086926],[-46.58393482619732,-23.528004472653468],[-46.585087823793764,-23.52833027586165],[-46.58522618350534,-23.528395436503285],[-46.585318423313055,-23.528395436503285],[-46.58564126264006,-23.528460597144917],[-46.58660978062107,-23.528721239711462],[-46.58693261994807,-23.528851560994735],[-46.58803949764066,-23.529112203561276],[-46.58891577581396,-23.529307685486184],[-46.588961895717816,-23.52937284612782],[-46.58900801562167,-23.52937284612782],[-46.58905413552553,-23.52937284612782],[-46.58914637533324,-23.52937284612782],[-46.59062221225669,-23.529763809977638],[-46.59112953119913,-23.529894131260907],[-46.59131401081456,-23.529894131260907],[-46.591360130718414,-23.529894131260907],[-46.59140625062227,-23.529894131260907],[-46.591452370526135,-23.529894131260907],[-46.59149849042999,-23.529894131260907],[-46.59168297004542,-23.529959291902543],[-46.59205192927628,-23.529959291902543],[-46.59269760793029,-23.529894131260907],[-46.59352776619973,-23.529698649336],[-46.59435792446917,-23.529503167411093],[-46.59481912350775,-23.52937284612782],[-46.59514196283475,-23.529177364202912],[-46.59518808273861,-23.529112203561276],[-46.595234202642466,-23.529112203561276],[-46.595510922065614,-23.52891672163637],[-46.59560316187333,-23.52891672163637],[-46.59652555995048,-23.528199954578376],[-46.59657167985434,-23.52813479393674],[-46.5966177997582,-23.52813479393674],[-46.59689451918134,-23.52793931201183],[-46.597078998796775,-23.52780899072856],[-46.597078998796775,-23.527743830086926],[-46.59717123860449,-23.527743830086926],[-46.597217358508345,-23.52767866944529],[-46.5972634784122,-23.527613508803654],[-46.5978169172585,-23.527222544953837],[-46.59804751677779,-23.52702706302893],[-46.59809363668165,-23.526961902387296],[-46.5981397565855,-23.52689674174566],[-46.59855483572022,-23.52657093853748],[-46.599569473605094,-23.525723850196215],[-46.59966171341281,-23.525593528912943],[-46.59980007312438,-23.525528368271306],[-46.59984619302824,-23.52546320762967],[-46.60095307072083,-23.524550958646767],[-46.6014142697594,-23.524159994796953],[-46.602428907644274,-23.523508388380595],[-46.60252114745199,-23.52344322773896],[-46.60289010668285,-23.52324774581405],[-46.60381250476,-23.522921942605873],[-46.60441206351015,-23.522856781964236],[-46.60473490283716,-23.522856781964236],[-46.60570342081817,-23.522856781964236],[-46.60653357908761,-23.52298710324751],[-46.607271497549334,-23.523117424530778],[-46.60810165581877,-23.523312906455686],[-46.608193895626485,-23.523312906455686],[-46.608839574280495,-23.523378067097322],[-46.60943913303065,-23.52344322773896],[-46.60994645197308,-23.523378067097322],[-46.610269291300085,-23.523378067097322],[-46.61119168937724,-23.523117424530778],[-46.6112378092811,-23.523117424530778],[-46.61128392918496,-23.523117424530778],[-46.61128392918496,-23.523052263889145],[-46.611330049088814,-23.523052263889145],[-46.611468408800384,-23.523052263889145],[-46.61252916658911,-23.52259613939769],[-46.61358992437784,-23.52181421169806],[-46.61400500351256,-23.521488408489883],[-46.61409724332028,-23.52135808720661],[-46.615158001109,-23.520510998865344],[-46.615895919570725,-23.519989713732258],[-46.61612651909002,-23.519859392448986],[-46.61677219774403,-23.519468428599172],[-46.61686443755174,-23.519403267957536],[-46.6169105574556,-23.519403267957536],[-46.61741787639804,-23.51914262539099],[-46.617971315244326,-23.519012304107722],[-46.61907819293691,-23.51888198282445],[-46.619032073033054,-23.518621340257905],[-46.619032073033054,-23.51855617961627],[-46.619032073033054,-23.518491018974633],[-46.619032073033054,-23.518425858332996],[-46.619032073033054,-23.51836069769136],[-46.619032073033054,-23.518295537049728],[-46.6189859531292,-23.518295537049728],[-46.6189859531292,-23.51823037640809],[-46.6189859531292,-23.518165215766455],[-46.6189859531292,-23.51810005512482],[-46.6189859531292,-23.518034894483183],[-46.61893983322534,-23.518034894483183],[-46.618893713321484,-23.518034894483183],[-46.618893713321484,-23.517969733841547],[-46.618893713321484,-23.51790457319991],[-46.618893713321484,-23.517839412558274],[-46.61893983322534,-23.517774251916638],[-46.61893983322534,-23.51764393063337],[-46.6189859531292,-23.517513609350097],[-46.6189859531292,-23.51744844870846],[-46.619032073033054,-23.517383288066824],[-46.619032073033054,-23.517318127425188],[-46.61907819293691,-23.517252966783552],[-46.61912431284077,-23.517187806141916],[-46.61912431284077,-23.51712264550028],[-46.61921655264849,-23.517057484858643],[-46.619262672552345,-23.51699232421701],[-46.6193087924562,-23.516927163575374],[-46.619401032263916,-23.516796842292102],[-46.61949327207163,-23.516731681650466],[-46.61963163178321,-23.516536199725557],[-46.61972387159092,-23.516405878442285],[-46.61986223130249,-23.516275557159016],[-46.61990835120635,-23.516145235875744],[-46.62000059101407,-23.516080075234107],[-46.620046710917926,-23.51601491459247],[-46.62013895072564,-23.515949753950835],[-46.620185070629496,-23.515819432667563],[-46.62027731043721,-23.515754272025926],[-46.62036955024493,-23.515623950742658],[-46.620461790052644,-23.515493629459385],[-46.62055402986036,-23.51542846881775],[-46.62055402986036,-23.515363308176113],[-46.620600149764215,-23.515298147534477],[-46.620692389571936,-23.51523298689284],[-46.62073850947579,-23.515167826251204],[-46.62073850947579,-23.515102665609568],[-46.620830749283506,-23.515037504967932],[-46.62087686918736,-23.5149723443263],[-46.62092298909122,-23.514907183684663],[-46.62096910899508,-23.514842023043027],[-46.62101522889893,-23.51477686240139],[-46.6210613488028,-23.514711701759754],[-46.621107468706654,-23.51464654111812],[-46.621107468706654,-23.514581380476482],[-46.62115358861051,-23.514516219834846],[-46.62119970851437,-23.51445105919321],[-46.62119970851437,-23.514385898551573],[-46.62119970851437,-23.51432073790994],[-46.621245828418225,-23.514255577268305],[-46.621245828418225,-23.51419041662667],[-46.621245828418225,-23.514125255985032],[-46.621245828418225,-23.514060095343396],[-46.621245828418225,-23.51399493470176],[-46.62129194832208,-23.51399493470176],[-46.621245828418225,-23.513929774060124],[-46.621245828418225,-23.513864613418487],[-46.621245828418225,-23.51379945277685],[-46.621245828418225,-23.513734292135215],[-46.621245828418225,-23.513603970851946],[-46.621245828418225,-23.513473649568674],[-46.621245828418225,-23.5133433282854],[-46.621245828418225,-23.51321300700213],[-46.621245828418225,-23.513147846360493],[-46.621245828418225,-23.513082685718857],[-46.621245828418225,-23.51301752507722],[-46.621245828418225,-23.51288720379395],[-46.621245828418225,-23.512691721869043],[-46.621245828418225,-23.51256140058577],[-46.621245828418225,-23.512496239944134],[-46.621245828418225,-23.512365918660862],[-46.621245828418225,-23.512235597377593],[-46.621245828418225,-23.51210527609432],[-46.621245828418225,-23.512040115452685],[-46.621245828418225,-23.511909794169412],[-46.621245828418225,-23.51177947288614],[-46.621245828418225,-23.511649151602867],[-46.621245828418225,-23.511583990961235],[-46.62129194832208,-23.511583990961235],[-46.621245828418225,-23.5115188303196],[-46.62119970851437,-23.5115188303196],[-46.62115358861051,-23.511388509036326],[-46.621107468706654,-23.511388509036326],[-46.62101522889893,-23.511388509036326],[-46.620830749283506,-23.511258187753054],[-46.620600149764215,-23.511193027111418],[-46.62036955024493,-23.511062705828145],[-46.620185070629496,-23.510932384544876],[-46.620046710917926,-23.510932384544876],[-46.61986223130249,-23.510802063261604],[-46.61976999149478,-23.510736902619968],[-46.61963163178321,-23.51067174197833],[-46.61944715216777,-23.510606581336695],[-46.6193087924562,-23.51054142069506],[-46.619262672552345,-23.51054142069506],[-46.61921655264849,-23.51054142069506],[-46.61921655264849,-23.510476260053423],[-46.619032073033054,-23.510411099411787],[-46.6189859531292,-23.510411099411787],[-46.61893983322534,-23.51034593877015],[-46.61880147351376,-23.510280778128518],[-46.61866311380219,-23.51021561748688],[-46.61847863418676,-23.510150456845246],[-46.61834027447519,-23.51008529620361],[-46.618248034667474,-23.510020135561973],[-46.618109674955896,-23.509954974920337],[-46.61792519534047,-23.5098898142787],[-46.6177868356289,-23.509824653637065],[-46.61764847591732,-23.50975949299543],[-46.61751011620575,-23.509694332353792],[-46.617325636590316,-23.509629171712156],[-46.61709503707103,-23.509498850428887],[-46.61677219774403,-23.509368529145615],[-46.61677219774403,-23.50930336850398],[-46.61649547832088,-23.509238207862342],[-46.61621875889773,-23.50910788657907],[-46.61617263899387,-23.509042725937434],[-46.6160342792823,-23.508912404654165],[-46.615988159378446,-23.508912404654165],[-46.61594203947459,-23.50884724401253],[-46.615895919570725,-23.508782083370892],[-46.61580367976301,-23.508716922729256],[-46.615757559859155,-23.508586601445984],[-46.61566532005144,-23.508521440804348],[-46.61557308024373,-23.508391119521075],[-46.615526960339864,-23.508260798237806],[-46.61548084043601,-23.50786983438799],[-46.61543472053215,-23.50767435246308],[-46.61543472053215,-23.507609191821444],[-46.61543472053215,-23.507544031179812],[-46.61543472053215,-23.507478870538176],[-46.61543472053215,-23.50741370989654],[-46.61543472053215,-23.507348549254903],[-46.61543472053215,-23.50721822797163],[-46.61538860062829,-23.50721822797163],[-46.61538860062829,-23.507153067329995],[-46.61538860062829,-23.50708790668836],[-46.61538860062829,-23.507022746046722],[-46.61538860062829,-23.506957585405086],[-46.615342480724436,-23.506696942838545],[-46.615342480724436,-23.506436300272],[-46.61529636082058,-23.506110497063823],[-46.61529636082058,-23.505915015138914],[-46.61525024091672,-23.505849854497278],[-46.61525024091672,-23.505719533214005],[-46.615204121012866,-23.505458890647464],[-46.615204121012866,-23.505263408722556],[-46.615204121012866,-23.505067926797647],[-46.615158001109,-23.504937605514375],[-46.615158001109,-23.504872444872742],[-46.615158001109,-23.504807284231106],[-46.615158001109,-23.504611802306197],[-46.615111881205145,-23.50454664166456],[-46.615111881205145,-23.504481481022925],[-46.615111881205145,-23.50441632038129],[-46.615158001109,-23.504351159739652],[-46.615158001109,-23.504155677814747],[-46.615204121012866,-23.50396019588984],[-46.615204121012866,-23.503895035248203],[-46.615204121012866,-23.503829874606566],[-46.615204121012866,-23.50376471396493],[-46.61525024091672,-23.50376471396493],[-46.61525024091672,-23.503634392681658],[-46.61529636082058,-23.503373750115117],[-46.615342480724436,-23.503178268190208],[-46.61538860062829,-23.502722143698758],[-46.61548084043601,-23.502266019207305],[-46.61548084043601,-23.502200858565672],[-46.615526960339864,-23.50187505535749],[-46.615526960339864,-23.50174473407422],[-46.615526960339864,-23.501679573432583],[-46.61557308024373,-23.50154925214931],[-46.61557308024373,-23.501484091507677],[-46.61566532005144,-23.501614412790946],[-46.61566532005144,-23.50154925214931],[-46.61557308024373,-23.501484091507677],[-46.615619200147584,-23.50128860958277],[-46.615619200147584,-23.501223448941133],[-46.61557308024373,-23.501223448941133],[-46.615526960339864,-23.501158288299496],[-46.615526960339864,-23.50109312765786],[-46.61548084043601,-23.50109312765786],[-46.61543472053215,-23.501027967016224],[-46.61538860062829,-23.500962806374588],[-46.61525024091672,-23.50083248509132],[-46.61525024091672,-23.500767324449683],[-46.615204121012866,-23.500767324449683],[-46.615158001109,-23.500702163808047],[-46.61501964139743,-23.500506681883138],[-46.61492740158972,-23.500376360599866],[-46.61488128168586,-23.50031119995823],[-46.614512322455,-23.49985507546678],[-46.61437396274342,-23.49965959354187],[-46.61405112341642,-23.49920346905042],[-46.61382052389713,-23.49887766584224],[-46.613682164185555,-23.49874734455897],[-46.6136360442817,-23.4986170232757],[-46.613543804473984,-23.498551862634063],[-46.613543804473984,-23.498486701992427],[-46.61349768457013,-23.49842154135079],[-46.61345156466627,-23.498356380709154],[-46.61345156466627,-23.498291220067518],[-46.613267085050836,-23.49816089878425],[-46.61317484524312,-23.498095738142613],[-46.61294424572383,-23.497769934934432],[-46.61285200591612,-23.497574453009523],[-46.61271364620455,-23.49737897108462],[-46.61266752630069,-23.497313810442982],[-46.612621406396826,-23.497248649801346],[-46.612621406396826,-23.49718348915971],[-46.61257528649297,-23.497053167876437],[-46.61252916658911,-23.497053167876437],[-46.612483046685256,-23.496922846593165],[-46.612483046685256,-23.49685768595153],[-46.6124369267814,-23.496792525309896],[-46.61239080687754,-23.49672736466826],[-46.61239080687754,-23.496597043384988],[-46.61229856706983,-23.496336400818443],[-46.61229856706983,-23.49620607953517],[-46.61220632726211,-23.495880276326993],[-46.61206796755054,-23.494446742211004],[-46.61197572774282,-23.49386029643628],[-46.611837368031246,-23.49327385066156],[-46.61174512822353,-23.492882886811742],[-46.61165288841582,-23.4926222442452],[-46.611468408800384,-23.4926222442452],[-46.61142228889653,-23.492557083603565],[-46.6112378092811,-23.492557083603565],[-46.61077661024252,-23.49249192296193],[-46.61063825053095,-23.492557083603565],[-46.60939301312679,-23.492752565528473],[-46.60911629370364,-23.492817726170106],[-46.60837837524192,-23.49294804745338],[-46.60824001553034,-23.49294804745338],[-46.607778816491766,-23.49307836873665],[-46.607271497549334,-23.493143529378287],[-46.60717925774162,-23.493143529378287],[-46.6070870179339,-23.493143529378287],[-46.60690253831847,-23.493208690019923],[-46.606856418414615,-23.493208690019923],[-46.60667193879918,-23.493208690019923],[-46.60653357908761,-23.493208690019923],[-46.6064413392799,-23.493208690019923],[-46.60625685966446,-23.493143529378287],[-46.605841780529744,-23.49307836873665],[-46.60547282129888,-23.493013208095014],[-46.60496550235645,-23.49294804745338],[-46.604550423221724,-23.492817726170106],[-46.60418146399086,-23.492752565528473],[-46.603489665433,-23.4926222442452],[-46.60265950716356,-23.492426762320292],[-46.60238278774041,-23.492361601678656],[-46.60233666783655,-23.492361601678656],[-46.60233666783655,-23.49229644103702],[-46.60210606831727,-23.492231280395384],[-46.60132202995169,-23.49203579847048],[-46.60081471100925,-23.491970637828842],[-46.6002151522591,-23.491905477187206],[-46.6002151522591,-23.49184031654557],[-46.600076792547526,-23.49184031654557],[-46.599707833316664,-23.491775155903934],[-46.599569473605094,-23.491775155903934],[-46.5993388740858,-23.491709995262298],[-46.59920051437423,-23.491775155903934],[-46.59869319543179,-23.491709995262298],[-46.598370356104795,-23.491253870770848],[-46.598278116297074,-23.491123549487575],[-46.59818587648936,-23.491123549487575],[-46.59795527697007,-23.49105838884594],[-46.597863037162355,-23.490993228204303],[-46.59777079735464,-23.490928067562667],[-46.597724677450785,-23.49086290692103],[-46.597632437643064,-23.490797746279394],[-46.59744795802764,-23.490732585637762],[-46.597309598316066,-23.490667424996126],[-46.59717123860449,-23.49060226435449],[-46.596940639085204,-23.490471943071217],[-46.59680227937363,-23.49040678242958],[-46.59671003956591,-23.490341621787945],[-46.59652555995048,-23.49027646114631],[-46.59647944004662,-23.49027646114631],[-46.59624884052734,-23.490211300504672],[-46.59615660071962,-23.490080979221403],[-46.596018241008046,-23.490080979221403],[-46.595879881296476,-23.490015818579767],[-46.595787641488755,-23.48995065793813],[-46.59569540168104,-23.489885497296495],[-46.59555704196947,-23.489755176013222],[-46.595510922065614,-23.489690015371586],[-46.59532644245018,-23.489559694088314],[-46.59518808273861,-23.489494533446678],[-46.59514196283475,-23.489429372805045],[-46.595095842930895,-23.48936421216341],[-46.59504972302703,-23.48936421216341],[-46.595003603123175,-23.489233890880136],[-46.59495748321932,-23.489103569596864],[-46.59495748321932,-23.489038408955228],[-46.59491136331546,-23.48897324831359],[-46.594865243411604,-23.48897324831359],[-46.59477300360389,-23.488777766388687],[-46.59468076379617,-23.488647445105414],[-46.594588523988456,-23.48851712382214],[-46.594588523988456,-23.488451963180506],[-46.59449628418074,-23.48838680253887],[-46.594450164276886,-23.488321641897233],[-46.59440404437303,-23.48819132061396],[-46.59435792446917,-23.488126159972325],[-46.59426568466145,-23.487865517405783],[-46.59417344485374,-23.48773519612251],[-46.59412732494988,-23.487670035480875],[-46.594081205046024,-23.487474553555966],[-46.59403508514217,-23.487409392914333],[-46.59398896523831,-23.48727907163106],[-46.59389672543059,-23.48714875034779],[-46.59385060552673,-23.487018429064516],[-46.59375836571902,-23.486757786497975],[-46.59371224581516,-23.486627465214703],[-46.593666125911305,-23.486562304573066],[-46.593573886103584,-23.486236501364885],[-46.593573886103584,-23.486106180081613],[-46.59352776619973,-23.48604101943998],[-46.593435526392014,-23.485845537515072],[-46.5933432865843,-23.485650055590163],[-46.59320492687272,-23.485454573665255],[-46.59306656716115,-23.48525909174035],[-46.59288208754572,-23.484998449173805],[-46.59283596764186,-23.484868127890532],[-46.59274372783415,-23.484802967248896],[-46.59265148802643,-23.48460748532399],[-46.59260536812258,-23.484542324682355],[-46.592513128314856,-23.484346842757446],[-46.59242088850714,-23.48428168211581],[-46.59232864869943,-23.484151360832538],[-46.592236408891715,-23.48402103954927],[-46.592005809372424,-23.483630075699452],[-46.59191356956471,-23.48349975441618],[-46.59186744966085,-23.483434593774543],[-46.59177520985313,-23.483304272491274],[-46.59177520985313,-23.483108790566366],[-46.59168297004542,-23.482978469283093],[-46.59163685014156,-23.482913308641457],[-46.59140625062227,-23.482782987358185],[-46.59108341129527,-23.48258750543328],[-46.590945051583695,-23.482522344791644],[-46.59076057196827,-23.48239202350837],[-46.59066833216055,-23.4822617022251],[-46.59062221225669,-23.482196541583463],[-46.59057609235283,-23.482196541583463],[-46.59048385254512,-23.482196541583463],[-46.59048385254512,-23.482131380941826],[-46.59048385254512,-23.48206622030019],[-46.59043773264126,-23.48206622030019],[-46.59034549283355,-23.48193589901692],[-46.590299372929685,-23.481870738375285],[-46.59025325302583,-23.481870738375285],[-46.59025325302583,-23.48180557773365],[-46.59020713312197,-23.48180557773365],[-46.590161013218115,-23.48180557773365],[-46.58997653360269,-23.48180557773365],[-46.58983817389111,-23.481740417092013],[-46.589745934083396,-23.481740417092013],[-46.58965369427568,-23.481740417092013],[-46.58956145446796,-23.481675256450377],[-46.58942309475639,-23.48161009580874],[-46.58928473504482,-23.48161009580874],[-46.5891924952371,-23.481544935167104],[-46.58914637533324,-23.481479774525468],[-46.58905413552553,-23.481479774525468],[-46.5888696559101,-23.4813494532422],[-46.58882353600624,-23.4813494532422],[-46.588592936486954,-23.481219131958927],[-46.5885468165831,-23.48115397131729],[-46.58840845687152,-23.481088810675654],[-46.58827009715995,-23.481023650034018],[-46.587947257832944,-23.480763007467473],[-46.587808898121374,-23.48069784682584],[-46.58771665831365,-23.480632686184205],[-46.58762441850594,-23.48056752554257],[-46.58757829860208,-23.48056752554257],[-46.58757829860208,-23.480502364900932],[-46.58748605879437,-23.480437204259296],[-46.58739381898665,-23.480437204259296],[-46.58697873985193,-23.48017656169275],[-46.58670202042879,-23.48004624040948],[-46.58637918110178,-23.479785597842938],[-46.58628694129406,-23.479785597842938],[-46.58614858158249,-23.479655276559665],[-46.5855951427362,-23.479329473351488],[-46.58550290292848,-23.47926431270985],[-46.58541066312077,-23.47926431270985],[-46.58536454321691,-23.479199152068215],[-46.58522618350534,-23.47913399142658],[-46.585087823793764,-23.479068830784943],[-46.58494946408219,-23.47893850950167],[-46.584811104370615,-23.478873348860034],[-46.584672744659045,-23.478743027576762],[-46.58462662475519,-23.47867786693513],[-46.58434990533204,-23.478547545651857],[-46.58421154562047,-23.47848238501022],[-46.58416542571661,-23.478417224368584],[-46.58398094610118,-23.47835206372695],[-46.58384258638961,-23.478221742443676],[-46.58370422667803,-23.47815658180204],[-46.58365810677417,-23.47815658180204]]]}}]}