{"type":"FeatureCollection","features":[{"type":"Feature","properties":{"DATA_ULT_A":"2013/06/23","DATA_CRIAC":"2009/10/09","id":29,"name":"Vila Prudente","area":"19.80","pop_2010":246589,"pop_density_2010":12454,"budget_2015":35882997},"geometry":{"type":"Polygon","coordinates":[[[-46.5229643132974,-23.61388619832952],[-46.52301043320126,-23.61388619832952],[-46.52310267300898,-23.61388619832952],[-46.523287152624405,-23.614016519612793],[-46.52342551233598,-23.614016519612793],[-46.5235177521437,-23.61408168025443],[-46.52360999195141,-23.61408168025443],[-46.523702231759124,-23.61408168025443],[-46.523794471566845,-23.61408168025443],[-46.52388671137456,-23.61408168025443],[-46.52402507108613,-23.614146840896066],[-46.52411731089384,-23.614146840896066],[-46.52420955070156,-23.614146840896066],[-46.52430179050928,-23.614146840896066],[-46.52444015022085,-23.614146840896066],[-46.52453239002857,-23.614146840896066],[-46.52467074974014,-23.61408168025443],[-46.524716869643996,-23.61408168025443],[-46.524855229355566,-23.61408168025443],[-46.524993589067144,-23.614016519612793],[-46.52508582887486,-23.613951358971157],[-46.525131948778714,-23.613951358971157],[-46.52517806868257,-23.613951358971157],[-46.52522418858643,-23.613951358971157],[-46.52531642839415,-23.613951358971157],[-46.52540866820186,-23.614016519612793],[-46.52559314781729,-23.614016519612793],[-46.52586986724044,-23.614016519612793],[-46.525915987144295,-23.614016519612793],[-46.52596210704816,-23.614016519612793],[-46.526008226952015,-23.614016519612793],[-46.52610046675973,-23.614016519612793],[-46.52619270656744,-23.614016519612793],[-46.52660778570216,-23.613951358971157],[-46.52670002550988,-23.613951358971157],[-46.52674614541374,-23.613951358971157],[-46.526930625029166,-23.613951358971157],[-46.52702286483688,-23.61388619832952],[-46.527068984740744,-23.61388619832952],[-46.52729958426003,-23.613951358971157],[-46.52762242358703,-23.613951358971157],[-46.5277607832986,-23.613951358971157],[-46.52780690320247,-23.613951358971157],[-46.527991382817895,-23.613951358971157],[-46.52808362262561,-23.613951358971157],[-46.52817586243333,-23.613951358971157],[-46.5283142221449,-23.613951358971157],[-46.52840646195261,-23.613951358971157],[-46.52854482166419,-23.61388619832952],[-46.528637061471905,-23.61388619832952],[-46.528775421183475,-23.61388619832952],[-46.52886766099119,-23.61388619832952],[-46.52895990079891,-23.61388619832952],[-46.52905214060662,-23.61388619832952],[-46.52914438041434,-23.61388619832952],[-46.52923662022205,-23.61388619832952],[-46.52932886002977,-23.613951358971157],[-46.52937497993363,-23.613951358971157],[-46.529421099837485,-23.61388619832952],[-46.5295133396452,-23.613951358971157],[-46.52969781926063,-23.614016519612793],[-46.52979005906835,-23.614016519612793],[-46.52992841877992,-23.61408168025443],[-46.529974538683774,-23.61408168025443],[-46.53015901829921,-23.614146840896066],[-46.530205138203065,-23.614146840896066],[-46.53029737801078,-23.6142120015377],[-46.530343497914636,-23.6142120015377],[-46.530481857626214,-23.614277162179338],[-46.53057409743393,-23.614342322820974],[-46.5307124571455,-23.61440748346261],[-46.53080469695322,-23.614472644104247],[-46.53089693676093,-23.61453780474588],[-46.530989176568646,-23.614602965387515],[-46.53108141637637,-23.614602965387515],[-46.53112753628022,-23.61466812602915],[-46.53121977608794,-23.614733286670788],[-46.531265895991794,-23.614733286670788],[-46.53131201589565,-23.614733286670788],[-46.53135813579951,-23.614733286670788],[-46.531404255703364,-23.614733286670788],[-46.531496495511085,-23.61466812602915],[-46.53154261541494,-23.61466812602915],[-46.5315887353188,-23.614602965387515],[-46.531634855222656,-23.61453780474588],[-46.53168097512651,-23.61453780474588],[-46.53172709503037,-23.614472644104247],[-46.531773214934226,-23.61440748346261],[-46.53181933483809,-23.61440748346261],[-46.53181933483809,-23.614342322820974],[-46.53186545474195,-23.614342322820974],[-46.53200381445352,-23.614277162179338],[-46.532049934357374,-23.6142120015377],[-46.53214217416509,-23.614146840896066],[-46.53218829406895,-23.614146840896066],[-46.53223441397281,-23.614146840896066],[-46.532418893588236,-23.614146840896066],[-46.53251113339595,-23.614146840896066],[-46.53260337320367,-23.614146840896066],[-46.532695613011384,-23.614146840896066],[-46.532833972722955,-23.6142120015377],[-46.532926212530676,-23.6142120015377],[-46.53297233243453,-23.614277162179338],[-46.533064572242246,-23.614277162179338],[-46.53315681204996,-23.614277162179338],[-46.53324905185767,-23.614277162179338],[-46.53329517176154,-23.614277162179338],[-46.533479651376965,-23.614342322820974],[-46.533710250896256,-23.61440748346261],[-46.53389473051168,-23.61440748346261],[-46.5339869703194,-23.61440748346261],[-46.53407921012712,-23.61440748346261],[-46.53421756983869,-23.61440748346261],[-46.53435592955026,-23.614472644104247],[-46.534494289261836,-23.614472644104247],[-46.53458652906955,-23.614472644104247],[-46.534678768877264,-23.61440748346261],[-46.534771008684984,-23.614342322820974],[-46.5348632484927,-23.614277162179338],[-46.534909368396555,-23.6142120015377],[-46.535139967915846,-23.614146840896066],[-46.53523220772356,-23.614146840896066],[-46.53527832762742,-23.61408168025443],[-46.53532444753127,-23.61408168025443],[-46.53541668733899,-23.614016519612793],[-46.535462807242844,-23.613951358971157],[-46.53550892714671,-23.61388619832952],[-46.53564728685828,-23.613821037687888],[-46.53578564656985,-23.613755877046252],[-46.53592400628143,-23.61362555576298],[-46.53601624608914,-23.61362555576298],[-46.536108485896854,-23.61362555576298],[-46.53615460580071,-23.613560395121343],[-46.536339085416145,-23.613495234479707],[-46.53643132522386,-23.61343007383807],[-46.536477445127716,-23.613364913196435],[-46.53661580483929,-23.6132997525548],[-46.536754164550864,-23.613169431271526],[-46.536892524262434,-23.613104270629893],[-46.53703088397401,-23.61297394934662],[-46.537123123781726,-23.612908788704985],[-46.53721536358944,-23.612908788704985],[-46.53735372330102,-23.61284362806335],[-46.53749208301259,-23.612713306780076],[-46.53763044272416,-23.61264814613844],[-46.53772268253188,-23.612582985496804],[-46.53781492233959,-23.612582985496804],[-46.53795328205116,-23.612517824855168],[-46.53804552185888,-23.612452664213535],[-46.538183881570454,-23.6123875035719],[-46.53827612137817,-23.612322342930263],[-46.53836836118588,-23.612322342930263],[-46.538414481089745,-23.612257182288626],[-46.538414481089745,-23.61219202164699],[-46.53850672089746,-23.61219202164699],[-46.53850672089746,-23.612126861005354],[-46.53859896070517,-23.612061700363718],[-46.53864508060903,-23.61199653972208],[-46.53873732041674,-23.611931379080445],[-46.538829560224464,-23.61186621843881],[-46.538967919936034,-23.611801057797177],[-46.53901403983989,-23.61173589715554],[-46.53906015974375,-23.61173589715554],[-46.539198519455326,-23.611670736513904],[-46.53924463935918,-23.611605575872268],[-46.539336879166896,-23.611540415230632],[-46.53942911897461,-23.611540415230632],[-46.53956747868619,-23.61141009394736],[-46.539613598590044,-23.611344933305723],[-46.53979807820547,-23.611279772664087],[-46.53989031801319,-23.61121461202245],[-46.53993643791705,-23.611149451380815],[-46.539982557820906,-23.611149451380815],[-46.54002867772476,-23.611084290739182],[-46.54007479762862,-23.611019130097546],[-46.54021315734019,-23.61095396945591],[-46.540397636955625,-23.610823648172637],[-46.54048987676334,-23.610758487531],[-46.54058211657105,-23.610693326889365],[-46.54067435637877,-23.61062816624773],[-46.54072047628263,-23.610563005606092],[-46.54081271609034,-23.610563005606092],[-46.54090495589806,-23.610497844964456],[-46.54099719570578,-23.610432684322824],[-46.54108943551349,-23.610432684322824],[-46.541181675321205,-23.610367523681187],[-46.54122779522506,-23.61030236303955],[-46.54132003503278,-23.610237202397915],[-46.541412274840496,-23.61017204175628],[-46.54150451464821,-23.610106881114643],[-46.541596754455924,-23.610106881114643],[-46.5417351141675,-23.60997655983137],[-46.54178123407136,-23.60997655983137],[-46.541827353975215,-23.609911399189734],[-46.54187347387907,-23.609911399189734],[-46.541965713686785,-23.609846238548098],[-46.54201183359064,-23.609846238548098],[-46.54210407339836,-23.609781077906465],[-46.54215019330222,-23.609781077906465],[-46.54219631320608,-23.609781077906465],[-46.54219631320608,-23.60971591726483],[-46.542242433109934,-23.60971591726483],[-46.54228855301379,-23.60971591726483],[-46.54233467291765,-23.609650756623193],[-46.542380792821504,-23.609650756623193],[-46.54242691272537,-23.609585595981557],[-46.542473032629225,-23.609585595981557],[-46.54251915253308,-23.60952043533992],[-46.54265751224465,-23.609455274698284],[-46.54270363214851,-23.609390114056648],[-46.542749752052366,-23.609390114056648],[-46.54284199186009,-23.609324953415012],[-46.5429342316678,-23.609259792773376],[-46.54298035157166,-23.609259792773376],[-46.54307259137937,-23.60919463213174],[-46.54321095109095,-23.60906431084847],[-46.54334931080252,-23.608999150206834],[-46.54344155061023,-23.608933989565198],[-46.54362603022567,-23.608868828923562],[-46.54371827003338,-23.60873850764029],[-46.54394886955267,-23.608608186357017],[-46.54408722926424,-23.60854302571538],[-46.54427170887968,-23.608412704432112],[-46.54436394868739,-23.608347543790476],[-46.544456188495104,-23.60828238314884],[-46.54454842830282,-23.60828238314884],[-46.54464066811054,-23.608217222507204],[-46.54477902782211,-23.608152061865567],[-46.544825147725966,-23.60808690122393],[-46.5450096273414,-23.60795657994066],[-46.545101867149114,-23.607891419299023],[-46.54519410695683,-23.607761098015754],[-46.54528634676454,-23.607695937374118],[-46.5453324666684,-23.60763077673248],[-46.54537858657226,-23.607435294807573],[-46.545470826379976,-23.6073049735243],[-46.54556306618769,-23.607174652241028],[-46.545609186091546,-23.60704433095776],[-46.5456553059954,-23.60704433095776],[-46.54570142589926,-23.606979170316123],[-46.545747545803124,-23.606914009674487],[-46.54579366570698,-23.60684884903285],[-46.54583978561084,-23.606783688391214],[-46.54593202541855,-23.606653367107942],[-46.546116505033986,-23.606457885183033],[-46.5462087448417,-23.606327563899764],[-46.54630098464941,-23.606197242616492],[-46.54639322445713,-23.606132081974856],[-46.54648546426485,-23.606001760691584],[-46.546531584168704,-23.605936600049947],[-46.54657770407256,-23.60587143940831],[-46.54662382397642,-23.605806278766675],[-46.54671606378413,-23.605806278766675],[-46.54676218368799,-23.605741118125042],[-46.54680830359185,-23.605741118125042],[-46.54685442349571,-23.605675957483406],[-46.54694666330342,-23.605675957483406],[-46.54699278320728,-23.605675957483406],[-46.54703890311114,-23.605675957483406],[-46.54713114291885,-23.605741118125042],[-46.54722338272657,-23.605741118125042],[-46.54726950263043,-23.605806278766675],[-46.547453982245855,-23.60587143940831],[-46.54750010214971,-23.60587143940831],[-46.54763846186129,-23.605936600049947],[-46.547730701669,-23.605936600049947],[-46.54777682157286,-23.606001760691584],[-46.54814578080372,-23.60606692133322],[-46.548238020611436,-23.606132081974856],[-46.5482841405153,-23.60606692133322],[-46.548330260419156,-23.60606692133322],[-46.54837638032301,-23.606001760691584],[-46.54842250022687,-23.606001760691584],[-46.54846862013073,-23.605936600049947],[-46.548514740034584,-23.605936600049947],[-46.548514740034584,-23.60587143940831],[-46.5486069798423,-23.60587143940831],[-46.54865309974616,-23.60587143940831],[-46.54869921965002,-23.605806278766675],[-46.548745339553875,-23.605806278766675],[-46.54883757936159,-23.605741118125042],[-46.548883699265446,-23.605741118125042],[-46.54897593907316,-23.605741118125042],[-46.54902205897702,-23.605675957483406],[-46.54911429878474,-23.605675957483406],[-46.549160418688594,-23.605675957483406],[-46.54925265849631,-23.605675957483406],[-46.549298778400164,-23.60561079684177],[-46.549391018207885,-23.60561079684177],[-46.54943713811174,-23.60561079684177],[-46.549529377919455,-23.60561079684177],[-46.54962161772717,-23.60561079684177],[-46.549667737631026,-23.60561079684177],[-46.5498060973426,-23.60561079684177],[-46.54989833715032,-23.60561079684177],[-46.549944457054174,-23.605675957483406],[-46.54999057695803,-23.605675957483406],[-46.55003669686189,-23.605675957483406],[-46.55012893666961,-23.605675957483406],[-46.55022117647732,-23.605741118125042],[-46.550313416285036,-23.605741118125042],[-46.55040565609275,-23.605806278766675],[-46.550451775996606,-23.605806278766675],[-46.55049789590047,-23.60587143940831],[-46.55054401580433,-23.605936600049947],[-46.55063625561204,-23.605936600049947],[-46.5506823755159,-23.606001760691584],[-46.550728495419754,-23.606001760691584],[-46.55077461532361,-23.60606692133322],[-46.55086685513133,-23.606197242616492],[-46.550959094939046,-23.606327563899764],[-46.55105133474676,-23.6063927245414],[-46.551097454650616,-23.606457885183033],[-46.55114357455447,-23.606457885183033],[-46.551374174073764,-23.606718527749578],[-46.55146641388148,-23.606783688391214],[-46.552665531381784,-23.608152061865567],[-46.5527577711895,-23.608217222507204],[-46.553034490612646,-23.60854302571538],[-46.55326509013193,-23.60873850764029],[-46.55331121003579,-23.608803668281926],[-46.553357329939644,-23.608868828923562],[-46.55340344984351,-23.608999150206834],[-46.553449569747364,-23.60906431084847],[-46.55349568965122,-23.609129471490103],[-46.55354180955508,-23.60919463213174],[-46.55363404936279,-23.609390114056648],[-46.553726289170505,-23.609585595981557],[-46.553818528978226,-23.609911399189734],[-46.55386464888208,-23.609911399189734],[-46.55386464888208,-23.610041720473006],[-46.55391076878594,-23.610106881114643],[-46.5539568886898,-23.610237202397915],[-46.554003008593654,-23.61030236303955],[-46.55409524840137,-23.610367523681187],[-46.554233608112945,-23.610497844964456],[-46.55432584792066,-23.61062816624773],[-46.55441808772837,-23.610693326889365],[-46.55451032753609,-23.610758487531],[-46.55469480715152,-23.610888808814273],[-46.55497152657467,-23.611019130097546],[-46.55520212609395,-23.611149451380815],[-46.55529436590167,-23.61121461202245],[-46.5554788455171,-23.611344933305723],[-46.55561720522868,-23.61141009394736],[-46.55570944503639,-23.611475254588996],[-46.55584780474796,-23.611540415230632],[-46.555940044555676,-23.611605575872268],[-46.556078404267254,-23.611670736513904],[-46.55617064407497,-23.61173589715554],[-46.55630900378654,-23.61186621843881],[-46.55640124359426,-23.611931379080445],[-46.556585723209686,-23.61199653972208],[-46.556724082921264,-23.612061700363718],[-46.556862442632834,-23.612061700363718],[-46.55695468244055,-23.612126861005354],[-46.557093042152125,-23.612126861005354],[-46.55718528195984,-23.612126861005354],[-46.55732364167141,-23.612126861005354],[-46.55741588147913,-23.612126861005354],[-46.5575542411907,-23.612126861005354],[-46.55773872080613,-23.612061700363718],[-46.557877080517706,-23.61199653972208],[-46.55792320042156,-23.61199653972208],[-46.55796932032542,-23.61199653972208],[-46.558015440229276,-23.611931379080445],[-46.55810768003699,-23.611931379080445],[-46.558153799940854,-23.61186621843881],[-46.558430519363995,-23.611670736513904],[-46.55870723878714,-23.611540415230632],[-46.55898395821029,-23.611344933305723],[-46.55926067763344,-23.61121461202245],[-46.55958351696044,-23.611019130097546],[-46.55981411647973,-23.610823648172637],[-46.56018307571059,-23.61062816624773],[-46.56059815484531,-23.610367523681187],[-46.56110547378775,-23.610041720473006],[-46.56133607330703,-23.609911399189734],[-46.56147443301861,-23.609846238548098],[-46.56184339224947,-23.609585595981557],[-46.56216623157648,-23.609390114056648],[-46.56253519080734,-23.60919463213174],[-46.56308862965363,-23.608868828923562],[-46.56318086946134,-23.608803668281926],[-46.563365349076776,-23.608673346998653],[-46.563642068499924,-23.608477865073745],[-46.56387266801921,-23.608347543790476],[-46.5641032675385,-23.608217222507204],[-46.56437998696165,-23.60808690122393],[-46.564564466577075,-23.60795657994066],[-46.564795066096366,-23.607826258657386],[-46.564933425807936,-23.607695937374118],[-46.56516402532723,-23.607565616090845],[-46.56544074475037,-23.607435294807573],[-46.56553298455809,-23.6073049735243],[-46.565763584077374,-23.607239812882664],[-46.56594806369281,-23.607109491599395],[-46.566132543308235,-23.606979170316123],[-46.56631702292367,-23.60684884903285],[-46.566639862250675,-23.606588206466306],[-46.56668598215453,-23.606588206466306],[-46.56673210205839,-23.60652304582467],[-46.56687046176996,-23.6063927245414],[-46.56700882148154,-23.606327563899764],[-46.567193301096964,-23.606197242616492],[-46.5673777807124,-23.60606692133322],[-46.56747002052011,-23.605936600049947],[-46.567562260327826,-23.60587143940831],[-46.567654500135546,-23.605806278766675],[-46.56774673994326,-23.605675957483406],[-46.567838979750974,-23.60561079684177],[-46.56788509965483,-23.605545636200134],[-46.567977339462544,-23.605480475558497],[-46.56802345936641,-23.60541531491686],[-46.56811569917412,-23.60541531491686],[-46.56816181907798,-23.605350154275225],[-46.568207938981836,-23.605350154275225],[-46.56830017878955,-23.60528499363359],[-46.56843853850113,-23.605154672350317],[-46.56876137782813,-23.60495919042541],[-46.56903809725127,-23.60482886914214],[-46.56917645696285,-23.604698547858867],[-46.570283334655436,-23.60404694144251],[-46.570836773501725,-23.603655977592695],[-46.57120573273259,-23.603460495667786],[-46.572035891002024,-23.6029392105347],[-46.57281992936761,-23.602483086043247],[-46.573465608021614,-23.602092122193433],[-46.57351172792548,-23.602026961551797],[-46.57365008763705,-23.60196180091016],[-46.57378844734862,-23.601831479626888],[-46.57397292696405,-23.601766318985252],[-46.57406516677177,-23.60170115834362],[-46.57420352648334,-23.601570837060347],[-46.57429576629106,-23.60150567641871],[-46.57443412600263,-23.601440515777075],[-46.5745724857142,-23.60137535513544],[-46.57466472552192,-23.601310194493802],[-46.574756965329634,-23.601245033852166],[-46.57484920513735,-23.60117987321053],[-46.57494144494506,-23.601114712568894],[-46.57503368475278,-23.60104955192726],[-46.57517204446435,-23.600984391285625],[-46.57531040417592,-23.600984391285625],[-46.5754487638875,-23.60091923064399],[-46.57558712359907,-23.600854070002352],[-46.575679363406785,-23.600788909360716],[-46.57581772311836,-23.600788909360716],[-46.57595608282993,-23.600788909360716],[-46.57604832263765,-23.60072374871908],[-46.576186682349224,-23.60072374871908],[-46.576325042060795,-23.60072374871908],[-46.57646340177237,-23.60072374871908],[-46.5766478813878,-23.600658588077444],[-46.57678624109937,-23.600658588077444],[-46.57687848090709,-23.600658588077444],[-46.57701684061866,-23.600593427435808],[-46.57706296052252,-23.600593427435808],[-46.57729356004181,-23.60052826679417],[-46.57743191975338,-23.600463106152535],[-46.577754759080385,-23.600332784869266],[-46.57803147850353,-23.600202463585994],[-46.5787232770614,-23.599811499736177],[-46.57913835619612,-23.599550857169636],[-46.57909223629226,-23.599811499736177],[-46.579046116388405,-23.59994182101945],[-46.579046116388405,-23.60007214230272],[-46.578953876580684,-23.6003979455109],[-46.57890775667683,-23.600658588077444],[-46.578953876580684,-23.60091923064399],[-46.57913835619612,-23.601245033852166],[-46.57913835619612,-23.601310194493802],[-46.579184476099975,-23.60137535513544],[-46.57955343533084,-23.60196180091016],[-46.579599555234694,-23.60215728283507],[-46.579599555234694,-23.60274372860979],[-46.57946119552312,-23.603330174384514],[-46.57946119552312,-23.603655977592695],[-46.57946119552312,-23.604242423367417],[-46.57955343533084,-23.604698547858867],[-46.579599555234694,-23.60463338721723],[-46.57969179504241,-23.604503065933958],[-46.5799223945617,-23.604242423367417],[-46.580383593600274,-23.603655977592695],[-46.580475833407995,-23.60359081695106],[-46.58070643292728,-23.603330174384514],[-46.581121512062,-23.602874049893064],[-46.58158271110058,-23.60228760411834],[-46.582043910139156,-23.601766318985252],[-46.58255122908159,-23.60117987321053],[-46.58292018831245,-23.600658588077444],[-46.58328914754331,-23.60026762422763],[-46.58365810677417,-23.599811499736177],[-46.58393482619732,-23.599485696528],[-46.58398094610118,-23.599420535886363],[-46.58434990533204,-23.598964411394913],[-46.58462662475519,-23.598638608186732],[-46.58494946408219,-23.59824764433692],[-46.58522618350534,-23.597987001770374],[-46.585456783024625,-23.597661198562196],[-46.58568738254392,-23.59740055599565],[-46.5859179820632,-23.597139913429107],[-46.586102461678635,-23.596944431504202],[-46.586240821390206,-23.596748949579293],[-46.58642530100564,-23.596553467654385],[-46.58660978062107,-23.596357985729476],[-46.5867942602365,-23.59616250380457],[-46.587024859755786,-23.59583670059639],[-46.587163219467364,-23.595641218671485],[-46.58725545927508,-23.59557605802985],[-46.58739381898665,-23.59538057610494],[-46.58771665831365,-23.59505477289676],[-46.58803949764066,-23.594663809046946],[-46.588316217063806,-23.594272845197132],[-46.58882353600624,-23.593751560064042],[-46.58914637533324,-23.59336059621423],[-46.589515334564105,-23.59290447172278],[-46.59043773264126,-23.591796740814967],[-46.59140625062227,-23.59068900990716],[-46.592144169083994,-23.589776760924256],[-46.59269760793029,-23.58905999386626],[-46.593435526392014,-23.588212905524998],[-46.59371224581516,-23.587887102316817],[-46.59375836571902,-23.58782194167518],[-46.59403508514217,-23.587496138467003],[-46.594450164276886,-23.586974853333913],[-46.59504972302703,-23.586062604351014],[-46.59528032254632,-23.585671640501197],[-46.595879881296476,-23.584433588310116],[-46.596294960431194,-23.583651660610485],[-46.596663919662056,-23.58280457226922],[-46.59712511870063,-23.58189232328632],[-46.597217358508345,-23.581631680719774],[-46.5972634784122,-23.581566520078137],[-46.597217358508345,-23.581566520078137],[-46.597217358508345,-23.581501359436505],[-46.59717123860449,-23.581501359436505],[-46.59712511870063,-23.581501359436505],[-46.597078998796775,-23.581501359436505],[-46.59703287889292,-23.581501359436505],[-46.59698675898906,-23.581501359436505],[-46.596940639085204,-23.581501359436505],[-46.59689451918134,-23.581501359436505],[-46.596848399277484,-23.581501359436505],[-46.59680227937363,-23.581501359436505],[-46.59675615946977,-23.581501359436505],[-46.59671003956591,-23.581501359436505],[-46.596663919662056,-23.58143619879487],[-46.5966177997582,-23.58143619879487],[-46.59652555995048,-23.58143619879487],[-46.59634108033505,-23.58143619879487],[-46.59569540168104,-23.581501359436505],[-46.595649281777185,-23.581501359436505],[-46.59560316187333,-23.581501359436505],[-46.59528032254632,-23.581501359436505],[-46.5945424040846,-23.581566520078137],[-46.59403508514217,-23.581631680719774],[-46.593804485622876,-23.581631680719774],[-46.59348164629587,-23.58169684136141],[-46.59306656716115,-23.58169684136141],[-46.59269760793029,-23.581762002003046],[-46.592005809372424,-23.581827162644682],[-46.591729089949276,-23.581827162644682],[-46.591590730237705,-23.581827162644682],[-46.591360130718414,-23.58189232328632],[-46.59112953119913,-23.58189232328632],[-46.59089893167984,-23.58189232328632],[-46.59071445206441,-23.581957483927955],[-46.59057609235283,-23.581957483927955],[-46.59048385254512,-23.581957483927955],[-46.59043773264126,-23.581957483927955],[-46.59020713312197,-23.581957483927955],[-46.59025325302583,-23.581957483927955],[-46.59025325302583,-23.58189232328632],[-46.590299372929685,-23.58189232328632],[-46.59034549283355,-23.581762002003046],[-46.590391612737406,-23.581631680719774],[-46.59052997244898,-23.581371038153232],[-46.59076057196827,-23.58091491366178],[-46.59076057196827,-23.580849753020146],[-46.59071445206441,-23.580849753020146],[-46.59071445206441,-23.58078459237851],[-46.59066833216055,-23.58078459237851],[-46.59062221225669,-23.580849753020146],[-46.59057609235283,-23.580849753020146],[-46.59048385254512,-23.58091491366178],[-46.59043773264126,-23.58091491366178],[-46.590391612737406,-23.580980074303415],[-46.59034549283355,-23.580980074303415],[-46.59025325302583,-23.580980074303415],[-46.590161013218115,-23.58104523494505],[-46.59011489331426,-23.58104523494505],[-46.5900687734104,-23.58104523494505],[-46.58997653360269,-23.581110395586688],[-46.58993041369882,-23.581110395586688],[-46.58983817389111,-23.581110395586688],[-46.58979205398725,-23.581110395586688],[-46.58969981417954,-23.581110395586688],[-46.58965369427568,-23.581110395586688],[-46.589607574371826,-23.581110395586688],[-46.589515334564105,-23.581110395586688],[-46.58946921466025,-23.581110395586688],[-46.589376974852534,-23.581110395586688],[-46.58928473504482,-23.581110395586688],[-46.589238615140964,-23.581110395586688],[-46.58914637533324,-23.581110395586688],[-46.58905413552553,-23.58104523494505],[-46.588961895717816,-23.58104523494505],[-46.58891577581396,-23.58104523494505],[-46.58882353600624,-23.580980074303415],[-46.588731296198524,-23.580980074303415],[-46.58868517629467,-23.580980074303415],[-46.588592936486954,-23.58091491366178],[-46.5885468165831,-23.58091491366178],[-46.588454576775376,-23.580849753020146],[-46.58840845687152,-23.580849753020146],[-46.588316217063806,-23.58078459237851],[-46.58827009715995,-23.580719431736874],[-46.58822397725609,-23.580719431736874],[-46.588177857352235,-23.580654271095238],[-46.588085617544515,-23.5805891104536],[-46.58803949764066,-23.5805891104536],[-46.5879933777368,-23.580523949811965],[-46.587947257832944,-23.58045878917033],[-46.58790113792909,-23.58045878917033],[-46.587670538409796,-23.580198146603788],[-46.587670538409796,-23.580132985962152],[-46.58762441850594,-23.580067825320516],[-46.58757829860208,-23.579937504037243],[-46.58743993889051,-23.57980718275397],[-46.587301579178934,-23.579546540187426],[-46.587163219467364,-23.57935105826252],[-46.58707097965965,-23.579155576337612],[-46.587024859755786,-23.579155576337612],[-46.58693261994807,-23.57902525505434],[-46.58693261994807,-23.578960094412704],[-46.586886500044216,-23.578960094412704],[-46.586886500044216,-23.578894933771068],[-46.58684038014036,-23.578894933771068],[-46.586655900524924,-23.578503969921254],[-46.58656366071721,-23.578438809279618],[-46.586240821390206,-23.577852363504896],[-46.58619470148635,-23.577852363504896],[-46.58614858158249,-23.57778720286326],[-46.58614858158249,-23.577722042221623],[-46.58601022187092,-23.577526560296718],[-46.585871862159344,-23.57733107837181],[-46.58582574225549,-23.577265917730173],[-46.58573350244777,-23.5771355964469],[-46.58564126264006,-23.57700527516363],[-46.58564126264006,-23.576940114521992],[-46.5855951427362,-23.576940114521992],[-46.58550290292848,-23.576744632597087],[-46.585456783024625,-23.57667947195545],[-46.58541066312077,-23.576614311313815],[-46.58536454321691,-23.57654915067218],[-46.585318423313055,-23.576418829388906],[-46.5852723034092,-23.57635366874727],[-46.58522618350534,-23.576288508105634],[-46.58518006360148,-23.576288508105634],[-46.58518006360148,-23.576223347463998],[-46.58518006360148,-23.576158186822365],[-46.58513394369762,-23.57609302618073],[-46.585087823793764,-23.576027865539093],[-46.58504170388991,-23.57589754425582],[-46.58499558398605,-23.575832383614184],[-46.58499558398605,-23.575767222972548],[-46.58499558398605,-23.57570206233091],[-46.58494946408219,-23.575636901689276],[-46.58494946408219,-23.575506580406007],[-46.58494946408219,-23.57544141976437],[-46.584903344178336,-23.57544141976437],[-46.584903344178336,-23.575376259122734],[-46.584903344178336,-23.575245937839462],[-46.584903344178336,-23.575180777197826],[-46.584903344178336,-23.57511561655619],[-46.584903344178336,-23.575050455914553],[-46.584903344178336,-23.57492013463128],[-46.584903344178336,-23.574854973989645],[-46.584903344178336,-23.574789813348012],[-46.58494946408219,-23.574724652706376],[-46.58494946408219,-23.57465949206474],[-46.58494946408219,-23.574594331423103],[-46.58499558398605,-23.574529170781467],[-46.58499558398605,-23.57446401013983],[-46.584903344178336,-23.57446401013983],[-46.584811104370615,-23.574398849498195],[-46.58476498446676,-23.574398849498195],[-46.5847188645629,-23.574398849498195],[-46.58462662475519,-23.57433368885656],[-46.58421154562047,-23.574138206931654],[-46.584027066005035,-23.574073046290017],[-46.58384258638961,-23.57400788564838],[-46.58379646648575,-23.57400788564838],[-46.58365810677417,-23.573942725006745],[-46.5835197470626,-23.57387756436511],[-46.58342750725489,-23.573812403723473],[-46.58305854802403,-23.5736820824402],[-46.58278182860088,-23.573551761156928],[-46.58255122908159,-23.57342143987366],[-46.58213614994687,-23.573291118590387],[-46.5819977902353,-23.57322595794875],[-46.58162883100444,-23.573030476023842],[-46.58158271110058,-23.573030476023842],[-46.581536591196716,-23.573095636665478],[-46.58149047129286,-23.573095636665478],[-46.58149047129286,-23.573160797307114],[-46.581444351389,-23.573160797307114],[-46.58135211158129,-23.57322595794875],[-46.581167631965855,-23.57342143987366],[-46.581121512062,-23.57342143987366],[-46.58089091254271,-23.5736820824402],[-46.580614193119565,-23.57387756436511],[-46.58042971350413,-23.573942725006745],[-46.58033747369642,-23.573942725006745],[-46.580245233888704,-23.573942725006745],[-46.58019911398485,-23.573942725006745],[-46.58010687417713,-23.57400788564838],[-46.58006075427327,-23.57400788564838],[-46.58001463436941,-23.57400788564838],[-46.579968514465556,-23.574073046290017],[-46.5799223945617,-23.574073046290017],[-46.57987627465784,-23.574073046290017],[-46.579599555234694,-23.57433368885656],[-46.57946119552312,-23.57446401013983],[-46.579322835811546,-23.574594331423103],[-46.579322835811546,-23.57465949206474],[-46.57936895571541,-23.574789813348012],[-46.579415075619266,-23.574854973989645],[-46.57946119552312,-23.57492013463128],[-46.57946119552312,-23.574985295272917],[-46.57950731542698,-23.575050455914553],[-46.57950731542698,-23.575180777197826],[-46.57955343533084,-23.575245937839462],[-46.57955343533084,-23.575311098481098],[-46.57955343533084,-23.57544141976437],[-46.579599555234694,-23.57557174104764],[-46.579599555234694,-23.575636901689276],[-46.57955343533084,-23.57570206233091],[-46.57950731542698,-23.575832383614184],[-46.579415075619266,-23.57589754425582],[-46.57927671590769,-23.575962704897456],[-46.57913835619612,-23.575962704897456],[-46.57899999648455,-23.576027865539093],[-46.5787232770614,-23.57609302618073],[-46.57849267754211,-23.57609302618073],[-46.57844655763825,-23.57609302618073],[-46.578400437734395,-23.57609302618073],[-46.57835431783054,-23.57609302618073],[-46.57807759840739,-23.576027865539093],[-46.577985358599676,-23.576027865539093],[-46.57793923869582,-23.576027865539093],[-46.57789311879196,-23.576027865539093],[-46.5778469988881,-23.576027865539093],[-46.5778469988881,-23.57609302618073],[-46.57780087898424,-23.57609302618073],[-46.577754759080385,-23.576158186822365],[-46.57770863917653,-23.576223347463998],[-46.57766251927267,-23.576288508105634],[-46.577524159561094,-23.57654915067218],[-46.577339679945666,-23.576940114521992],[-46.57692460081095,-23.577656881579987],[-46.576832361003234,-23.577656881579987],[-46.57674012119551,-23.577656881579987],[-46.5766478813878,-23.577722042221623],[-46.57660176148394,-23.577722042221623],[-46.576555641580086,-23.577722042221623],[-46.57650952167623,-23.577722042221623],[-46.57646340177237,-23.577722042221623],[-46.57641728186851,-23.577722042221623],[-46.576325042060795,-23.577722042221623],[-46.57627892215694,-23.577722042221623],[-46.57623280225308,-23.577722042221623],[-46.576186682349224,-23.577656881579987],[-46.57609444254151,-23.577656881579987],[-46.57604832263765,-23.57759172093835],[-46.57600220273379,-23.577656881579987],[-46.57586384302222,-23.577722042221623],[-46.57558712359907,-23.577852363504896],[-46.57521816436821,-23.578047845429804],[-46.57503368475278,-23.578178166713077],[-46.574895325041204,-23.57824332735471],[-46.5742496463872,-23.57856913056289],[-46.5739268070602,-23.578699451846163],[-46.57365008763705,-23.578829773129435],[-46.57360396773319,-23.578894933771068],[-46.573327248310044,-23.57902525505434],[-46.57323500850233,-23.579090415695976],[-46.57309664879075,-23.579155576337612],[-46.57281992936761,-23.579285897620885],[-46.572681569656034,-23.57935105826252],[-46.57258932984832,-23.579416218904157],[-46.57254320994446,-23.579416218904157],[-46.572266490521315,-23.579481379545793],[-46.57198977109817,-23.579546540187426],[-46.57194365119431,-23.579546540187426],[-46.571713051675026,-23.579611700829062],[-46.571344092444164,-23.5796768614707],[-46.57120573273259,-23.579742022112335],[-46.57115961282873,-23.579742022112335],[-46.570836773501725,-23.57980718275397],[-46.570421694367006,-23.579937504037243],[-46.57023721475158,-23.579937504037243],[-46.570052735136144,-23.58000266467888],[-46.569914375424574,-23.580067825320516],[-46.569637656001426,-23.580132985962152],[-46.569407056482135,-23.58026330724542],[-46.56931481667442,-23.58026330724542],[-46.56917645696285,-23.580328467887057],[-46.56903809725127,-23.580393628528693],[-46.568853617635845,-23.58045878917033],[-46.56802345936641,-23.580849753020146],[-46.567977339462544,-23.580849753020146],[-46.56788509965483,-23.58091491366178],[-46.567838979750974,-23.58091491366178],[-46.56779285984712,-23.580980074303415],[-46.56747002052011,-23.581110395586688],[-46.567423900616255,-23.581110395586688],[-46.5673777807124,-23.581110395586688],[-46.56733166080854,-23.581110395586688],[-46.56728554090468,-23.581110395586688],[-46.56723942100082,-23.581175556228324],[-46.56705494138539,-23.581175556228324],[-46.56700882148154,-23.581175556228324],[-46.56659374234682,-23.58124071686996],[-46.56645538263524,-23.58124071686996],[-46.56640926273138,-23.581305877511596],[-46.56631702292367,-23.581305877511596],[-46.566132543308235,-23.581305877511596],[-46.565855823885094,-23.581371038153232],[-46.565763584077374,-23.581371038153232],[-46.56571746417352,-23.581371038153232],[-46.5656252243658,-23.581371038153232],[-46.56548686465423,-23.581371038153232],[-46.56539462484651,-23.581371038153232],[-46.56516402532723,-23.58143619879487],[-46.56511790542337,-23.58143619879487],[-46.56497954571179,-23.58143619879487],[-46.564933425807936,-23.58143619879487],[-46.56465670638479,-23.58143619879487],[-46.56451834667322,-23.58143619879487],[-46.56437998696165,-23.58143619879487],[-46.56428774715393,-23.58143619879487],[-46.56387266801921,-23.58143619879487],[-46.56373430830764,-23.58143619879487],[-46.56359594859606,-23.58143619879487],[-46.563503708788346,-23.58143619879487],[-46.56345758888449,-23.58143619879487],[-46.56341146898063,-23.58143619879487],[-46.56327310926906,-23.58143619879487],[-46.563134749557484,-23.581371038153232],[-46.56308862965363,-23.581371038153232],[-46.56281191023048,-23.581305877511596],[-46.56262743061505,-23.581305877511596],[-46.562581310711195,-23.58124071686996],[-46.56253519080734,-23.58124071686996],[-46.562350711191904,-23.58124071686996],[-46.56179727234561,-23.581110395586688],[-46.56152055292247,-23.58104523494505],[-46.56133607330703,-23.580980074303415],[-46.561289953403175,-23.580980074303415],[-46.56124383349932,-23.580980074303415],[-46.56119771359546,-23.580980074303415],[-46.56110547378775,-23.58091491366178],[-46.561059353883884,-23.58091491366178],[-46.56101323398003,-23.58091491366178],[-46.56087487426846,-23.580849753020146],[-46.560736514556886,-23.580849753020146],[-46.56045979513374,-23.58078459237851],[-46.56032143542216,-23.580719431736874],[-46.560275315518304,-23.580719431736874],[-46.56022919561445,-23.580719431736874],[-46.56013695580673,-23.580719431736874],[-46.56004471599902,-23.580719431736874],[-46.55999859609516,-23.580719431736874],[-46.5599524761913,-23.580719431736874],[-46.55990635628744,-23.580719431736874],[-46.55981411647973,-23.580719431736874],[-46.55976799657587,-23.580719431736874],[-46.55958351696044,-23.580719431736874],[-46.559214557729575,-23.58078459237851],[-46.559076198018005,-23.58078459237851],[-46.55903007811415,-23.58078459237851],[-46.55898395821029,-23.58078459237851],[-46.55884559849871,-23.58078459237851],[-46.55861499897943,-23.580849753020146],[-46.558153799940854,-23.580849753020146],[-46.55796932032542,-23.58091491366178],[-46.55796932032542,-23.580849753020146],[-46.55796932032542,-23.58078459237851],[-46.55796932032542,-23.580719431736874],[-46.55792320042156,-23.580328467887057],[-46.557877080517706,-23.580132985962152],[-46.557877080517706,-23.580067825320516],[-46.557877080517706,-23.58000266467888],[-46.55783096061385,-23.579872343395607],[-46.55778484070999,-23.579481379545793],[-46.55773872080613,-23.57922073697925],[-46.55773872080613,-23.57902525505434],[-46.55773872080613,-23.578960094412704],[-46.55773872080613,-23.578894933771068],[-46.55769260090227,-23.578894933771068],[-46.55769260090227,-23.578829773129435],[-46.55769260090227,-23.5787646124878],[-46.557646480998415,-23.578503969921254],[-46.55760036109456,-23.578178166713077],[-46.55760036109456,-23.577982684788168],[-46.55760036109456,-23.577852363504896],[-46.5575542411907,-23.577852363504896],[-46.5575542411907,-23.57778720286326],[-46.5575542411907,-23.577656881579987],[-46.5575542411907,-23.57759172093835],[-46.557508121286844,-23.5771355964469],[-46.55746200138299,-23.577070435805265],[-46.557369761575266,-23.576418829388906],[-46.55727752176755,-23.57557174104764],[-46.55727752176755,-23.575506580406007],[-46.557231401863696,-23.575506580406007],[-46.55713916205598,-23.575506580406007],[-46.55640124359426,-23.57570206233091],[-46.55630900378654,-23.57570206233091],[-46.55464868724766,-23.576158186822365],[-46.55451032753609,-23.576158186822365],[-46.55409524840137,-23.576288508105634],[-46.554003008593654,-23.576288508105634],[-46.55386464888208,-23.57635366874727],[-46.553587929458935,-23.57635366874727],[-46.55349568965122,-23.576418829388906],[-46.553357329939644,-23.576418829388906],[-46.552942250804925,-23.57654915067218],[-46.55285001099721,-23.57654915067218],[-46.552665531381784,-23.576614311313815],[-46.55248105176635,-23.57667947195545],[-46.552019852727774,-23.576744632597087],[-46.55183537311234,-23.576809793238724],[-46.551743133304626,-23.576809793238724],[-46.55132805416991,-23.576940114521992],[-46.55114357455447,-23.57700527516363],[-46.55105133474676,-23.57700527516363],[-46.550959094939046,-23.57700527516363],[-46.55077461532361,-23.577070435805265],[-46.550451775996606,-23.5771355964469],[-46.54985221724646,-23.577265917730173],[-46.54975997743875,-23.57733107837181],[-46.54957549782331,-23.577396239013446],[-46.5494832580156,-23.577396239013446],[-46.54934489830402,-23.577461399655082],[-46.54906817888088,-23.577526560296718],[-46.5486069798423,-23.57759172093835],[-46.54856085993844,-23.577656881579987],[-46.54846862013073,-23.577656881579987],[-46.547177262822714,-23.577982684788168],[-46.54708502301499,-23.577982684788168],[-46.54703890311114,-23.577982684788168],[-46.54699278320728,-23.577982684788168],[-46.54694666330342,-23.578047845429804],[-46.54676218368799,-23.578047845429804],[-46.54643934436099,-23.578178166713077],[-46.54579366570698,-23.578308487996345],[-46.5456553059954,-23.578308487996345],[-46.54556306618769,-23.57837364863798],[-46.54551694628383,-23.57837364863798],[-46.544686788014396,-23.57856913056289],[-46.54408722926424,-23.578699451846163],[-46.54394886955267,-23.5787646124878],[-46.54284199186009,-23.57902525505434],[-46.54270363214851,-23.57902525505434],[-46.54256527243694,-23.579090415695976],[-46.542242433109934,-23.579155576337612],[-46.54136615493664,-23.57935105826252],[-46.54122779522506,-23.579416218904157],[-46.54108943551349,-23.579416218904157],[-46.54081271609034,-23.579481379545793],[-46.540628236474916,-23.579546540187426],[-46.54058211657105,-23.579611700829062],[-46.54048987676334,-23.579611700829062],[-46.54044375685948,-23.5796768614707],[-46.54007479762862,-23.58000266467888],[-46.53993643791705,-23.580132985962152],[-46.53989031801319,-23.580132985962152],[-46.53952135878233,-23.580393628528693],[-46.539336879166896,-23.580523949811965],[-46.539198519455326,-23.5805891104536],[-46.539106279647605,-23.580654271095238],[-46.538967919936034,-23.580719431736874],[-46.53836836118588,-23.581175556228324],[-46.53823000147431,-23.58124071686996],[-46.538183881570454,-23.581305877511596],[-46.53804552185888,-23.581371038153232],[-46.537907162147306,-23.581501359436505],[-46.537768802435735,-23.581631680719774],[-46.5375843228203,-23.581762002003046],[-46.537399843204874,-23.58189232328632],[-46.537261483493296,-23.581957483927955],[-46.53716924368558,-23.581957483927955],[-46.53703088397401,-23.58202264456959],[-46.536892524262434,-23.58202264456959],[-46.536892524262434,-23.582087805211227],[-46.53680028445472,-23.582087805211227],[-46.536754164550864,-23.582087805211227],[-46.53670804464701,-23.582087805211227],[-46.53661580483929,-23.582152965852863],[-46.536569684935436,-23.582152965852863],[-46.536477445127716,-23.582152965852863],[-46.53638520532,-23.5822181264945],[-46.536339085416145,-23.5822181264945],[-46.53629296551229,-23.582283287136132],[-46.53624684560843,-23.582283287136132],[-46.53615460580071,-23.58234844777777],[-46.536108485896854,-23.582413608419404],[-46.536062365993,-23.582413608419404],[-46.53597012618528,-23.58247876906104],[-46.53592400628143,-23.582609090344313],[-46.53578564656985,-23.58267425098595],[-46.53573952666599,-23.582739411627585],[-46.535693406762135,-23.58280457226922],[-46.53564728685828,-23.582869732910858],[-46.53560116695442,-23.58293489355249],[-46.535462807242844,-23.5831303754774],[-46.53532444753127,-23.58326069676067],[-46.53532444753127,-23.583325857402308],[-46.53523220772356,-23.58345617868558],[-46.53509384801198,-23.58358649996885],[-46.53500160820427,-23.583651660610485],[-46.5348632484927,-23.583847142535394],[-46.53472488878112,-23.584042624460302],[-46.534678768877264,-23.58410778510194],[-46.53454040916569,-23.58423810638521],[-46.53440204945412,-23.58436842766848],[-46.53435592955026,-23.584498748951752],[-46.534263689742545,-23.58456390959339],[-46.53421756983869,-23.584629070235025],[-46.534125330030975,-23.584759391518297],[-46.53407921012712,-23.584824552159933],[-46.53407921012712,-23.58488971280157],[-46.53403309022326,-23.584954873443202],[-46.53394085041554,-23.585085194726474],[-46.53394085041554,-23.58515035536811],[-46.533848610607826,-23.58534583729302],[-46.53380249070397,-23.58547615857629],[-46.53375637080011,-23.585541319217928],[-46.5336641309924,-23.585671640501197],[-46.5336641309924,-23.585736801142833],[-46.53357189118468,-23.58593228306774],[-46.53352577128082,-23.585997443709378],[-46.53343353147311,-23.58612776499265],[-46.533341291665394,-23.58625808627592],[-46.533341291665394,-23.586323246917555],[-46.53324905185767,-23.586453568200827],[-46.53315681204996,-23.5865838894841],[-46.53315681204996,-23.586649050125736],[-46.533064572242246,-23.58677937140901],[-46.532926212530676,-23.586974853333913],[-46.53288009262681,-23.58704001397555],[-46.5327878528191,-23.587235495900458],[-46.532695613011384,-23.58736581718373],[-46.532695613011384,-23.587430977825367],[-46.53264949310753,-23.587430977825367],[-46.53264949310753,-23.587496138467003],[-46.53260337320367,-23.58756129910864],[-46.532557253299814,-23.587756781033544],[-46.532557253299814,-23.58782194167518],[-46.53251113339595,-23.58801742360009],[-46.53251113339595,-23.588082584241725],[-46.53260337320367,-23.588212905524998],[-46.53264949310753,-23.58827806616663],[-46.532695613011384,-23.58847354809154],[-46.5327878528191,-23.58860386937481],[-46.53288009262681,-23.58879935129972],[-46.532926212530676,-23.588929672582992],[-46.53297233243453,-23.58905999386626],[-46.533064572242246,-23.589190315149533],[-46.533064572242246,-23.58925547579117],[-46.53315681204996,-23.58945095771608],[-46.53329517176154,-23.589776760924256],[-46.53343353147311,-23.589972242849164],[-46.53343353147311,-23.5900374034908],[-46.533479651376965,-23.590167724774073],[-46.53352577128082,-23.59029804605734],[-46.533618011088535,-23.590428367340614],[-46.533710250896256,-23.590623849265523],[-46.53375637080011,-23.590754170548795],[-46.533848610607826,-23.590884491832067],[-46.53389473051168,-23.591079973756973],[-46.53394085041554,-23.59114513439861],[-46.5339869703194,-23.59127545568188],[-46.53407921012712,-23.59147093760679],[-46.534125330030975,-23.591536098248426],[-46.53421756983869,-23.591666419531695],[-46.534263689742545,-23.591861901456603],[-46.53435592955026,-23.592057383381512],[-46.53440204945412,-23.592122544023148],[-46.53444816935798,-23.59225286530642],[-46.53454040916569,-23.592448347231326],[-46.53458652906955,-23.59251350787296],[-46.53463264897341,-23.592578668514598],[-46.534678768877264,-23.59270898979787],[-46.53472488878112,-23.592839311081143],[-46.53481712858884,-23.593034793006048],[-46.5348632484927,-23.59316511428932],[-46.53495548830041,-23.593295435572593],[-46.535047728108125,-23.5934909174975],[-46.53509384801198,-23.593686399422406],[-46.5351860878197,-23.59381672070568],[-46.53527832762742,-23.594012202630587],[-46.53532444753127,-23.594077363272223],[-46.53537056743513,-23.594272845197132],[-46.53541668733899,-23.594272845197132],[-46.53541668733899,-23.594338005838765],[-46.535462807242844,-23.594468327122037],[-46.535555047050565,-23.59459864840531],[-46.53560116695442,-23.594794130330218],[-46.535693406762135,-23.59492445161349],[-46.53573952666599,-23.59505477289676],[-46.535831766473706,-23.59518509418003],[-46.535831766473706,-23.595250254821668],[-46.53592400628143,-23.595445736746576],[-46.53597012618528,-23.595510897388213],[-46.536062365993,-23.595706379313118],[-46.536108485896854,-23.59583670059639],[-46.53615460580071,-23.595901861238026],[-46.53615460580071,-23.595967021879662],[-46.536200725704575,-23.595967021879662],[-46.53624684560843,-23.596097343162935],[-46.53629296551229,-23.596227664446207],[-46.53638520532,-23.596357985729476],[-46.53638520532,-23.596423146371112],[-46.536339085416145,-23.59648830701275],[-46.53629296551229,-23.59648830701275],[-46.53615460580071,-23.59661862829602],[-46.536108485896854,-23.59661862829602],[-46.53601624608914,-23.596748949579293],[-46.53592400628143,-23.59681411022093],[-46.535831766473706,-23.596879270862566],[-46.53578564656985,-23.596944431504202],[-46.53573952666599,-23.596944431504202],[-46.53564728685828,-23.597009592145838],[-46.53550892714671,-23.59707475278747],[-46.53537056743513,-23.597139913429107],[-46.53537056743513,-23.597205074070743],[-46.53527832762742,-23.597205074070743],[-46.53509384801198,-23.597335395354015],[-46.535047728108125,-23.597335395354015],[-46.53500160820427,-23.59740055599565],[-46.534909368396555,-23.59740055599565],[-46.534909368396555,-23.597465716637288],[-46.5348632484927,-23.597465716637288],[-46.534678768877264,-23.597530877278924],[-46.53454040916569,-23.597661198562196],[-46.53440204945412,-23.59772635920383],[-46.534263689742545,-23.597791519845465],[-46.53417144993483,-23.5978566804871],[-46.5339869703194,-23.597921841128738],[-46.533848610607826,-23.597987001770374],[-46.533710250896256,-23.597987001770374],[-46.53352577128082,-23.598117323053646],[-46.533479651376965,-23.598182483695282],[-46.53343353147311,-23.598182483695282],[-46.53338741156925,-23.59824764433692],[-46.53320293195382,-23.598312804978555],[-46.53301845233839,-23.598377965620188],[-46.532833972722955,-23.598443126261824],[-46.532695613011384,-23.598443126261824],[-46.53260337320367,-23.59850828690346],[-46.532418893588236,-23.598573447545096],[-46.53232665378052,-23.598573447545096],[-46.53218829406895,-23.598638608186732],[-46.53200381445352,-23.598638608186732],[-46.53181933483809,-23.59870376882837],[-46.531634855222656,-23.598768929470005],[-46.53145037560723,-23.59883409011164],[-46.53135813579951,-23.598899250753277],[-46.53117365618408,-23.598964411394913],[-46.5310352964725,-23.598964411394913],[-46.530850816857075,-23.59902957203655],[-46.53080469695322,-23.59902957203655],[-46.53066633724164,-23.599094732678182],[-46.53052797753007,-23.59915989331982],[-46.530343497914636,-23.599225053961455],[-46.530205138203065,-23.599225053961455],[-46.53002065858764,-23.59929021460309],[-46.52969781926063,-23.599420535886363],[-46.52960557945291,-23.599420535886363],[-46.529421099837485,-23.599485696528],[-46.529282740125915,-23.599550857169636],[-46.529190500318194,-23.599550857169636],[-46.52900602070277,-23.59961601781127],[-46.52886766099119,-23.599681178452908],[-46.52872930127962,-23.59974633909454],[-46.528637061471905,-23.599811499736177],[-46.52849870176033,-23.59994182101945],[-46.52836034204876,-23.600006981661085],[-46.528221982337186,-23.60007214230272],[-46.52808362262561,-23.600137302944358],[-46.527991382817895,-23.60026762422763],[-46.52789914301018,-23.60026762422763],[-46.52780690320247,-23.600332784869266],[-46.52766854349089,-23.600463106152535],[-46.52753018377932,-23.600593427435808],[-46.527437943971606,-23.600658588077444],[-46.52739182406774,-23.600658588077444],[-46.527345704163885,-23.60072374871908],[-46.52716122454846,-23.600788909360716],[-46.52702286483688,-23.60091923064399],[-46.52697674493302,-23.600984391285625],[-46.526930625029166,-23.600984391285625],[-46.52683838522145,-23.60104955192726],[-46.526792265317596,-23.601114712568894],[-46.52660778570216,-23.60117987321053],[-46.52660778570216,-23.601245033852166],[-46.52646942599059,-23.601310194493802],[-46.526284946375156,-23.60137535513544],[-46.526146586663586,-23.60150567641871],[-46.526008226952015,-23.60150567641871],[-46.526008226952015,-23.601570837060347],[-46.526146586663586,-23.601831479626888],[-46.52619270656744,-23.601896640268524],[-46.5262388264713,-23.60196180091016],[-46.526284946375156,-23.602092122193433],[-46.52637718618288,-23.60228760411834],[-46.526423306086734,-23.602352764759978],[-46.52651554589445,-23.602548246684883],[-46.526561665798305,-23.602678567968155],[-46.52660778570216,-23.60274372860979],[-46.52665390560602,-23.602808889251428],[-46.52665390560602,-23.602874049893064],[-46.52674614541374,-23.603004371176336],[-46.52683838522145,-23.60319985310124],[-46.52683838522145,-23.603265013742877],[-46.52670002550988,-23.603265013742877],[-46.52660778570216,-23.603265013742877],[-46.52660778570216,-23.603330174384514],[-46.52651554589445,-23.603330174384514],[-46.526423306086734,-23.60339533502615],[-46.52637718618288,-23.60339533502615],[-46.52633106627902,-23.60339533502615],[-46.526284946375156,-23.603460495667786],[-46.526146586663586,-23.60359081695106],[-46.526008226952015,-23.60372113823433],[-46.52586986724044,-23.6038514595176],[-46.52573150752887,-23.603981780800872],[-46.52559314781729,-23.604112102084144],[-46.52554702791343,-23.60417726272578],[-46.525500908009576,-23.60417726272578],[-46.52540866820186,-23.604242423367417],[-46.525362548298006,-23.604242423367417],[-46.52531642839415,-23.604242423367417],[-46.52527030849029,-23.604242423367417],[-46.52517806868257,-23.604242423367417],[-46.525039708971,-23.604242423367417],[-46.52490134925943,-23.60417726272578],[-46.524716869643996,-23.604112102084144],[-46.524578509932425,-23.604112102084144],[-46.52439403031699,-23.60404694144251],[-46.52425567060542,-23.60404694144251],[-46.524071190989986,-23.603981780800872],[-46.52402507108613,-23.603981780800872],[-46.52397895118227,-23.603981780800872],[-46.523932831278415,-23.603981780800872],[-46.52388671137456,-23.603981780800872],[-46.52388671137456,-23.60404694144251],[-46.5238405914707,-23.60404694144251],[-46.52374835166298,-23.604112102084144],[-46.52360999195141,-23.604242423367417],[-46.5235177521437,-23.60437274465069],[-46.52347163223984,-23.60437274465069],[-46.52337939243212,-23.604568226575594],[-46.52333327252826,-23.60463338721723],[-46.52324103272055,-23.604698547858867],[-46.52319491281669,-23.604763708500503],[-46.523148792912835,-23.60482886914214],[-46.52310267300898,-23.604894029783775],[-46.52305655310512,-23.60495919042541],[-46.5229643132974,-23.605089511708684],[-46.52282595358583,-23.605219832991953],[-46.52277983368197,-23.605350154275225],[-46.52268759387426,-23.60541531491686],[-46.52259535406654,-23.605545636200134],[-46.522503114258825,-23.605741118125042],[-46.52245699435497,-23.605741118125042],[-46.52241087445111,-23.605806278766675],[-46.52241087445111,-23.60587143940831],[-46.522272514739534,-23.606001760691584],[-46.52218027493182,-23.606132081974856],[-46.52213415502796,-23.606197242616492],[-46.52199579531639,-23.606327563899764],[-46.52213415502796,-23.606457885183033],[-46.52213415502796,-23.60652304582467],[-46.522272514739534,-23.606653367107942],[-46.5223186346434,-23.606718527749578],[-46.52245699435497,-23.60684884903285],[-46.52259535406654,-23.606979170316123],[-46.522641473970396,-23.60704433095776],[-46.522733713778116,-23.607174652241028],[-46.52277983368197,-23.607174652241028],[-46.52282595358583,-23.6073049735243],[-46.522918193393544,-23.607370134165937],[-46.5229643132974,-23.60750045544921],[-46.52305655310512,-23.607565616090845],[-46.52310267300898,-23.60763077673248],[-46.52319491281669,-23.607761098015754],[-46.52324103272055,-23.607826258657386],[-46.523287152624405,-23.60795657994066],[-46.52333327252826,-23.60808690122393],[-46.52342551233598,-23.608217222507204],[-46.52342551233598,-23.60828238314884],[-46.5235177521437,-23.608477865073745],[-46.52360999195141,-23.608608186357017],[-46.52360999195141,-23.608673346998653],[-46.523702231759124,-23.608803668281926],[-46.523794471566845,-23.608933989565198],[-46.5238405914707,-23.608933989565198],[-46.52388671137456,-23.608999150206834],[-46.52388671137456,-23.60906431084847],[-46.523932831278415,-23.60906431084847],[-46.52402507108613,-23.609129471490103],[-46.524071190989986,-23.60919463213174],[-46.52420955070156,-23.609324953415012],[-46.52425567060542,-23.609324953415012],[-46.52430179050928,-23.609390114056648],[-46.524347910413134,-23.609455274698284],[-46.52439403031699,-23.60952043533992],[-46.52444015022085,-23.60952043533992],[-46.524486270124704,-23.609585595981557],[-46.52453239002857,-23.609650756623193],[-46.52462462983628,-23.609781077906465],[-46.52462462983628,-23.609846238548098],[-46.52467074974014,-23.609911399189734],[-46.524716869643996,-23.60997655983137],[-46.52476298954785,-23.610106881114643],[-46.52476298954785,-23.61017204175628],[-46.52480910945171,-23.61017204175628],[-46.52480910945171,-23.610237202397915],[-46.52480910945171,-23.61030236303955],[-46.524855229355566,-23.61030236303955],[-46.52490134925943,-23.610497844964456],[-46.52494746916329,-23.61062816624773],[-46.52494746916329,-23.610693326889365],[-46.524993589067144,-23.610823648172637],[-46.524993589067144,-23.610888808814273],[-46.524993589067144,-23.61095396945591],[-46.525039708971,-23.611019130097546],[-46.524993589067144,-23.611084290739182],[-46.524993589067144,-23.611149451380815],[-46.524993589067144,-23.61121461202245],[-46.524993589067144,-23.611279772664087],[-46.52494746916329,-23.611279772664087],[-46.52494746916329,-23.611344933305723],[-46.52490134925943,-23.61141009394736],[-46.524855229355566,-23.611475254588996],[-46.52480910945171,-23.611540415230632],[-46.52476298954785,-23.611540415230632],[-46.52476298954785,-23.611605575872268],[-46.524716869643996,-23.611605575872268],[-46.52467074974014,-23.611670736513904],[-46.52462462983628,-23.611670736513904],[-46.524578509932425,-23.611670736513904],[-46.524486270124704,-23.61173589715554],[-46.52439403031699,-23.61173589715554],[-46.524347910413134,-23.61173589715554],[-46.52430179050928,-23.611801057797177],[-46.52425567060542,-23.61186621843881],[-46.52420955070156,-23.611931379080445],[-46.52416343079771,-23.61199653972208],[-46.52411731089384,-23.612061700363718],[-46.524071190989986,-23.612126861005354],[-46.52402507108613,-23.612257182288626],[-46.523932831278415,-23.6123875035719],[-46.5238405914707,-23.612517824855168],[-46.523794471566845,-23.612582985496804],[-46.52374835166298,-23.612582985496804],[-46.52365611185527,-23.612713306780076],[-46.52356387204755,-23.612778467421712],[-46.5235177521437,-23.61284362806335],[-46.52342551233598,-23.612908788704985],[-46.52337939243212,-23.61297394934662],[-46.52324103272055,-23.613104270629893],[-46.52324103272055,-23.613169431271526],[-46.523148792912835,-23.613234591913162],[-46.523148792912835,-23.6132997525548],[-46.52310267300898,-23.613364913196435],[-46.52305655310512,-23.613364913196435],[-46.52305655310512,-23.61343007383807],[-46.52301043320126,-23.613495234479707],[-46.52301043320126,-23.613560395121343],[-46.5229643132974,-23.61362555576298],[-46.5229643132974,-23.613690716404616],[-46.5229643132974,-23.613755877046252],[-46.5229643132974,-23.613821037687888],[-46.5229643132974,-23.61388619832952]]]}}]}