{"type":"FeatureCollection","name":"MOEMA","features":[{"type":"Feature","id":"distrito_municipal_v2.8583396","geometry":{"type":"Polygon","coordinates":[[[-46.653146156478776,-23.572658461351917],[-46.65281637093066,-23.57299098802824],[-46.65281111265208,-23.572998243748085],[-46.65265089435805,-23.573060186593658],[-46.65250492599092,-23.573135158239825],[-46.65222630910243,-23.573276134283212],[-46.65197814877726,-23.573406182779923],[-46.65188005637508,-23.57345758802383],[-46.651811610845314,-23.5734925022292],[-46.651741740107006,-23.573528144039795],[-46.65148638649537,-23.573658399191608],[-46.65139679740734,-23.57370494310591],[-46.65139064266096,-23.57371016748003],[-46.651242318023414,-23.573783917772904],[-46.65099821267041,-23.57390981565071],[-46.6509121126865,-23.57396135476795],[-46.650840819620086,-23.57400731568824],[-46.65077935352261,-23.574057635815308],[-46.65071558016205,-23.574119236599564],[-46.65069968338063,-23.574139516679395],[-46.65069206018691,-23.574152433217176],[-46.65068584706831,-23.57416670465931],[-46.650683212872046,-23.574179571809196],[-46.65068290790713,-23.57419584660142],[-46.650692614172044,-23.574331500194923],[-46.65070793609289,-23.57455678226257],[-46.65072080999204,-23.57477635975064],[-46.65074085145828,-23.575100760614525],[-46.650745496124586,-23.57510764467135],[-46.65075175755582,-23.575265518472474],[-46.65074993643699,-23.575274854296236],[-46.65077471009345,-23.57565299424884],[-46.65080029997891,-23.576040292978487],[-46.65085450290563,-23.57691069681633],[-46.65086122051245,-23.576975764902674],[-46.65088552499616,-23.57708092900828],[-46.650921308016,-23.577199100168794],[-46.650958903799925,-23.577294494105228],[-46.650980810006686,-23.5773355817847],[-46.650990947029605,-23.577349274040458],[-46.65103852613858,-23.57758305194876],[-46.651070859460745,-23.577902243391193],[-46.651103016058336,-23.578202748658214],[-46.651141713652436,-23.57856231241717],[-46.651153772323454,-23.57865488933341],[-46.65115338572677,-23.578664240615847],[-46.65115353892502,-23.578671004423462],[-46.651154053450384,-23.578677752651657],[-46.651154930079215,-23.57868446903779],[-46.65115616467853,-23.578691136468404],[-46.65115775608805,-23.578697740507437],[-46.65118135933716,-23.578919794534386],[-46.651180442963295,-23.578926503788654],[-46.65119994354251,-23.57914193078899],[-46.65120101754583,-23.579165597494594],[-46.65120279752306,-23.579199411170805],[-46.65120486633936,-23.579233210037636],[-46.65120722202442,-23.579266993213015],[-46.65120986552419,-23.57930075797779],[-46.65121159042959,-23.579321007053466],[-46.65121230313521,-23.579330517322354],[-46.651212919666385,-23.579350821523224],[-46.65121312382766,-23.579371133718972],[-46.65121291648547,-23.57939144487019],[-46.651212297583136,-23.579411750462395],[-46.65121126602793,-23.579432041476984],[-46.65120982467939,-23.579452311562402],[-46.65120797148774,-23.57947255351628],[-46.65120570832164,-23.579492760094585],[-46.65120303608144,-23.579512924966572],[-46.65119995564489,-23.57953303999572],[-46.65119646791236,-23.579553098851296],[-46.651192573772875,-23.579573094299654],[-46.65118827510641,-23.579593019999663],[-46.65118357377037,-23.579612867804332],[-46.65117847066507,-23.579632631382946],[-46.65117296765922,-23.57965230349143],[-46.65116880941881,-23.579665990530927],[-46.65116061371717,-23.579684850544986],[-46.651152214250935,-23.57970363416149],[-46.65114361197706,-23.579722339564178],[-46.65113480687289,-23.579740964947227],[-46.65112275454783,-23.579765670568463],[-46.65111034567851,-23.579790226464617],[-46.65109758314714,-23.579814628089885],[-46.65108446885628,-23.57983887090884],[-46.65108113583167,-23.579844906004524],[-46.651078119796374,-23.579849808954723],[-46.65107516303915,-23.579856004401275],[-46.65098563928799,-23.580000916360532],[-46.65097958629686,-23.580004430227984],[-46.65097395726247,-23.580008470566252],[-46.65096880751453,-23.58001299615143],[-46.6509641864825,-23.580017964016285],[-46.65095976096416,-23.58002313208004],[-46.650954879162036,-23.580028087364497],[-46.65093535194986,-23.580047908500973],[-46.650896297508,-23.580087550767406],[-46.65082795024197,-23.58015692653934],[-46.65068149475574,-23.580305585817168],[-46.65039346563415,-23.580597949629578],[-46.650373787562735,-23.5806174725013],[-46.65032939436418,-23.58066167743053],[-46.65032504949855,-23.580666795857958],[-46.65020927527261,-23.580784076598547],[-46.65002391149846,-23.58096298353298],[-46.65002277775543,-23.58096492894375],[-46.64990830499909,-23.581072484563588],[-46.64990300023963,-23.581077156246124],[-46.64956536210533,-23.581404975300597],[-46.649432164928925,-23.58155967751427],[-46.649415363027444,-23.58157919140924],[-46.64941256061037,-23.58158535900179],[-46.649410538332226,-23.5815917819934],[-46.649408781036314,-23.581605060620202],[-46.64940474752831,-23.581638309354975],[-46.649398292561266,-23.581691508970128],[-46.649383769592085,-23.58181120696661],[-46.64935472260495,-23.58205060206212],[-46.64929663038104,-23.582529394018362],[-46.64929618841057,-23.58253604946413],[-46.64929657628012,-23.582542703323494],[-46.64929763849675,-23.58254930035698],[-46.64920508841336,-23.582659787857388],[-46.649199780628386,-23.582664459551165],[-46.649195303434176,-23.582669816850277],[-46.648961534170475,-23.582987568621466],[-46.64865155330596,-23.583398316625583],[-46.64855331162543,-23.583521824351],[-46.64847270659814,-23.58363089788442],[-46.64830933011979,-23.583839966272848],[-46.64821382888162,-23.58396281983554],[-46.64815787728166,-23.584038153908327],[-46.64815431417186,-23.584043749812736],[-46.648146398616504,-23.584054970765916],[-46.64812660873706,-23.584083022706338],[-46.64785098696054,-23.58446555553692],[-46.64784444728754,-23.5844734288271],[-46.647840179615415,-23.584478940091277],[-46.64783607491558,-23.584484556183025],[-46.64783213804118,-23.5844902734388],[-46.64782477437818,-23.584501991505842],[-46.64782135337731,-23.584507985031557],[-46.64781811075256,-23.584514061548973],[-46.64781504840686,-23.58452021652279],[-46.64781216727479,-23.584526446331058],[-46.6478094712073,-23.584532745514768],[-46.64780696113898,-23.584539110451914],[-46.64780463994113,-23.58454553569395],[-46.647802507546125,-23.584552015823466],[-46.64780056685912,-23.584558548100553],[-46.64779881974923,-23.58456512528124],[-46.64779590901943,-23.584578399875802],[-46.647789032815545,-23.584632917806726],[-46.64776023074162,-23.58509608789456],[-46.647752914203025,-23.58523648424394],[-46.647739242514724,-23.58549234695253],[-46.64772826227922,-23.58566394814758],[-46.64772938805762,-23.585677442699843],[-46.64773057681903,-23.585697706537168],[-46.64773116707759,-23.5857179821416],[-46.6477311576391,-23.585738252368404],[-46.647730548300345,-23.585758500965373],[-46.64772933982644,-23.585778710766963],[-46.64772753297126,-23.585798863704763],[-46.64772512950217,-23.585818944408647],[-46.6477256183606,-23.585830629740734],[-46.6477267098532,-23.585844124656408],[-46.64772836127137,-23.585857578414377],[-46.64773057133115,-23.58587096664664],[-46.647733336834406,-23.585884268617622],[-46.647736651610145,-23.58589746091416],[-46.64774051146927,-23.585910521908147],[-46.647744910263334,-23.58592342999224],[-46.647747691514475,-23.58592975505075],[-46.64777568917846,-23.58599833691344],[-46.64780486338841,-23.5860649404095],[-46.647808957650575,-23.58606938950655],[-46.64789547699233,-23.58624643638919],[-46.647897500205914,-23.58625294286663],[-46.648110571005425,-23.586723896089197],[-46.64821560619694,-23.586957156206136],[-46.64833941864012,-23.587230724682755],[-46.648349457450024,-23.587253371571343],[-46.64835981221757,-23.58727872146065],[-46.648369240769426,-23.587303889738294],[-46.64837348950961,-23.587316855377374],[-46.64837725970165,-23.587329945293877],[-46.64838054822593,-23.587343145072627],[-46.64838334902378,-23.5873564403296],[-46.64838566190329,-23.587369815715522],[-46.64838783817702,-23.587381040651508],[-46.64838980380488,-23.587394462164667],[-46.64839109032044,-23.58740795319369],[-46.64839169638284,-23.587421484856126],[-46.64839161967153,-23.587435028279966],[-46.64839086176206,-23.58744855274576],[-46.64838942329547,-23.587462031156065],[-46.648387306838266,-23.587475433683945],[-46.64838596641831,-23.58748209504928],[-46.64834934614642,-23.587679931098954],[-46.6483053106371,-23.587916507786677],[-46.64822022989016,-23.588388664966093],[-46.64818370852376,-23.588626447779955],[-46.648121282600336,-23.58882217726575],[-46.64812661577184,-23.58881755499606],[-46.648132741547805,-23.588813868875363],[-46.64813946933214,-23.588811234706796],[-46.64815328931033,-23.58880815594018],[-46.648160581541475,-23.58880780223045],[-46.64816780802792,-23.588808773950127],[-46.648174690044165,-23.58881103432415],[-46.64818096193724,-23.58881449496657],[-46.64818638298433,-23.588819023881907],[-46.648297673880116,-23.588935794516452],[-46.648383390414565,-23.58903127686931],[-46.648451342145165,-23.58910237832831],[-46.648574650344536,-23.589231646322688],[-46.648709009325785,-23.58937488402082],[-46.64882300614579,-23.58949594284592],[-46.64894911689451,-23.589629876458318],[-46.649019521373575,-23.58970471177237],[-46.649144246299066,-23.589837486895338],[-46.649270728133416,-23.589969700531455],[-46.64935707443826,-23.590065677663837],[-46.64946360325392,-23.59018500922468],[-46.649499672953056,-23.59022517175314],[-46.64952536646464,-23.590250454339365],[-46.64962875128447,-23.590361241371774],[-46.64968994000469,-23.590678454633846],[-46.64969494769023,-23.590710639271244],[-46.649698990635336,-23.59075186436123],[-46.64970077463978,-23.590792661936472],[-46.64969993578188,-23.59082743713599],[-46.64969436642807,-23.590867861312695],[-46.649684826345705,-23.590904173774383],[-46.64967593591145,-23.590937589669128],[-46.64960393666989,-23.591119230373707],[-46.64959464674991,-23.591128539861067],[-46.64954130993202,-23.591274673302564],[-46.649416481796514,-23.591588263639878],[-46.64937403497268,-23.591696354508368],[-46.64934073078827,-23.59176768563441],[-46.649316858929915,-23.591809749016395],[-46.64930174855795,-23.591831581987584],[-46.649277049773694,-23.59186236729326],[-46.64925426987979,-23.591889970741754],[-46.6492318410665,-23.59191422928287],[-46.64920617922338,-23.591938522155367],[-46.649172344304986,-23.591967416921886],[-46.64911094291904,-23.59200933700891],[-46.649078061462646,-23.59202828840531],[-46.64907308416127,-23.59202987639437],[-46.64891360911505,-23.59212728996384],[-46.648878490079255,-23.592147529307802],[-46.64884618734671,-23.592165752096555],[-46.6488148934318,-23.592178455742175],[-46.648793049607846,-23.592186814850976],[-46.64891225260592,-23.592393351385773],[-46.64912976265098,-23.592386057918432],[-46.64938204865125,-23.59236071274838],[-46.64969091625026,-23.592323388054346],[-46.64972749175999,-23.592317761986923],[-46.6497745659313,-23.59231328860583],[-46.64981145906185,-23.592309555487212],[-46.649843506741234,-23.592310118033744],[-46.64987009291397,-23.59231272524275],[-46.64990113520036,-23.592319077788535],[-46.649934059260936,-23.592327035771216],[-46.64997607003734,-23.592340766832695],[-46.65001350331075,-23.592356713767817],[-46.6500469469055,-23.592374870333984],[-46.65007520936032,-23.59239398496549],[-46.65010360934012,-23.592416259603795],[-46.65014058955141,-23.592450813536146],[-46.650166510081824,-23.592478531726414],[-46.65018520451178,-23.5925082230413],[-46.65019818825599,-23.592535627185452],[-46.650208451876274,-23.59257281285115],[-46.650212215231136,-23.59259950225575],[-46.65022178214021,-23.592698552202013],[-46.65022968629408,-23.592813422667415],[-46.6502436818588,-23.592992252521817],[-46.650272287895724,-23.59326309655311],[-46.65040102796294,-23.593460693461857],[-46.65040535215337,-23.5937280317166],[-46.65040991102483,-23.59381828616179],[-46.65041873789467,-23.59393639765675],[-46.65043008785421,-23.594068208234958],[-46.650436928031596,-23.59415283880119],[-46.65044609972951,-23.594275010212254],[-46.650472156627465,-23.59458763054471],[-46.65048343621946,-23.594729465371895],[-46.65049722425117,-23.59488382550743],[-46.65051121719215,-23.595062384389525],[-46.650526520004234,-23.595243819907868],[-46.65054357236503,-23.59543977453643],[-46.65055554396949,-23.59558990976275],[-46.65057491459187,-23.595798843216482],[-46.650586094165305,-23.59596397787967],[-46.650603906395965,-23.596173650297565],[-46.650617534265656,-23.59633866771683],[-46.6506341823337,-23.596525777003453],[-46.650648088340695,-23.59671300663726],[-46.650664169033924,-23.59690174737513],[-46.65067911818006,-23.59709402191073],[-46.65069412021429,-23.597259205291685],[-46.65070672006511,-23.597420351520253],[-46.65072787599173,-23.597646603879472],[-46.650741694541175,-23.59783464621297],[-46.650757215293716,-23.598009937868248],[-46.65076223301146,-23.598074180403298],[-46.6507771682513,-23.598249658878164],[-46.650790592860155,-23.59841404626979],[-46.65080415657928,-23.59856606081187],[-46.65081499155201,-23.598683182799892],[-46.65081921875092,-23.59872826353425],[-46.65083215967493,-23.598877486230496],[-46.650837225715456,-23.598937754051807],[-46.650839493057,-23.598993626835956],[-46.6508413824371,-23.599058443528985],[-46.6508431060128,-23.59912958311909],[-46.650844437608036,-23.59918451948716],[-46.650844829592884,-23.599200722708446],[-46.65084662625739,-23.59932857112721],[-46.6508477118758,-23.59939962719616],[-46.650849610618586,-23.599447971812666],[-46.65085068481045,-23.599471704377738],[-46.650859454247225,-23.59956267881173],[-46.65087979970426,-23.599802394668878],[-46.650892786464674,-23.59993960578828],[-46.65090459411355,-23.60067914407742],[-46.65090583422345,-23.600741245056007],[-46.650907485290034,-23.600823957588762],[-46.650906320125706,-23.600832638961748],[-46.65094525269432,-23.602009502519426],[-46.65094417744387,-23.602267315914098],[-46.650948021631,-23.602300415825372],[-46.65094970499931,-23.602317464980036],[-46.65096114078994,-23.602440335435777],[-46.650972037693066,-23.602551471471017],[-46.650996742653774,-23.602771455024964],[-46.65100247012669,-23.602876686104587],[-46.651022182054135,-23.603081371424008],[-46.651032250847535,-23.603204617603424],[-46.65104001205465,-23.603260973730606],[-46.65104164270845,-23.603281635516833],[-46.65103900486971,-23.603297917908986],[-46.65108627373719,-23.60356687595396],[-46.6510943755368,-23.603587830118915],[-46.651102603995135,-23.603618896745402],[-46.65111066857031,-23.60366034982903],[-46.651119832090096,-23.603719129181616],[-46.651129276498295,-23.603808157573287],[-46.65113785760279,-23.603906495334304],[-46.65114597474151,-23.603983436486548],[-46.651148292823585,-23.604012037520846],[-46.65115226832748,-23.604055611034855],[-46.651171340071286,-23.604326494360308],[-46.65117763985607,-23.60434439742073],[-46.65118207505296,-23.60436990567017],[-46.65118679186013,-23.604417896086325],[-46.65119153581501,-23.604468053457726],[-46.65120206914362,-23.604573595489132],[-46.65120966208445,-23.604656322426024],[-46.65121239563036,-23.604686092057662],[-46.65121866823954,-23.60476440734322],[-46.65123841137261,-23.604987242901338],[-46.6512440162959,-23.60500443093256],[-46.65124766740499,-23.605045569737065],[-46.65124937064736,-23.60509548854093],[-46.651249927118165,-23.605139911130554],[-46.651294887520805,-23.60557649468298],[-46.651298169229456,-23.605595964969915],[-46.65130643367427,-23.605684643761617],[-46.65131188892628,-23.605744636451295],[-46.65132585054632,-23.605826572295914],[-46.651343473404985,-23.605926981967453],[-46.651354194762504,-23.605984931989134],[-46.651368449092985,-23.60604329593254],[-46.6513705353986,-23.606053387542552],[-46.65137181523523,-23.60606168169556],[-46.651419329090054,-23.606263994118656],[-46.65142681453423,-23.606274841002136],[-46.65143435471452,-23.60629787804982],[-46.651458593180614,-23.606378801515458],[-46.65148994331716,-23.60647202066061],[-46.65149544279427,-23.606488918122377],[-46.65150337786399,-23.606510934165016],[-46.651512975527936,-23.606536518403008],[-46.65152290891595,-23.60656199251197],[-46.65153317799425,-23.606587353783148],[-46.65154377976701,-23.606612597733246],[-46.65155471418911,-23.606637720750584],[-46.65156597828734,-23.606662720157686],[-46.651571103136945,-23.606673101810173],[-46.6515892712438,-23.606710091175586],[-46.65161031708943,-23.606753307833994],[-46.65163120110399,-23.606796590324972],[-46.651651922330174,-23.6068399404648],[-46.65167248269355,-23.606883355524012],[-46.65169130205054,-23.60692359151845],[-46.65183285893898,-23.60716286498844],[-46.65193775682306,-23.60733046490865],[-46.6520794434749,-23.60754045816953],[-46.65208262182264,-23.607546116965302],[-46.65214999550714,-23.607665199620293],[-46.65233082033129,-23.607839092355583],[-46.65237873099953,-23.60786964613194],[-46.65240054237273,-23.607881965879717],[-46.652421058987855,-23.60790044083245],[-46.65248465614749,-23.6079706506586],[-46.65277355242424,-23.60829148710728],[-46.65279092691625,-23.608309452750003],[-46.653139969597554,-23.608683107484502],[-46.65337651980994,-23.608932168476677],[-46.653802329671514,-23.609386455901863],[-46.65421234054194,-23.609815445309298],[-46.65424020934181,-23.609841877578987],[-46.654258627543435,-23.60986488880667],[-46.654440411497745,-23.61003985487938],[-46.65455709089172,-23.61016331227626],[-46.654695421897756,-23.610309245094893],[-46.654841071232575,-23.610464433323607],[-46.654993050341446,-23.610626238029138],[-46.65506904102264,-23.610707140758],[-46.65510703689414,-23.610747592552432],[-46.655273979799105,-23.61092413714111],[-46.655359860348455,-23.61101491797952],[-46.65539802951855,-23.611055264900777],[-46.655417114106776,-23.611075437905864],[-46.655431427565986,-23.61109056878651],[-46.655545479070454,-23.611117650038153],[-46.655553366588755,-23.611121448870513],[-46.65562230704937,-23.61113652345677],[-46.65566622037241,-23.611165124898633],[-46.65567492239994,-23.611171353179678],[-46.656070014121,-23.611589660019835],[-46.65626062717047,-23.61179297179213],[-46.65629756548672,-23.611831407273748],[-46.65642336316732,-23.611969219450575],[-46.65667617902041,-23.612232730914887],[-46.65700224858403,-23.612577904237682],[-46.657313300506026,-23.61290553895559],[-46.65758485929443,-23.613194132117112],[-46.657792169806285,-23.61341805172691],[-46.657917418722604,-23.61354705044132],[-46.65814611683772,-23.61378655101556],[-46.65853971641167,-23.614207983870855],[-46.658543644676804,-23.614213702221083],[-46.658673968203864,-23.614349290393783],[-46.659281274552264,-23.614995196481036],[-46.65935790114089,-23.615073029714292],[-46.65941832975154,-23.615137744645196],[-46.660022926382986,-23.61577598633976],[-46.66059584350885,-23.61634513071022],[-46.6608226292183,-23.616597110682463],[-46.661336904232066,-23.61714262283305],[-46.661352068459315,-23.617159597874117],[-46.6613612136331,-23.617170061610558],[-46.661367891790086,-23.617177702751214],[-46.66138159214527,-23.617193377771066],[-46.66140413739811,-23.617219173883775],[-46.66144207806435,-23.617267218859173],[-46.6615126961153,-23.617366131068135],[-46.66166237320439,-23.617303491749926],[-46.66171542186736,-23.617281292855214],[-46.66173418430752,-23.61727126984128],[-46.66175658567193,-23.61725768248808],[-46.66187443862642,-23.617186203750844],[-46.66194444440569,-23.617149941134606],[-46.66205552103647,-23.617103064313895],[-46.66214291974878,-23.61705792289904],[-46.66228359046429,-23.616987023896407],[-46.66237431238959,-23.616942670305335],[-46.662488900156994,-23.616885160511956],[-46.66265579265602,-23.616800899188153],[-46.663280909604,-23.61648553528662],[-46.66351624237289,-23.616376615918494],[-46.66352248404547,-23.616373122068556],[-46.663670137763496,-23.61630664582041],[-46.66395712656982,-23.61620063051651],[-46.664124281348705,-23.61614891940671],[-46.664283736603146,-23.61610881044246],[-46.66460348785593,-23.616040631920022],[-46.66468228205606,-23.616022995115635],[-46.664861807787254,-23.615985234813223],[-46.665086591856905,-23.615936057698608],[-46.66541811418842,-23.61586680667164],[-46.66596332585068,-23.615751092756163],[-46.66612825265413,-23.615713877854766],[-46.66622481808566,-23.615692697488363],[-46.66634024127628,-23.615664431798816],[-46.66645427923854,-23.61563187082249],[-46.66659387021461,-23.615590978647717],[-46.66672400631624,-23.6155497996096],[-46.66682131439149,-23.615516615286218],[-46.66691998348128,-23.615479390654023],[-46.66701828904868,-23.61543636620559],[-46.6671014191196,-23.615399375216438],[-46.66710778787118,-23.615396022538906],[-46.6672600210984,-23.615323434583814],[-46.66726692067178,-23.615321139945376],[-46.667373080784465,-23.615269680734666],[-46.667484785191824,-23.615209667240617],[-46.667578709520406,-23.615152764179395],[-46.667682577117496,-23.615083185177525],[-46.66769744797004,-23.615072991991752],[-46.66782399386769,-23.614986247628952],[-46.66795414944507,-23.614890796356335],[-46.66804927417799,-23.61481627138701],[-46.668054395013876,-23.614811422250405],[-46.668058770501744,-23.614805987846566],[-46.668062320524584,-23.614800064756007],[-46.66821061471131,-23.61468690528745],[-46.66823657941446,-23.61466923414619],[-46.66892039928572,-23.614126341069653],[-46.668924990302976,-23.61412106054674],[-46.66905405816906,-23.614015612032645],[-46.669060569901816,-23.614012647843015],[-46.669772509635216,-23.61344648434569],[-46.66977759688607,-23.613441546119912],[-46.67012573799173,-23.613194588030854],[-46.67016370683961,-23.61317319702533],[-46.67024122006336,-23.613132018936945],[-46.67052832137952,-23.6129886503408],[-46.67059795072574,-23.61295661776759],[-46.670745059825485,-23.612872679419926],[-46.67101107793121,-23.612753055887435],[-46.67115829448774,-23.612685279915997],[-46.67136708265528,-23.612586724376175],[-46.67142210206429,-23.6125607201755],[-46.67182502138335,-23.612372158633125],[-46.672128780329345,-23.6122304535225],[-46.67231362868763,-23.61214746164951],[-46.67239877873647,-23.612108075797295],[-46.67289619034205,-23.61187452387955],[-46.67293552484139,-23.611854323931617],[-46.673074026085054,-23.611786832514046],[-46.67345335797744,-23.611610964709982],[-46.67353519335506,-23.61156843901827],[-46.67362082315406,-23.611511486501712],[-46.67371310110907,-23.611446518457978],[-46.67385618556326,-23.611343519328816],[-46.67400021870118,-23.611239540913342],[-46.67424331028331,-23.611068347345835],[-46.67440266807127,-23.610947135457696],[-46.67449157336074,-23.610874701156995],[-46.6745238818315,-23.61084192274729],[-46.67453648780548,-23.61082716879877],[-46.674617515391716,-23.6107335580451],[-46.6746871182345,-23.610643169664957],[-46.674832078750974,-23.610449422183102],[-46.67499672525445,-23.61022860930006],[-46.675211487599036,-23.609939900687948],[-46.675353721968726,-23.609746895576436],[-46.67565779588044,-23.609345274307277],[-46.67587609982876,-23.609059719685845],[-46.67588267998307,-23.609053768232183],[-46.67593097951265,-23.608986389622494],[-46.67605901803649,-23.60879883789328],[-46.67620271790512,-23.608586411476953],[-46.67627023663659,-23.608487197278002],[-46.67630226778872,-23.608428996373256],[-46.67630865135873,-23.60841575973358],[-46.676316140527646,-23.60839861105154],[-46.67632517894456,-23.608372444430366],[-46.676329321616535,-23.608358148379978],[-46.67642347217169,-23.60822041664534],[-46.67640002594797,-23.608160858997596],[-46.67628895863515,-23.607879452449975],[-46.67618654048204,-23.60762121483953],[-46.676038952233036,-23.607246981055273],[-46.67599985349549,-23.607144857367356],[-46.67587738424866,-23.606838690166757],[-46.67587557087214,-23.606833102049798],[-46.67581613471015,-23.606677247507914],[-46.675711657450044,-23.60641112312481],[-46.67566330068308,-23.60629618982369],[-46.67559573372654,-23.606118684760744],[-46.675516815119714,-23.605915172668695],[-46.67538216869864,-23.60557114218726],[-46.67524714412284,-23.605244022697864],[-46.67522587187824,-23.605203306142837],[-46.67519294300377,-23.60515407176037],[-46.67512928787355,-23.605092436498172],[-46.67512535544849,-23.60508588243925],[-46.6751178116977,-23.605075833869286],[-46.67506884264963,-23.605005400988517],[-46.67506339900869,-23.604996287847772],[-46.67505619417563,-23.604985765148253],[-46.675048313822124,-23.604973672177493],[-46.67504071332648,-23.604960699362625],[-46.67503267386183,-23.604945261548878],[-46.675020116750595,-23.604920398994143],[-46.674978699191975,-23.604817430374535],[-46.674914310281686,-23.60463956553028],[-46.67487734047094,-23.604542975611988],[-46.674852542338144,-23.604477394696136],[-46.67484427339151,-23.604451449198404],[-46.674831931177124,-23.60440863244246],[-46.67482353520319,-23.604348701681747],[-46.67481871422615,-23.604302365108552],[-46.674816187647856,-23.604250044809362],[-46.674819288955256,-23.60419272883358],[-46.67481911042754,-23.604154150509117],[-46.674814026225555,-23.60410313737018],[-46.67478760601082,-23.603993865483446],[-46.67478548017329,-23.603983498371548],[-46.67466855936282,-23.60363805671055],[-46.674446016113336,-23.60303018507301],[-46.67436700938893,-23.60280445902281],[-46.6743233240665,-23.602703143640614],[-46.67426383324866,-23.60253179136302],[-46.6742243702038,-23.602428445585378],[-46.674141450086566,-23.602191879381458],[-46.674104758597245,-23.602061770914656],[-46.67409457521636,-23.601993380071285],[-46.67409338350298,-23.601978783096648],[-46.67409195396691,-23.6019698424426],[-46.67408972768152,-23.601960971785203],[-46.67406443442843,-23.601787179101436],[-46.673979138085144,-23.60131038578517],[-46.673928856036916,-23.600980470783956],[-46.67389714262584,-23.60074598268715],[-46.673868958398074,-23.600565327501773],[-46.67385013115825,-23.6003899163487],[-46.67383120292714,-23.600268756524095],[-46.67381637641001,-23.60015399275344],[-46.673802494194135,-23.5999780695367],[-46.67380367958821,-23.59984104004065],[-46.67380378222512,-23.599664104570273],[-46.673804168179586,-23.599477761171592],[-46.6738040316048,-23.599429951769356],[-46.67380103694301,-23.59932102571957],[-46.67379563403122,-23.599242148975684],[-46.67378852339426,-23.5991088679101],[-46.67378769005602,-23.59890813550336],[-46.67379422024651,-23.59855569984731],[-46.673796682790474,-23.598466629079855],[-46.67380130632291,-23.598308190906415],[-46.673805855156544,-23.5982342610255],[-46.67381647386955,-23.598113596232892],[-46.67381699861557,-23.598093180694907],[-46.67382393787572,-23.59791577687035],[-46.67383457241588,-23.597779301062822],[-46.673835423987605,-23.597769271156103],[-46.67383123303188,-23.597670613491353],[-46.67382796049466,-23.597629023520128],[-46.673822266099535,-23.59757418537759],[-46.673819217719185,-23.597547243459267],[-46.6738153865399,-23.597520387638657],[-46.673810774739344,-23.597493635049403],[-46.67380538651199,-23.59746700731851],[-46.67379922501519,-23.597440521569055],[-46.673792204043885,-23.597413870803084],[-46.673776328190556,-23.59735048704107],[-46.67375162629304,-23.597289232003593],[-46.67374848254715,-23.597280867878535],[-46.67374051347003,-23.5972628935381],[-46.67365011625199,-23.597050215258943],[-46.67354185048479,-23.596803865635238],[-46.67353954669411,-23.596799917211733],[-46.673507655783105,-23.596717815003238],[-46.67350561156126,-23.59671146538046],[-46.673500629275,-23.59669890399639],[-46.67344938834953,-23.59658083655068],[-46.673425115967056,-23.596524910907434],[-46.67341163174104,-23.596493839995095],[-46.67335430444554,-23.59636359867122],[-46.673327000569635,-23.59630158054388],[-46.6733133486362,-23.59627057102624],[-46.67330247373497,-23.596245747918278],[-46.67324730739475,-23.596114745492205],[-46.67321841088365,-23.596046125419605],[-46.67320264925604,-23.596008696531147],[-46.67319485870922,-23.595989952668504],[-46.67316816483827,-23.595920627073305],[-46.67315603027834,-23.595889114462466],[-46.67314875014694,-23.595870207972432],[-46.673146323425534,-23.595863904906082],[-46.673144135853875,-23.59585752973076],[-46.67312235456398,-23.59578670004765],[-46.67311245424607,-23.59575450415806],[-46.673097112045866,-23.595702862734232],[-46.67307813279785,-23.595638258017786],[-46.67306864367141,-23.595605955652825],[-46.67306498812448,-23.595593002494557],[-46.67304499133493,-23.59551484277608],[-46.67303499294442,-23.595475762463643],[-46.67302524474976,-23.595436630691673],[-46.67300284726488,-23.595345254148985],[-46.672991649014,-23.59529956496722],[-46.67298525155208,-23.595273456459143],[-46.67297360782164,-23.595220996770244],[-46.67296633001279,-23.595188210033395],[-46.67296341907492,-23.59517509443346],[-46.67296217941018,-23.595168516699626],[-46.67295729742008,-23.59513550458345],[-46.67295436815415,-23.595115691535053],[-46.67295391362137,-23.59510898072632],[-46.67295291335294,-23.59510227308827],[-46.672951475942256,-23.59509563246782],[-46.67292012147618,-23.594865732719562],[-46.67291700154852,-23.59481737026485],[-46.67289279380041,-23.594593616163543],[-46.672873452324474,-23.59440904733825],[-46.67285515356469,-23.594239549391965],[-46.6728439485262,-23.594135760410744],[-46.67283374870794,-23.59400453790162],[-46.67283282280092,-23.593997820430044],[-46.67283156921897,-23.59399114802702],[-46.67281422191089,-23.593815614910387],[-46.67280922326808,-23.59375555157521],[-46.67280644547998,-23.59372218266224],[-46.672804052352475,-23.59369550183423],[-46.6727917469954,-23.593575560759646],[-46.672785594316515,-23.593515589317956],[-46.672782859581034,-23.59348893564686],[-46.67276349840572,-23.593322558178524],[-46.67275415698031,-23.593242700614987],[-46.67274948725275,-23.59320277182192],[-46.67274706400154,-23.593182211937222],[-46.6727315346092,-23.59296287571141],[-46.67272327737652,-23.592861265519378],[-46.67272334247254,-23.592854500347315],[-46.67272232567723,-23.592847800106785],[-46.672720248439774,-23.592841310854865],[-46.67271715567624,-23.592835174783744],[-46.67269879375342,-23.59268406279526],[-46.672700023080175,-23.592677389832048],[-46.67270037337287,-23.592670629714927],[-46.672700209914275,-23.592667166614373],[-46.672683060645085,-23.592494696133024],[-46.672666684059294,-23.59234706824314],[-46.6726177684762,-23.591919274290408],[-46.672614576491206,-23.591885608217535],[-46.67261332896295,-23.591878946580614],[-46.672603851913664,-23.591809004628423],[-46.672593340406706,-23.591731430712237],[-46.67252655385411,-23.59128048355044],[-46.672495105915075,-23.59106831611365],[-46.6724793819919,-23.590962232388634],[-46.67246669571017,-23.590876022875666],[-46.67246085411945,-23.590836231290954],[-46.67245793382128,-23.590816335944535],[-46.672456120352045,-23.590803057699404],[-46.67244945125083,-23.59073640676527],[-46.67244611670931,-23.590703081749208],[-46.67244478368394,-23.590689752275974],[-46.67244411618598,-23.590683087098462],[-46.672443117342716,-23.59067648599112],[-46.67242042610187,-23.59061290988242],[-46.67240908049605,-23.590581122277626],[-46.67240454244904,-23.59056840705266],[-46.67240227293032,-23.590562048993938],[-46.67238900999863,-23.590516827134437],[-46.672357139300985,-23.59040690968818],[-46.67234214198258,-23.590355184032912],[-46.6723097799777,-23.590245381126437],[-46.67229259602061,-23.59018726129279],[-46.67228495915222,-23.590161430651182],[-46.6722811387828,-23.59014851715703],[-46.672278713141246,-23.590142286295556],[-46.672275422645605,-23.590136389831528],[-46.67222974052725,-23.589992989228143],[-46.67222942564979,-23.58998631393054],[-46.672227725643594,-23.58997981879878],[-46.672223808584214,-23.58996692891889],[-46.672215985198655,-23.589941145431002],[-46.67220038044928,-23.589889568970804],[-46.67218098566638,-23.589825073265448],[-46.67214025769749,-23.589689634427533],[-46.67205486546598,-23.589405870634188],[-46.672039170009505,-23.589354315894592],[-46.67200000469116,-23.58922541153968],[-46.6719903894113,-23.589193140208604],[-46.67196723993823,-23.58911571038265],[-46.671964187444374,-23.5891096488048],[-46.671924375163314,-23.588987821079716],[-46.671925384841536,-23.588974716511256],[-46.67184304611366,-23.58867815014564],[-46.671734032688356,-23.588325521863577],[-46.67170474212457,-23.58824862945068],[-46.67159133223173,-23.587850537337886],[-46.671549543364506,-23.587691965427158],[-46.67149393954446,-23.58754112839435],[-46.67148757623703,-23.58751835062088],[-46.67134992239884,-23.587054869114425],[-46.6712959410007,-23.586870413361453],[-46.67129117004515,-23.58685777734996],[-46.67127674272495,-23.58681988318798],[-46.671250292175095,-23.586750410858745],[-46.671197392145075,-23.58661146616971],[-46.67109452801218,-23.58634681492265],[-46.67099678285699,-23.58610182492408],[-46.67090421322576,-23.585876480229143],[-46.670885011914855,-23.585841158588767],[-46.67084044752006,-23.585733845149516],[-46.67083075229055,-23.585715948752153],[-46.67081068529981,-23.585680581328162],[-46.67076834889351,-23.585610394812434],[-46.670743225205776,-23.585577650846517],[-46.670709896112776,-23.585542294218513],[-46.67067322588626,-23.585509869486902],[-46.67063351670166,-23.58548064069151],[-46.67036009321173,-23.584954086035534],[-46.670091144138375,-23.584265087184363],[-46.67008067250799,-23.584242805004966],[-46.67005718709231,-23.584206395108833],[-46.67001856813747,-23.584158679625027],[-46.6699681318835,-23.584106214896853],[-46.669927650014536,-23.584073870667957],[-46.669793890814596,-23.58398303221921],[-46.66976429044128,-23.58396293053563],[-46.66904137706512,-23.583541495812472],[-46.66872351621623,-23.58335356186977],[-46.66867911903135,-23.583329296184935],[-46.6685166117356,-23.583239113934738],[-46.66738355685927,-23.582582395651283],[-46.66717588673717,-23.582463850722995],[-46.66702660473352,-23.5823773491411],[-46.66666193422809,-23.582162685268052],[-46.665929756156835,-23.58173768355409],[-46.66570415356904,-23.58160604274928],[-46.665691416423684,-23.581601355409646],[-46.665569885397595,-23.581532597940136],[-46.665548610369726,-23.581514996884355],[-46.66551166088422,-23.581493714317013],[-46.66543776194791,-23.58145114915378],[-46.66528993534968,-23.581366060561237],[-46.665000090911235,-23.58119994113271],[-46.66476069460474,-23.58106047938413],[-46.66432508686601,-23.580806269971394],[-46.66421950860067,-23.58074731067376],[-46.664088258119065,-23.58067591543006],[-46.663717733665166,-23.58046175837468],[-46.663559375940274,-23.580367491464443],[-46.662931811588024,-23.580004854534153],[-46.66261805703716,-23.579823528435476],[-46.66246439334152,-23.5797344376633],[-46.662384515088185,-23.57968806550093],[-46.66234764838249,-23.57966666385072],[-46.66232255022063,-23.579653345601155],[-46.66216365920101,-23.579562245242204],[-46.66176649615998,-23.579330361136275],[-46.661753200861135,-23.579325124972886],[-46.66110586979721,-23.578936446266646],[-46.66109437452529,-23.57892460869796],[-46.660702756609524,-23.578619379742513],[-46.66056389320593,-23.578497411487255],[-46.66045233686433,-23.578393416603326],[-46.65983253174113,-23.57783817778202],[-46.65965585828126,-23.577679884081522],[-46.659560119634975,-23.577592846167963],[-46.659400387516435,-23.577449616849176],[-46.65915792318944,-23.577227825056628],[-46.65888260868973,-23.57697477159898],[-46.65887880628651,-23.576971410524376],[-46.6587866377944,-23.576888972770302],[-46.65844179240627,-23.57657721411094],[-46.65831313501132,-23.576459454723786],[-46.65830443892846,-23.576452503987667],[-46.658117270813875,-23.576287757206178],[-46.658108915481314,-23.57627712392045],[-46.65789733505603,-23.576084114594206],[-46.65787235486965,-23.576062393518296],[-46.65786582915641,-23.57605866143676],[-46.65786100801326,-23.576057025135626],[-46.65774692377847,-23.57595798012709],[-46.65754003819412,-23.57576941810907],[-46.657320114016215,-23.575571317198193],[-46.657137079919025,-23.57540197378926],[-46.65688031957868,-23.575168871185642],[-46.65672799101007,-23.575026025819348],[-46.65672314324382,-23.5750224202776],[-46.65671609775782,-23.575018483281834],[-46.65660855593586,-23.574921244965086],[-46.65624750127283,-23.574595457323824],[-46.65608627867299,-23.57444576364001],[-46.65597255263299,-23.574346470453943],[-46.65571844718434,-23.574113421398614],[-46.65541802626874,-23.57384035491285],[-46.65512256544435,-23.57356944644462],[-46.654944123749935,-23.573406186360636],[-46.654841995020035,-23.573312746734857],[-46.654837175436896,-23.573309660968068],[-46.65473318833184,-23.57321512311414],[-46.654586254332834,-23.57308272821721],[-46.65414237363137,-23.57267973011669],[-46.65380171918716,-23.572369792759872],[-46.65365636112878,-23.572233932376744],[-46.65361013846961,-23.572192624309125],[-46.653586918680354,-23.57222177891573],[-46.653570680536625,-23.572232193776887],[-46.653146156478776,-23.572658461351917]]]},"geometry_name":"ge_poligono","properties":{"cd_identificador_distrito":8583396,"cd_identificador_subprefeitura":20,"cd_distrito_municipal":"32","nm_distrito_municipal":"MOEMA","sg_distrito_municipal":"MOE","tx_escala":"1:5000","sg_fonte_original":"GEOGSG","dt_criacao":"2004-01-01Z","dt_atualizacao":"2026-03-20T16:13:20.044Z","cd_usuario_atualizacao":null,"cd_tipo_discrepancia":199299399,"qt_area_quilometro":9.08,"qt_area_metro":9079516.47,"cd_regiao_05":5,"nm_regiao_05":"Sul","cd_regiao_08":7,"nm_regiao_08":"Sul 1"}}]}
