{"type":"FeatureCollection","name":"SAUDE","features":[{"type":"Feature","id":"distrito_municipal_v2.8583421","geometry":{"type":"Polygon","coordinates":[[[-46.646623110310344,-23.631875121900734],[-46.64662788992636,-23.63186944084484],[-46.646651949511124,-23.631835455009327],[-46.6467099285469,-23.631741294092446],[-46.64675658678222,-23.63164938808938],[-46.646833752450235,-23.631426159271133],[-46.64683398200301,-23.6314206123091],[-46.64683471102649,-23.631414328599845],[-46.646836276076435,-23.631400834452695],[-46.64683698759521,-23.63139659897195],[-46.64684292384953,-23.631361230682955],[-46.64686936890248,-23.63122248486318],[-46.64687622761584,-23.631197002941956],[-46.646883481385316,-23.63117646265004],[-46.64688589897759,-23.631169615588515],[-46.646929480295825,-23.631078336398595],[-46.64695432579731,-23.631029469486947],[-46.646990191000185,-23.6309630663563],[-46.64703213096728,-23.630894155145604],[-46.64711351706999,-23.63077589685436],[-46.64714852488261,-23.63072934298388],[-46.647166461207085,-23.63070741327021],[-46.64720323870774,-23.630662866061794],[-46.647207257861474,-23.630658452775297],[-46.64722039231027,-23.63064425963059],[-46.64722565581271,-23.630640675643175],[-46.6472328484845,-23.630637193074428],[-46.64731706592079,-23.630536175721172],[-46.6475367122364,-23.630296824264644],[-46.64755010497359,-23.630278840194944],[-46.64758963828492,-23.630225752696226],[-46.647608134744026,-23.630195962545216],[-46.64762548664687,-23.630204489625662],[-46.64757264552301,-23.630457161521853],[-46.64765226894036,-23.630477474291034],[-46.647688573043595,-23.630296595418486],[-46.64769511075001,-23.630275631059135],[-46.64770671770356,-23.630259841315382],[-46.6477218261923,-23.630248403034845],[-46.647759356816614,-23.630235081253517],[-46.64779180215099,-23.63022955685842],[-46.64782477651706,-23.630227929675076],[-46.64806726554936,-23.6302313529158],[-46.648133267580874,-23.63022758133318],[-46.64819872599817,-23.630218905797268],[-46.64824877759322,-23.63020840371069],[-46.649624030333705,-23.629823083179105],[-46.65046928494944,-23.62957985691436],[-46.65051058196493,-23.629565622095406],[-46.65054993849465,-23.629547333506714],[-46.65058164297535,-23.629530272266013],[-46.65064801673062,-23.629487861035926],[-46.65066486884913,-23.629474810103844],[-46.65068011824682,-23.629460176985095],[-46.65069359255853,-23.629444128766448],[-46.65149551713835,-23.628306841516785],[-46.651606442978995,-23.628149524478204],[-46.651651595992035,-23.628071989348015],[-46.651743834106085,-23.627895078906302],[-46.65212138895814,-23.62716130748501],[-46.652793754084534,-23.625443188300494],[-46.652927031192405,-23.62518743836254],[-46.65298556341886,-23.62509427813293],[-46.652995409947,-23.62508168089157],[-46.65304248010045,-23.624982511301152],[-46.65310503837762,-23.62488334371155],[-46.653180054693664,-23.62475445963841],[-46.65331582675708,-23.624526430691542],[-46.65388572297667,-23.623556622461894],[-46.65403583695566,-23.623300033902783],[-46.654088454784606,-23.623272337276223],[-46.654089997695024,-23.623269628935926],[-46.65419381426221,-23.62308744388814],[-46.65424259247948,-23.623002349135685],[-46.654290804827006,-23.622918243787918],[-46.65436038513119,-23.62280048815363],[-46.65444374989173,-23.622659405985424],[-46.654646887972966,-23.622309831409098],[-46.654664075092114,-23.62228017457615],[-46.65472885883307,-23.62216838561018],[-46.654850710708374,-23.62195812269647],[-46.65498080315179,-23.621733637795735],[-46.65517568799435,-23.621401810027518],[-46.65520980933042,-23.62134369906362],[-46.655150868592465,-23.6212959280426],[-46.65506801366743,-23.62121898373328],[-46.65499271708447,-23.621147897882334],[-46.65498703993043,-23.62114362938454],[-46.654982103508296,-23.621138644117817],[-46.654978014999166,-23.621133048397773],[-46.65497485921615,-23.621126962323874],[-46.65497244543735,-23.62111940274058],[-46.65497302158946,-23.62111268538269],[-46.65497516235755,-23.621106238493983],[-46.65497947798767,-23.621099490277054],[-46.65498967673432,-23.62108976888488],[-46.65500122756348,-23.62108142100417],[-46.65501391194516,-23.621074604284416],[-46.65502019035852,-23.621071970037367],[-46.65526995669905,-23.620909679444125],[-46.655557195343974,-23.62072172676542],[-46.655758894610905,-23.620591835615514],[-46.6558729769726,-23.620516157253146],[-46.65613208261985,-23.620346513564584],[-46.65625244213023,-23.620268451702096],[-46.656443696949275,-23.62014824588095],[-46.65656071757199,-23.62007746974957],[-46.65676061467119,-23.619965903444097],[-46.656984749563705,-23.619848947115585],[-46.657340714494495,-23.619676973057786],[-46.65784360141549,-23.61943903353655],[-46.65853231556054,-23.619111661871276],[-46.65905601317224,-23.618865028577293],[-46.65933504206169,-23.618728908844044],[-46.659407610397174,-23.618694917175112],[-46.65949244841435,-23.61865833894967],[-46.65987264387075,-23.61847533355356],[-46.65994860884432,-23.618439642857293],[-46.660104310467844,-23.61836512547142],[-46.66066315898317,-23.618099103362752],[-46.660745337317024,-23.61806096093402],[-46.66094770240696,-23.61798205851773],[-46.66096579091652,-23.617970571794565],[-46.66102568005483,-23.617936986935305],[-46.66168869381647,-23.617611968400237],[-46.66182653489743,-23.617544396082344],[-46.661829740846215,-23.61754286635568],[-46.66191223440387,-23.617503509922354],[-46.661923284260524,-23.61749823807219],[-46.66185243657665,-23.61738534716485],[-46.66183922047074,-23.617367745390595],[-46.66175658567193,-23.61725768248808],[-46.66173418430752,-23.61727126984128],[-46.66171542186736,-23.617281292855214],[-46.66166237320439,-23.617303491749926],[-46.6615126961153,-23.617366131068135],[-46.66144207806435,-23.617267218859173],[-46.66140413739811,-23.617219173883775],[-46.66138159214527,-23.617193377771066],[-46.661367891790086,-23.617177702751214],[-46.6613612136331,-23.617170061610558],[-46.661352068459315,-23.617159597874117],[-46.661336904232066,-23.61714262283305],[-46.6608226292183,-23.616597110682463],[-46.66059584350885,-23.61634513071022],[-46.660022926382986,-23.61577598633976],[-46.65941832975154,-23.615137744645196],[-46.65935790114089,-23.615073029714292],[-46.659281274552264,-23.614995196481036],[-46.658673968203864,-23.614349290393783],[-46.658543644676804,-23.614213702221083],[-46.65853971641167,-23.614207983870855],[-46.65814611683772,-23.61378655101556],[-46.657917418722604,-23.61354705044132],[-46.657792169806285,-23.61341805172691],[-46.65758485929443,-23.613194132117112],[-46.657313300506026,-23.61290553895559],[-46.65700224858403,-23.612577904237682],[-46.65667617902041,-23.612232730914887],[-46.65642336316732,-23.611969219450575],[-46.65629756548672,-23.611831407273748],[-46.65626062717047,-23.61179297179213],[-46.656070014121,-23.611589660019835],[-46.65567492239994,-23.611171353179678],[-46.65566622037241,-23.611165124898633],[-46.65562230704937,-23.61113652345677],[-46.655553366588755,-23.611121448870513],[-46.655545479070454,-23.611117650038153],[-46.655431427565986,-23.61109056878651],[-46.655417114106776,-23.611075437905864],[-46.65539802951855,-23.611055264900777],[-46.655359860348455,-23.61101491797952],[-46.655273979799105,-23.61092413714111],[-46.65510703689414,-23.610747592552432],[-46.65506904102264,-23.610707140758],[-46.654993050341446,-23.610626238029138],[-46.654841071232575,-23.610464433323607],[-46.654695421897756,-23.610309245094893],[-46.65455709089172,-23.61016331227626],[-46.654440411497745,-23.61003985487938],[-46.654258627543435,-23.60986488880667],[-46.65424020934181,-23.609841877578987],[-46.65421234054194,-23.609815445309298],[-46.653802329671514,-23.609386455901863],[-46.65337651980994,-23.608932168476677],[-46.653139969597554,-23.608683107484502],[-46.65279092691625,-23.608309452750003],[-46.65277355242424,-23.60829148710728],[-46.65248465614749,-23.6079706506586],[-46.652421058987855,-23.60790044083245],[-46.65240054237273,-23.607881965879717],[-46.65237873099953,-23.60786964613194],[-46.65233082033129,-23.607839092355583],[-46.65214999550714,-23.607665199620293],[-46.65208262182264,-23.607546116965302],[-46.6520794434749,-23.60754045816953],[-46.65193775682306,-23.60733046490865],[-46.65183285893898,-23.60716286498844],[-46.65169130205054,-23.60692359151845],[-46.65167248269355,-23.606883355524012],[-46.651651922330174,-23.6068399404648],[-46.65163120110399,-23.606796590324972],[-46.65161031708943,-23.606753307833994],[-46.6515892712438,-23.606710091175586],[-46.651571103136945,-23.606673101810173],[-46.65156597828734,-23.606662720157686],[-46.65155471418911,-23.606637720750584],[-46.65154377976701,-23.606612597733246],[-46.65153317799425,-23.606587353783148],[-46.65152290891595,-23.60656199251197],[-46.651512975527936,-23.606536518403008],[-46.65150337786399,-23.606510934165016],[-46.65149544279427,-23.606488918122377],[-46.65148994331716,-23.60647202066061],[-46.651458593180614,-23.606378801515458],[-46.65143435471452,-23.60629787804982],[-46.65142681453423,-23.606274841002136],[-46.651419329090054,-23.606263994118656],[-46.65137181523523,-23.60606168169556],[-46.6513705353986,-23.606053387542552],[-46.651368449092985,-23.60604329593254],[-46.651354194762504,-23.605984931989134],[-46.651343473404985,-23.605926981967453],[-46.65132585054632,-23.605826572295914],[-46.65131188892628,-23.605744636451295],[-46.65130643367427,-23.605684643761617],[-46.651298169229456,-23.605595964969915],[-46.651294887520805,-23.60557649468298],[-46.651249927118165,-23.605139911130554],[-46.65124937064736,-23.60509548854093],[-46.65124766740499,-23.605045569737065],[-46.6512440162959,-23.60500443093256],[-46.65123841137261,-23.604987242901338],[-46.65121866823954,-23.60476440734322],[-46.65121239563036,-23.604686092057662],[-46.65120966208445,-23.604656322426024],[-46.65120206914362,-23.604573595489132],[-46.65119153581501,-23.604468053457726],[-46.65118679186013,-23.604417896086325],[-46.65118207505296,-23.60436990567017],[-46.65117763985607,-23.60434439742073],[-46.651171340071286,-23.604326494360308],[-46.65115226832748,-23.604055611034855],[-46.651148292823585,-23.604012037520846],[-46.65114597474151,-23.603983436486548],[-46.65113785760279,-23.603906495334304],[-46.651129276498295,-23.603808157573287],[-46.651119832090096,-23.603719129181616],[-46.65111066857031,-23.60366034982903],[-46.651102603995135,-23.603618896745402],[-46.6510943755368,-23.603587830118915],[-46.65108627373719,-23.60356687595396],[-46.65103900486971,-23.603297917908986],[-46.65104164270845,-23.603281635516833],[-46.65104001205465,-23.603260973730606],[-46.651032250847535,-23.603204617603424],[-46.651022182054135,-23.603081371424008],[-46.65100247012669,-23.602876686104587],[-46.650996742653774,-23.602771455024964],[-46.650972037693066,-23.602551471471017],[-46.65096114078994,-23.602440335435777],[-46.65094970499931,-23.602317464980036],[-46.650948021631,-23.602300415825372],[-46.65094417744387,-23.602267315914098],[-46.65094525269432,-23.602009502519426],[-46.650906320125706,-23.600832638961748],[-46.650907485290034,-23.600823957588762],[-46.65090583422345,-23.600741245056007],[-46.65090459411355,-23.60067914407742],[-46.650892786464674,-23.59993960578828],[-46.65087979970426,-23.599802394668878],[-46.650859454247225,-23.59956267881173],[-46.65085068481045,-23.599471704377738],[-46.650849610618586,-23.599447971812666],[-46.6508477118758,-23.59939962719616],[-46.65084662625739,-23.59932857112721],[-46.650844829592884,-23.599200722708446],[-46.650844437608036,-23.59918451948716],[-46.6508431060128,-23.59912958311909],[-46.6508413824371,-23.599058443528985],[-46.650839493057,-23.598993626835956],[-46.650837225715456,-23.598937754051807],[-46.65083215967493,-23.598877486230496],[-46.65081921875092,-23.59872826353425],[-46.65081499155201,-23.598683182799892],[-46.650609752053924,-23.59870478701831],[-46.65053661878361,-23.598712485236625],[-46.65039231833127,-23.598746708493184],[-46.649877102057296,-23.598864790836192],[-46.649602168320044,-23.598929207825716],[-46.649469852817525,-23.598958065392456],[-46.6493084986397,-23.598999873603294],[-46.64916983391853,-23.59903042380274],[-46.64892523435548,-23.599083681169677],[-46.648659672523586,-23.59914537823602],[-46.64844043143626,-23.59919710134972],[-46.648204383322685,-23.59925252526465],[-46.64801447627629,-23.599275670949034],[-46.648002621197,-23.59927579678643],[-46.647711251672085,-23.599303270829797],[-46.64739383633357,-23.599332375228023],[-46.646883112229,-23.599379061561514],[-46.646676901189096,-23.599399218900263],[-46.646671023755516,-23.59939937153885],[-46.64628704268786,-23.599434971653327],[-46.64614827523096,-23.599447978211913],[-46.64582332795106,-23.599478524652877],[-46.64525771436071,-23.59953192808009],[-46.644712738107074,-23.599582221176913],[-46.64430077615002,-23.59962035774495],[-46.6441008413546,-23.599640987034434],[-46.64409191537631,-23.599640268837405],[-46.64408436556999,-23.599639897275427],[-46.64349496891732,-23.59969571343601],[-46.643004506564424,-23.59974090840372],[-46.64280171452069,-23.599736733176556],[-46.6427768589789,-23.59973157804701],[-46.64211857232924,-23.599724274289333],[-46.64190373590075,-23.599720767089675],[-46.641493107545394,-23.599716529513262],[-46.64107866652896,-23.59971277543569],[-46.64040463412824,-23.599708257720337],[-46.63995745697947,-23.599704132232514],[-46.63978401261217,-23.599701445486154],[-46.6397522910976,-23.599698894458363],[-46.63949158322778,-23.599701647725656],[-46.638755054192934,-23.59969849707244],[-46.63848480390248,-23.59970786648659],[-46.63832447825433,-23.599705569733516],[-46.63831224739277,-23.599699197031676],[-46.63830143069487,-23.599696150591587],[-46.63829014094228,-23.59969446367706],[-46.63787052859973,-23.59969275036568],[-46.63763349049433,-23.599692632038327],[-46.63735214011994,-23.59969090282016],[-46.63688673103494,-23.599686328629502],[-46.63687410100592,-23.59968718420752],[-46.6364784050045,-23.599686117998782],[-46.636465368495614,-23.599685803897398],[-46.635870288871885,-23.599693165980874],[-46.63577582279835,-23.599694334679903],[-46.63543045687075,-23.5996981536583],[-46.63497513863093,-23.59970141404656],[-46.63495869084066,-23.59970258058044],[-46.63495252837721,-23.599703458196966],[-46.634774368442905,-23.599702263951873],[-46.63476034432262,-23.599701327989198],[-46.634480049377416,-23.599705633612093],[-46.63412179738613,-23.599713468342724],[-46.63369936693642,-23.59972161637391],[-46.63351273495937,-23.599732700658773],[-46.63236903939472,-23.599751862692482],[-46.63207075719234,-23.5997517476591],[-46.631937293653635,-23.59975170574258],[-46.63193130588102,-23.5997508656563],[-46.631704090485684,-23.599752711979644],[-46.63133396678484,-23.599759310513626],[-46.63091904862146,-23.5997649338831],[-46.63066191209665,-23.599769012822133],[-46.630548327929944,-23.599770814396233],[-46.63013653478103,-23.59977559013242],[-46.629450011389665,-23.59978306776667],[-46.62944277558617,-23.59978431764131],[-46.62943827867954,-23.59978517756023],[-46.62930978822925,-23.599783094533873],[-46.629302916439464,-23.599782083017416],[-46.62913924995424,-23.599780188386973],[-46.628754760702186,-23.59977419794531],[-46.62860002238854,-23.59977320241037],[-46.62806276880688,-23.599767368693694],[-46.627922974278015,-23.599770369698128],[-46.62791146189366,-23.599766517093784],[-46.627885085957345,-23.599765168203653],[-46.62779108567759,-23.59976290288489],[-46.62767722388693,-23.599763103299786],[-46.62756283988284,-23.599760690329056],[-46.62733037659528,-23.599758160432287],[-46.627177884030125,-23.599756598122262],[-46.62675823737149,-23.599752236329344],[-46.62675325501298,-23.59975346246828],[-46.62656384379459,-23.599753731219316],[-46.626260521841395,-23.59975031661126],[-46.626012693851116,-23.59974939051945],[-46.625999479164506,-23.59975052224647],[-46.62599390782019,-23.59975166422706],[-46.62554430902568,-23.59975005100348],[-46.62545353552781,-23.59974913662751],[-46.62530684986866,-23.599747660680553],[-46.62510231442004,-23.599745196286875],[-46.62489112775108,-23.599743793660597],[-46.62465375762935,-23.599740678983036],[-46.6244751917107,-23.599738393520077],[-46.624324151863405,-23.599735368357766],[-46.624182180430296,-23.599736673015624],[-46.624130615825614,-23.599739114212916],[-46.62407690159306,-23.599741657345923],[-46.623945750902855,-23.59975431704501],[-46.62385572192217,-23.59976739267819],[-46.62382514492228,-23.599771832999235],[-46.6237175019466,-23.599791651465306],[-46.623617160410156,-23.59981554742923],[-46.623592835316636,-23.599821990258143],[-46.62360110714837,-23.599837706737745],[-46.6237371846275,-23.60009627970995],[-46.62392896931458,-23.60047164986982],[-46.62404414352545,-23.600705141927453],[-46.62409414215258,-23.60081045370041],[-46.624137543154184,-23.600897232110622],[-46.62418192167703,-23.600991766313182],[-46.624361439408204,-23.60137340470244],[-46.62449871674163,-23.60167493390918],[-46.62456387262402,-23.60180148952437],[-46.62457153430664,-23.601818882922704],[-46.624579195991394,-23.601836276320523],[-46.624579365646476,-23.601836763985823],[-46.624615877666656,-23.601920132239975],[-46.624652389747,-23.60200350138505],[-46.62468856233146,-23.60208015103564],[-46.62475268077703,-23.60222586067389],[-46.624793962792005,-23.602315550708752],[-46.62484789401966,-23.602437708511708],[-46.624924721046035,-23.602612723717833],[-46.62503931453174,-23.60287836864748],[-46.62513135782341,-23.603079413115047],[-46.625187036617504,-23.60320814365863],[-46.62525620995828,-23.603366352171467],[-46.62532363766281,-23.603518077127873],[-46.625358796764424,-23.603603857752347],[-46.62535986451944,-23.603607007165973],[-46.62543353313495,-23.60378404266569],[-46.62569454563254,-23.604374075908016],[-46.62575217202341,-23.60452412339445],[-46.625753498662355,-23.60452442555982],[-46.62575982178571,-23.604536550194062],[-46.6257707255379,-23.604562533461074],[-46.62578162929467,-23.604588516726995],[-46.62581147356108,-23.604656397098946],[-46.625836879655324,-23.604714181154907],[-46.62589515642592,-23.60484685746327],[-46.62596041676546,-23.604997521119103],[-46.626032629553585,-23.60516364486588],[-46.62606632320262,-23.60524176490072],[-46.62614121852145,-23.605410839563223],[-46.62620357561134,-23.605556476549125],[-46.6262496643141,-23.605662279881912],[-46.626256432939684,-23.60567873434785],[-46.62625738606792,-23.605684503729474],[-46.62632521827192,-23.60584498412255],[-46.62633398665855,-23.605864668526042],[-46.626404105999825,-23.60601988645591],[-46.62646966374988,-23.606170727313582],[-46.62651880155976,-23.606285348244967],[-46.6265670375762,-23.606398354061497],[-46.626581639428146,-23.60643016816843],[-46.626594136862764,-23.606458211616964],[-46.62660663207455,-23.606486074482266],[-46.62660807402325,-23.60649174843521],[-46.62672233455022,-23.60675762094265],[-46.62672568326559,-23.606762958852013],[-46.626755975061585,-23.606835334971695],[-46.62683561565476,-23.607015556974996],[-46.626868967340776,-23.607089707949534],[-46.62692191959647,-23.607219549865587],[-46.6269299554863,-23.60723544919357],[-46.62697078425804,-23.607327852287355],[-46.62701439349241,-23.607431152832806],[-46.62704829103045,-23.60750981225965],[-46.62708218959134,-23.607588471665824],[-46.62712780548895,-23.607695543841025],[-46.62720635164648,-23.607882279749887],[-46.62725472232598,-23.60798227939566],[-46.62728015044071,-23.608041657647764],[-46.627305578579836,-23.608101035894],[-46.627330993365504,-23.60815933064398],[-46.627366210005846,-23.608239392091708],[-46.627376735879025,-23.608260908289218],[-46.627378886722184,-23.608268275195922],[-46.62741761328737,-23.608357433930347],[-46.627655345507016,-23.608911943432172],[-46.62772763641164,-23.60909409941949],[-46.62775444028637,-23.60916858610349],[-46.62778124517368,-23.609243072770226],[-46.62780439835056,-23.609319830007312],[-46.627830951737366,-23.60941473037877],[-46.627852778334955,-23.60949983734355],[-46.627868730993654,-23.60956161755803],[-46.62789146529067,-23.609661417146683],[-46.627899916747225,-23.609703003115964],[-46.62791229550393,-23.609776922248003],[-46.627924889359,-23.60986031998289],[-46.62792540581871,-23.609864763770847],[-46.62793267495948,-23.609927333090603],[-46.62793914120341,-23.609998604253867],[-46.627943874628436,-23.61005652881941],[-46.62795053397423,-23.6102029296456],[-46.62795138692282,-23.61020454614418],[-46.62795213416208,-23.610209504944493],[-46.62795380954554,-23.610297532320022],[-46.627953830956415,-23.610362730508193],[-46.62795295773294,-23.61040310488963],[-46.62795146798994,-23.610433236402805],[-46.627949978246704,-23.610463367915898],[-46.62794970549433,-23.61046508742753],[-46.627936005569445,-23.610633284096707],[-46.62793667044146,-23.61063950799583],[-46.62793645344588,-23.610645741144975],[-46.62793040835721,-23.6106958321419],[-46.62792436326518,-23.61074592313854],[-46.62790927550892,-23.610841440842126],[-46.62788772453288,-23.610961137105573],[-46.627876941535746,-23.6110084784179],[-46.62785613024387,-23.611092858639015],[-46.6278372472504,-23.611166743541812],[-46.62781644705201,-23.611244171252054],[-46.62777442981706,-23.611396861971098],[-46.62774979807755,-23.611481372552465],[-46.62772229794951,-23.61156374595422],[-46.62770009653049,-23.611630802656105],[-46.62767324321488,-23.61171000867908],[-46.62764787623658,-23.611782607027088],[-46.62762196592401,-23.61185882316997],[-46.627600670823895,-23.611927857009814],[-46.627578588327964,-23.61198868247993],[-46.627560979569296,-23.612038804431975],[-46.62752837642394,-23.612136492443966],[-46.62750350369041,-23.612209446798765],[-46.62749874152984,-23.6122206039469],[-46.627492803530544,-23.612231773425687],[-46.62742406100497,-23.61245030394311],[-46.62742217263877,-23.61245610310561],[-46.62734828329243,-23.612670533650935],[-46.62728667738168,-23.612856029770697],[-46.62728360647072,-23.612861299516524],[-46.627281481978244,-23.61286385026336],[-46.62727935748569,-23.612866401010162],[-46.62721601099529,-23.61302595248413],[-46.62721613413632,-23.61303195630951],[-46.62721515774309,-23.613040184075164],[-46.62718904050938,-23.613155232402995],[-46.62715893461649,-23.613264723792838],[-46.62711872744605,-23.61339743852856],[-46.627083756905975,-23.613525674431838],[-46.62705597580294,-23.613632974169885],[-46.62702384690828,-23.61376912598551],[-46.62700673486187,-23.613851570972216],[-46.62698567912582,-23.613955910508732],[-46.626970239521604,-23.614038879772604],[-46.62696329748478,-23.614079859586127],[-46.62695635544443,-23.61412083939937],[-46.626955315635435,-23.614128060052373],[-46.6269331592513,-23.614282002545263],[-46.62692129645573,-23.614384800855042],[-46.6269125690436,-23.614463816735654],[-46.62690418128334,-23.614554387774366],[-46.62689808292268,-23.614647824490536],[-46.62689365084106,-23.61477303021543],[-46.626892303498316,-23.614846460269423],[-46.62689079437902,-23.61489885153769],[-46.62688974733068,-23.614948980399046],[-46.62688933728017,-23.61500307679467],[-46.62689039814987,-23.61507311963764],[-46.626895184028065,-23.615240940891756],[-46.626907392923044,-23.615433632186804],[-46.62691121710106,-23.61547602613572],[-46.626911315525035,-23.615484631833922],[-46.62691019220646,-23.615492629962965],[-46.6269298450969,-23.615831406804553],[-46.6269298460991,-23.61583140860009],[-46.6269916336961,-23.616056502534533],[-46.62704170218288,-23.61628776686409],[-46.62707410502275,-23.61645713977016],[-46.62715523407909,-23.616820544840845],[-46.62721572299137,-23.61706292619788],[-46.627255271250085,-23.617232579891642],[-46.62725711416205,-23.617243328230195],[-46.62729481079215,-23.617399852383016],[-46.62731446358506,-23.617482068036658],[-46.62731638764396,-23.61749367249309],[-46.62737148218792,-23.6177421650957],[-46.62737491320574,-23.617744300885448],[-46.62742251904534,-23.617951340996587],[-46.62742179575583,-23.617956416355895],[-46.627479303155866,-23.618222960324754],[-46.62757942984504,-23.618702018338027],[-46.62757943088073,-23.61870202284229],[-46.627619660774606,-23.61896705115796],[-46.627641600041336,-23.619095868602468],[-46.627647405461936,-23.61919490829427],[-46.627651066978174,-23.61924996068473],[-46.627658175536354,-23.619356824953822],[-46.62767212053006,-23.619546702052638],[-46.62768151877243,-23.619715848255627],[-46.627686220377335,-23.619871884856195],[-46.62769289315648,-23.61997416903101],[-46.62770185686501,-23.620382165145582],[-46.627722015308144,-23.620888775023957],[-46.62772774636311,-23.621016594841695],[-46.627730168211805,-23.62121186102067],[-46.62773824736919,-23.621429759931093],[-46.62775281335099,-23.621634949344443],[-46.62777128860838,-23.62183520063514],[-46.627798661303956,-23.62205998312273],[-46.62781451327868,-23.622177380578645],[-46.6278666394337,-23.622469383578082],[-46.62788332792951,-23.622545023641702],[-46.62793856169241,-23.622776085932234],[-46.62799848168646,-23.62302342568143],[-46.628060157826724,-23.623239732612095],[-46.62813060770203,-23.62347997237026],[-46.628239987647866,-23.623843178186096],[-46.62831595215918,-23.624083099863345],[-46.62838282478621,-23.624302652600434],[-46.62843652095137,-23.624475640137913],[-46.628509477019314,-23.624716006834692],[-46.62858511537647,-23.624963228163306],[-46.62866177400444,-23.625205748420527],[-46.62869542517886,-23.62531604888657],[-46.62874463895225,-23.625473950456932],[-46.62874947020658,-23.625489830867885],[-46.62886744940828,-23.62587768945322],[-46.62892442681546,-23.62605744746037],[-46.628973650190495,-23.62621805698492],[-46.62900287326459,-23.626314760975063],[-46.62905761284354,-23.626488363923812],[-46.62909370516684,-23.62661775561811],[-46.62913415707985,-23.626816547593034],[-46.629158760774864,-23.62694276478627],[-46.629215797055984,-23.627051077541832],[-46.6292199938855,-23.6270559124957],[-46.62922191862312,-23.627061363696196],[-46.62935354226575,-23.627681957157876],[-46.62938945508146,-23.627844230586014],[-46.62944146705975,-23.6280892540444],[-46.629490386744834,-23.628333543288253],[-46.629539462266045,-23.628605850754738],[-46.629587128090975,-23.628891261407933],[-46.62959940036735,-23.628972295245227],[-46.62960077195919,-23.62898135621244],[-46.62962587284036,-23.629147110493623],[-46.629632575911366,-23.629193282049386],[-46.629650986849676,-23.629332686874886],[-46.62970887095792,-23.629341735627655],[-46.629891481252436,-23.6293679821273],[-46.63004913159338,-23.62939064113219],[-46.63039179140068,-23.629440941113568],[-46.63067798471377,-23.629485853261613],[-46.63112123782491,-23.62956339111785],[-46.631387692226966,-23.629555720646042],[-46.63139622167144,-23.629554965407777],[-46.63178475397963,-23.629610179849312],[-46.632096665933446,-23.6296567972871],[-46.6326121686925,-23.62973195053518],[-46.632896552057346,-23.62977268484362],[-46.63317913826916,-23.629813596476776],[-46.63338504657271,-23.629836080727586],[-46.63339678760221,-23.629837199642573],[-46.633500248977214,-23.629847058303916],[-46.633608858414924,-23.629855847679142],[-46.634004889960615,-23.629876689772704],[-46.63427875329038,-23.629885995228026],[-46.63429140976921,-23.629887035799403],[-46.63430289698111,-23.62988863050259],[-46.63528659387184,-23.629884403911056],[-46.63587039197267,-23.62983028838117],[-46.63589220120823,-23.629828441955382],[-46.63619898710415,-23.629797483273688],[-46.63637021364929,-23.629781680110987],[-46.63649769739072,-23.6297713952035],[-46.63662708910398,-23.629764792443275],[-46.63718467244121,-23.62966959931991],[-46.63719473826935,-23.629667235522113],[-46.63751138976925,-23.62963364168104],[-46.63841006810069,-23.629547575371383],[-46.63895335354423,-23.62949298228995],[-46.639462097566415,-23.629442906313827],[-46.64017738203392,-23.629371681370145],[-46.64024456072218,-23.62936708799719],[-46.64031010379822,-23.629364950044422],[-46.64045116329716,-23.629358762537926],[-46.640598878683065,-23.629359728657075],[-46.64070229180401,-23.629360531148663],[-46.64084649948287,-23.629363159569735],[-46.64102391395274,-23.629372118877196],[-46.64106649710357,-23.629375822234422],[-46.64111731326245,-23.62937952877277],[-46.6411764874386,-23.629385404407003],[-46.64134109556168,-23.629404883568608],[-46.641402662241305,-23.629413984666304],[-46.64146513441925,-23.629424883097343],[-46.64153051067671,-23.629432950506786],[-46.64155180451578,-23.629434982696313],[-46.64167554500309,-23.62946256966684],[-46.64176276587156,-23.62948539588178],[-46.64183753305834,-23.629507721757914],[-46.64191860708693,-23.629532780192708],[-46.64207551397309,-23.629587016001786],[-46.64215883077164,-23.62961900380658],[-46.6422940991232,-23.629674913306623],[-46.64237060566669,-23.629710946382264],[-46.642524035649544,-23.62978499464009],[-46.64257402614935,-23.62981497372898],[-46.64260497929825,-23.629831004111672],[-46.64264700729703,-23.62985304418045],[-46.642689864360406,-23.62987868753063],[-46.642853324454435,-23.629978907955838],[-46.64292163885636,-23.630026044337818],[-46.6429889046119,-23.630075539643098],[-46.6430573779553,-23.630127550575686],[-46.64311657295693,-23.630174331958948],[-46.643124977282056,-23.630188059106544],[-46.643279269569646,-23.630403835178672],[-46.64388931078596,-23.63076575874406],[-46.64401965332137,-23.63082766432209],[-46.644114360770864,-23.630865333069245],[-46.644368994602665,-23.63093111582501],[-46.64451382460576,-23.630954247106047],[-46.64464532322843,-23.63096594292525],[-46.64471134230071,-23.630967571742136],[-46.64478498297485,-23.63096552479276],[-46.64487264052799,-23.63095791646859],[-46.644980793707326,-23.63093989384575],[-46.645058735077505,-23.630921368942122],[-46.64538499138694,-23.630815265790453],[-46.64551460175478,-23.630955847825582],[-46.6455337052647,-23.630940860945472],[-46.645637741074566,-23.631052789643324],[-46.646358233229584,-23.63183371037655],[-46.646442375154585,-23.631931485341298],[-46.646618153089555,-23.631883686369527],[-46.646619597131014,-23.63188057639893],[-46.646623110310344,-23.631875121900734]]]},"geometry_name":"ge_poligono","properties":{"cd_identificador_distrito":8583421,"cd_identificador_subprefeitura":20,"cd_distrito_municipal":"77","nm_distrito_municipal":"SAUDE","sg_distrito_municipal":"SAU","tx_escala":"1:5000","sg_fonte_original":"GEOGSG","dt_criacao":"2004-01-01Z","dt_atualizacao":"2026-03-20T16:13:20.059Z","cd_usuario_atualizacao":null,"cd_tipo_discrepancia":199299399,"qt_area_quilometro":9.307,"qt_area_metro":9307107.05,"cd_regiao_05":2,"nm_regiao_05":"Sul","cd_regiao_08":7,"nm_regiao_08":"Sul 1"}}]}
