{"type":"FeatureCollection","name":"VILA MARIANA","features":[{"type":"Feature","id":"distrito_municipal_v2.8583434","geometry":{"type":"Polygon","coordinates":[[[-46.64409191537631,-23.599640268837405],[-46.6441008413546,-23.599640987034434],[-46.64430077615002,-23.59962035774495],[-46.644712738107074,-23.599582221176913],[-46.64525771436071,-23.59953192808009],[-46.64582332795106,-23.599478524652877],[-46.64614827523096,-23.599447978211913],[-46.64628704268786,-23.599434971653327],[-46.646671023755516,-23.59939937153885],[-46.646676901189096,-23.599399218900263],[-46.646883112229,-23.599379061561514],[-46.64739383633357,-23.599332375228023],[-46.647711251672085,-23.599303270829797],[-46.648002621197,-23.59927579678643],[-46.64801447627629,-23.599275670949034],[-46.648204383322685,-23.59925252526465],[-46.64844043143626,-23.59919710134972],[-46.648659672523586,-23.59914537823602],[-46.64892523435548,-23.599083681169677],[-46.64916983391853,-23.59903042380274],[-46.6493084986397,-23.598999873603294],[-46.649469852817525,-23.598958065392456],[-46.649602168320044,-23.598929207825716],[-46.649877102057296,-23.598864790836192],[-46.65039231833127,-23.598746708493184],[-46.65053661878361,-23.598712485236625],[-46.650609752053924,-23.59870478701831],[-46.65081499155201,-23.598683182799892],[-46.65080415657928,-23.59856606081187],[-46.650790592860155,-23.59841404626979],[-46.6507771682513,-23.598249658878164],[-46.65076223301146,-23.598074180403298],[-46.650757215293716,-23.598009937868248],[-46.650741694541175,-23.59783464621297],[-46.65072787599173,-23.597646603879472],[-46.65070672006511,-23.597420351520253],[-46.65069412021429,-23.597259205291685],[-46.65067911818006,-23.59709402191073],[-46.650664169033924,-23.59690174737513],[-46.650648088340695,-23.59671300663726],[-46.6506341823337,-23.596525777003453],[-46.650617534265656,-23.59633866771683],[-46.650603906395965,-23.596173650297565],[-46.650586094165305,-23.59596397787967],[-46.65057491459187,-23.595798843216482],[-46.65055554396949,-23.59558990976275],[-46.65054357236503,-23.59543977453643],[-46.650526520004234,-23.595243819907868],[-46.65051121719215,-23.595062384389525],[-46.65049722425117,-23.59488382550743],[-46.65048343621946,-23.594729465371895],[-46.650472156627465,-23.59458763054471],[-46.65044609972951,-23.594275010212254],[-46.650436928031596,-23.59415283880119],[-46.65043008785421,-23.594068208234958],[-46.65041873789467,-23.59393639765675],[-46.65040991102483,-23.59381828616179],[-46.65040535215337,-23.5937280317166],[-46.65040102796294,-23.593460693461857],[-46.650272287895724,-23.59326309655311],[-46.6502436818588,-23.592992252521817],[-46.65022968629408,-23.592813422667415],[-46.65022178214021,-23.592698552202013],[-46.650212215231136,-23.59259950225575],[-46.650208451876274,-23.59257281285115],[-46.65019818825599,-23.592535627185452],[-46.65018520451178,-23.5925082230413],[-46.650166510081824,-23.592478531726414],[-46.65014058955141,-23.592450813536146],[-46.65010360934012,-23.592416259603795],[-46.65007520936032,-23.59239398496549],[-46.6500469469055,-23.592374870333984],[-46.65001350331075,-23.592356713767817],[-46.64997607003734,-23.592340766832695],[-46.649934059260936,-23.592327035771216],[-46.64990113520036,-23.592319077788535],[-46.64987009291397,-23.59231272524275],[-46.649843506741234,-23.592310118033744],[-46.64981145906185,-23.592309555487212],[-46.6497745659313,-23.59231328860583],[-46.64972749175999,-23.592317761986923],[-46.64969091625026,-23.592323388054346],[-46.64938204865125,-23.59236071274838],[-46.64912976265098,-23.592386057918432],[-46.64891225260592,-23.592393351385773],[-46.648793049607846,-23.592186814850976],[-46.6488148934318,-23.592178455742175],[-46.64884618734671,-23.592165752096555],[-46.648878490079255,-23.592147529307802],[-46.64891360911505,-23.59212728996384],[-46.64907308416127,-23.59202987639437],[-46.649078061462646,-23.59202828840531],[-46.64911094291904,-23.59200933700891],[-46.649172344304986,-23.591967416921886],[-46.64920617922338,-23.591938522155367],[-46.6492318410665,-23.59191422928287],[-46.64925426987979,-23.591889970741754],[-46.649277049773694,-23.59186236729326],[-46.64930174855795,-23.591831581987584],[-46.649316858929915,-23.591809749016395],[-46.64934073078827,-23.59176768563441],[-46.64937403497268,-23.591696354508368],[-46.649416481796514,-23.591588263639878],[-46.64954130993202,-23.591274673302564],[-46.64959464674991,-23.591128539861067],[-46.64960393666989,-23.591119230373707],[-46.64967593591145,-23.590937589669128],[-46.649684826345705,-23.590904173774383],[-46.64969436642807,-23.590867861312695],[-46.64969993578188,-23.59082743713599],[-46.64970077463978,-23.590792661936472],[-46.649698990635336,-23.59075186436123],[-46.64969494769023,-23.590710639271244],[-46.64968994000469,-23.590678454633846],[-46.64962875128447,-23.590361241371774],[-46.64952536646464,-23.590250454339365],[-46.649499672953056,-23.59022517175314],[-46.64946360325392,-23.59018500922468],[-46.64935707443826,-23.590065677663837],[-46.649270728133416,-23.589969700531455],[-46.649144246299066,-23.589837486895338],[-46.649019521373575,-23.58970471177237],[-46.64894911689451,-23.589629876458318],[-46.64882300614579,-23.58949594284592],[-46.648709009325785,-23.58937488402082],[-46.648574650344536,-23.589231646322688],[-46.648451342145165,-23.58910237832831],[-46.648383390414565,-23.58903127686931],[-46.648297673880116,-23.588935794516452],[-46.64818638298433,-23.588819023881907],[-46.64818096193724,-23.58881449496657],[-46.648174690044165,-23.58881103432415],[-46.64816780802792,-23.588808773950127],[-46.648160581541475,-23.58880780223045],[-46.64815328931033,-23.58880815594018],[-46.64813946933214,-23.588811234706796],[-46.648132741547805,-23.588813868875363],[-46.64812661577184,-23.58881755499606],[-46.648121282600336,-23.58882217726575],[-46.64818370852376,-23.588626447779955],[-46.64822022989016,-23.588388664966093],[-46.6483053106371,-23.587916507786677],[-46.64834934614642,-23.587679931098954],[-46.64838596641831,-23.58748209504928],[-46.648387306838266,-23.587475433683945],[-46.64838942329547,-23.587462031156065],[-46.64839086176206,-23.58744855274576],[-46.64839161967153,-23.587435028279966],[-46.64839169638284,-23.587421484856126],[-46.64839109032044,-23.58740795319369],[-46.64838980380488,-23.587394462164667],[-46.64838783817702,-23.587381040651508],[-46.64838566190329,-23.587369815715522],[-46.64838334902378,-23.5873564403296],[-46.64838054822593,-23.587343145072627],[-46.64837725970165,-23.587329945293877],[-46.64837348950961,-23.587316855377374],[-46.648369240769426,-23.587303889738294],[-46.64835981221757,-23.58727872146065],[-46.648349457450024,-23.587253371571343],[-46.64833941864012,-23.587230724682755],[-46.64821560619694,-23.586957156206136],[-46.648110571005425,-23.586723896089197],[-46.647897500205914,-23.58625294286663],[-46.64789547699233,-23.58624643638919],[-46.647808957650575,-23.58606938950655],[-46.64780486338841,-23.5860649404095],[-46.64777568917846,-23.58599833691344],[-46.647747691514475,-23.58592975505075],[-46.647744910263334,-23.58592342999224],[-46.64774051146927,-23.585910521908147],[-46.647736651610145,-23.58589746091416],[-46.647733336834406,-23.585884268617622],[-46.64773057133115,-23.58587096664664],[-46.64772836127137,-23.585857578414377],[-46.6477267098532,-23.585844124656408],[-46.6477256183606,-23.585830629740734],[-46.64772512950217,-23.585818944408647],[-46.64772753297126,-23.585798863704763],[-46.64772933982644,-23.585778710766963],[-46.647730548300345,-23.585758500965373],[-46.6477311576391,-23.585738252368404],[-46.64773116707759,-23.5857179821416],[-46.64773057681903,-23.585697706537168],[-46.64772938805762,-23.585677442699843],[-46.64772826227922,-23.58566394814758],[-46.647739242514724,-23.58549234695253],[-46.647752914203025,-23.58523648424394],[-46.64776023074162,-23.58509608789456],[-46.647789032815545,-23.584632917806726],[-46.64779590901943,-23.584578399875802],[-46.64779881974923,-23.58456512528124],[-46.64780056685912,-23.584558548100553],[-46.647802507546125,-23.584552015823466],[-46.64780463994113,-23.58454553569395],[-46.64780696113898,-23.584539110451914],[-46.6478094712073,-23.584532745514768],[-46.64781216727479,-23.584526446331058],[-46.64781504840686,-23.58452021652279],[-46.64781811075256,-23.584514061548973],[-46.64782135337731,-23.584507985031557],[-46.64782477437818,-23.584501991505842],[-46.64783213804118,-23.5844902734388],[-46.64783607491558,-23.584484556183025],[-46.647840179615415,-23.584478940091277],[-46.64784444728754,-23.5844734288271],[-46.64785098696054,-23.58446555553692],[-46.64812660873706,-23.584083022706338],[-46.648146398616504,-23.584054970765916],[-46.64815431417186,-23.584043749812736],[-46.64815787728166,-23.584038153908327],[-46.64821382888162,-23.58396281983554],[-46.64830933011979,-23.583839966272848],[-46.64847270659814,-23.58363089788442],[-46.64855331162543,-23.583521824351],[-46.64865155330596,-23.583398316625583],[-46.648961534170475,-23.582987568621466],[-46.649195303434176,-23.582669816850277],[-46.649199780628386,-23.582664459551165],[-46.64920508841336,-23.582659787857388],[-46.64929763849675,-23.58254930035698],[-46.64929657628012,-23.582542703323494],[-46.64929618841057,-23.58253604946413],[-46.64929663038104,-23.582529394018362],[-46.64935472260495,-23.58205060206212],[-46.649383769592085,-23.58181120696661],[-46.649398292561266,-23.581691508970128],[-46.64940474752831,-23.581638309354975],[-46.649408781036314,-23.581605060620202],[-46.649410538332226,-23.5815917819934],[-46.64941256061037,-23.58158535900179],[-46.649415363027444,-23.58157919140924],[-46.649432164928925,-23.58155967751427],[-46.64956536210533,-23.581404975300597],[-46.64990300023963,-23.581077156246124],[-46.64990830499909,-23.581072484563588],[-46.65002277775543,-23.58096492894375],[-46.65002391149846,-23.58096298353298],[-46.65020927527261,-23.580784076598547],[-46.65032504949855,-23.580666795857958],[-46.65032939436418,-23.58066167743053],[-46.650373787562735,-23.5806174725013],[-46.65039346563415,-23.580597949629578],[-46.65068149475574,-23.580305585817168],[-46.65082795024197,-23.58015692653934],[-46.650896297508,-23.580087550767406],[-46.65093535194986,-23.580047908500973],[-46.650954879162036,-23.580028087364497],[-46.65095976096416,-23.58002313208004],[-46.6509641864825,-23.580017964016285],[-46.65096880751453,-23.58001299615143],[-46.65097395726247,-23.580008470566252],[-46.65097958629686,-23.580004430227984],[-46.65098563928799,-23.580000916360532],[-46.65107516303915,-23.579856004401275],[-46.651078119796374,-23.579849808954723],[-46.65108113583167,-23.579844906004524],[-46.65108446885628,-23.57983887090884],[-46.65109758314714,-23.579814628089885],[-46.65111034567851,-23.579790226464617],[-46.65112275454783,-23.579765670568463],[-46.65113480687289,-23.579740964947227],[-46.65114361197706,-23.579722339564178],[-46.651152214250935,-23.57970363416149],[-46.65116061371717,-23.579684850544986],[-46.65116880941881,-23.579665990530927],[-46.65117296765922,-23.57965230349143],[-46.65117847066507,-23.579632631382946],[-46.65118357377037,-23.579612867804332],[-46.65118827510641,-23.579593019999663],[-46.651192573772875,-23.579573094299654],[-46.65119646791236,-23.579553098851296],[-46.65119995564489,-23.57953303999572],[-46.65120303608144,-23.579512924966572],[-46.65120570832164,-23.579492760094585],[-46.65120797148774,-23.57947255351628],[-46.65120982467939,-23.579452311562402],[-46.65121126602793,-23.579432041476984],[-46.651212297583136,-23.579411750462395],[-46.65121291648547,-23.57939144487019],[-46.65121312382766,-23.579371133718972],[-46.651212919666385,-23.579350821523224],[-46.65121230313521,-23.579330517322354],[-46.65121159042959,-23.579321007053466],[-46.65120986552419,-23.57930075797779],[-46.65120722202442,-23.579266993213015],[-46.65120486633936,-23.579233210037636],[-46.65120279752306,-23.579199411170805],[-46.65120101754583,-23.579165597494594],[-46.65119994354251,-23.57914193078899],[-46.651180442963295,-23.578926503788654],[-46.65118135933716,-23.578919794534386],[-46.65115775608805,-23.578697740507437],[-46.65115616467853,-23.578691136468404],[-46.651154930079215,-23.57868446903779],[-46.651154053450384,-23.578677752651657],[-46.65115353892502,-23.578671004423462],[-46.65115338572677,-23.578664240615847],[-46.651153772323454,-23.57865488933341],[-46.651141713652436,-23.57856231241717],[-46.651103016058336,-23.578202748658214],[-46.651070859460745,-23.577902243391193],[-46.65103852613858,-23.57758305194876],[-46.650990947029605,-23.577349274040458],[-46.650980810006686,-23.5773355817847],[-46.650958903799925,-23.577294494105228],[-46.650921308016,-23.577199100168794],[-46.65088552499616,-23.57708092900828],[-46.65086122051245,-23.576975764902674],[-46.65085450290563,-23.57691069681633],[-46.65080029997891,-23.576040292978487],[-46.65077471009345,-23.57565299424884],[-46.65074993643699,-23.575274854296236],[-46.65075175755582,-23.575265518472474],[-46.650745496124586,-23.57510764467135],[-46.65074085145828,-23.575100760614525],[-46.65072080999204,-23.57477635975064],[-46.65070793609289,-23.57455678226257],[-46.650692614172044,-23.574331500194923],[-46.65068290790713,-23.57419584660142],[-46.650683212872046,-23.574179571809196],[-46.65068584706831,-23.57416670465931],[-46.65069206018691,-23.574152433217176],[-46.65069968338063,-23.574139516679395],[-46.65071558016205,-23.574119236599564],[-46.65077935352261,-23.574057635815308],[-46.650840819620086,-23.57400731568824],[-46.6509121126865,-23.57396135476795],[-46.65099821267041,-23.57390981565071],[-46.651242318023414,-23.573783917772904],[-46.65139064266096,-23.57371016748003],[-46.65139679740734,-23.57370494310591],[-46.65148638649537,-23.573658399191608],[-46.651741740107006,-23.573528144039795],[-46.651811610845314,-23.5734925022292],[-46.65188005637508,-23.57345758802383],[-46.65197814877726,-23.573406182779923],[-46.65222630910243,-23.573276134283212],[-46.65250492599092,-23.573135158239825],[-46.65265089435805,-23.573060186593658],[-46.65281111265208,-23.572998243748085],[-46.65281637093066,-23.57299098802824],[-46.653146156478776,-23.572658461351917],[-46.653570680536625,-23.572232193776887],[-46.653586918680354,-23.57222177891573],[-46.65361013846961,-23.572192624309125],[-46.653515212322084,-23.572107789615128],[-46.653510996414674,-23.572102288118913],[-46.653506650215725,-23.57209803869344],[-46.65332702410464,-23.571936024476628],[-46.65314855520212,-23.571771722103996],[-46.65296436866268,-23.571606036390396],[-46.652770804676166,-23.57143076977915],[-46.65250947702375,-23.57119290002143],[-46.65249399470569,-23.57117885200108],[-46.65246303104768,-23.571150755041785],[-46.652395942998275,-23.57108987782291],[-46.65226693657389,-23.57097279925383],[-46.65223611258699,-23.570944582463312],[-46.65217446660053,-23.570888147937662],[-46.65204605823016,-23.570770604070862],[-46.651840731465995,-23.570582781887282],[-46.65177383267917,-23.570521794897882],[-46.65165544066413,-23.570413919419973],[-46.65162440082705,-23.570385890810883],[-46.65156749450456,-23.57033450591217],[-46.651521054469036,-23.570292395773713],[-46.65149554012817,-23.570268838876483],[-46.65144451343283,-23.570221725046892],[-46.65133215929314,-23.570118127764506],[-46.65131151382904,-23.5700994152828],[-46.651265060312,-23.570057310620495],[-46.6511721766386,-23.569973082037848],[-46.65113620334612,-23.569940192393897],[-46.65103046822683,-23.56984473482137],[-46.65102564298696,-23.56983922075827],[-46.65089899410732,-23.569720964524212],[-46.65068516757464,-23.569505907280593],[-46.65052931441462,-23.5693506507254],[-46.650092421829875,-23.568950833553274],[-46.64987685332444,-23.568757982631563],[-46.649770617024565,-23.568648999432835],[-46.649766526392284,-23.568643388127953],[-46.64976441180415,-23.568641232484232],[-46.649560571045406,-23.568416404249337],[-46.64920898640592,-23.568033005100574],[-46.64914409898141,-23.5679637463857],[-46.64913854316254,-23.567959338084425],[-46.64901362079639,-23.567816665733567],[-46.64898833927906,-23.56783678332891],[-46.648851388396174,-23.567947952756878],[-46.648845128440456,-23.567951486779776],[-46.64864801830903,-23.568099827886805],[-46.64848585416257,-23.56822070919792],[-46.64848146301815,-23.56822397956815],[-46.64802836415611,-23.568568863559822],[-46.64752802262948,-23.568951361421618],[-46.64739093245861,-23.569058468428704],[-46.64737430407296,-23.569068397348016],[-46.64706475508711,-23.569306013853716],[-46.646672701001926,-23.569605276611426],[-46.64664989126745,-23.56962231453958],[-46.64649211448436,-23.56974399807491],[-46.64610975076258,-23.57003493932812],[-46.64576606609709,-23.5703009087416],[-46.645619111628626,-23.570410134310386],[-46.64559341457333,-23.57042977086913],[-46.64534962306517,-23.570616771410606],[-46.64492364690074,-23.570938152094623],[-46.64463812550807,-23.57116286743187],[-46.64441189017101,-23.571349478525057],[-46.64440620864312,-23.571357394956962],[-46.644399651019164,-23.571373628482043],[-46.64421607682137,-23.57115112695547],[-46.64407493859159,-23.571291993893354],[-46.643827476483736,-23.571511976066777],[-46.64381635817773,-23.571516156384806],[-46.643786150660226,-23.57154141926053],[-46.64361128773586,-23.571691955437107],[-46.64359086741286,-23.5717076348092],[-46.64342041727316,-23.5718427239356],[-46.643141402686375,-23.572055267356994],[-46.64302359570265,-23.572137965815433],[-46.64288225694522,-23.572250622487324],[-46.64262711778884,-23.57244530274517],[-46.64221946047631,-23.5727597101724],[-46.64199353724512,-23.572929850738053],[-46.64181089500935,-23.573037486871357],[-46.64180161331905,-23.573039924676426],[-46.641606728708524,-23.573111415421867],[-46.6414298850101,-23.573175343064733],[-46.6413047698306,-23.573220570625658],[-46.64127382772795,-23.573231813216015],[-46.64107857519474,-23.573302757266333],[-46.64099855142871,-23.57333183365867],[-46.64067976880464,-23.573448928665197],[-46.640633081966826,-23.573464674603816],[-46.640410467899116,-23.57352428479837],[-46.640396182090726,-23.573525717907337],[-46.64014387549144,-23.57359884883243],[-46.639882428987285,-23.57368412759441],[-46.63961376431303,-23.573765355269447],[-46.63938531605129,-23.573830250502283],[-46.63922410570807,-23.573884981427053],[-46.63921879089223,-23.573888301029267],[-46.63891378288486,-23.573985677750503],[-46.63860192424006,-23.574084075214724],[-46.63798020508311,-23.574281346632862],[-46.637973188353776,-23.574281972348412],[-46.63782260305194,-23.574330966719486],[-46.63781446712097,-23.574335510715095],[-46.637800758731444,-23.57434093249069],[-46.63770932530614,-23.57436546518342],[-46.63749979299208,-23.57443288007421],[-46.63724749762999,-23.5745132865117],[-46.637002051758635,-23.574589480918934],[-46.63696313485275,-23.574601732297836],[-46.63690874994452,-23.574618854094567],[-46.636800009357906,-23.57465308829448],[-46.63658240544252,-23.574721548735504],[-46.63619327152805,-23.574843909904704],[-46.636152561282145,-23.574856926773784],[-46.636071099789746,-23.57488297445802],[-46.635906824962746,-23.574935407218536],[-46.6358799924701,-23.574943775417708],[-46.63581862242329,-23.574962914601322],[-46.63568838412751,-23.57500353210705],[-46.63544078468005,-23.57508073831644],[-46.635433864899795,-23.57508152363789],[-46.635412554843,-23.575083712015758],[-46.63538946495243,-23.57508157556577],[-46.63538247768978,-23.575080472463576],[-46.635368604936495,-23.57507762403822],[-46.63536186327886,-23.57507570562617],[-46.6351048256554,-23.57507063294451],[-46.634657968507405,-23.575046166929912],[-46.6342521939231,-23.575024246616312],[-46.63402944323381,-23.575011328137116],[-46.63398423629029,-23.575007920524794],[-46.63393645015445,-23.57500201154555],[-46.633893674297305,-23.574997133498677],[-46.633858112814295,-23.57499065346367],[-46.63372797092497,-23.57502605696949],[-46.633811025690356,-23.5750794556053],[-46.63394034091663,-23.57516596124368],[-46.634059811507605,-23.5752564524111],[-46.63411821854269,-23.575305233731633],[-46.63414553347508,-23.575327431829386],[-46.63415133909298,-23.57533137479207],[-46.634157036049,-23.57533564127796],[-46.63416252132594,-23.57534014026178],[-46.6341677840254,-23.575344861924883],[-46.634172813248945,-23.575349796448602],[-46.634175691703895,-23.57535288703593],[-46.63431781229262,-23.575441526961068],[-46.63431282611532,-23.57544640066771],[-46.63430871701537,-23.57545192616454],[-46.63430558330118,-23.57545797238175],[-46.6343026051383,-23.575471043414936],[-46.634299061193275,-23.575484075247747],[-46.63429482996926,-23.575496750389583],[-46.63428991032294,-23.575509134773394],[-46.63428713910753,-23.57551533972229],[-46.63428106490326,-23.575527529456515],[-46.63427429696468,-23.57553939507642],[-46.63426746273066,-23.575550733122633],[-46.634263736579264,-23.575556486668486],[-46.63425980721249,-23.57556212766726],[-46.634255678492806,-23.575567651563187],[-46.634251354249116,-23.575573051091755],[-46.63424684030306,-23.5755783216766],[-46.63424213950396,-23.575583456063505],[-46.63423725964382,-23.575588450558403],[-46.634232203571976,-23.575593297907076],[-46.63422697810083,-23.575597994425763],[-46.63422158806125,-23.57560253464547],[-46.634216410981395,-23.575606629238955],[-46.634210758037064,-23.575610825461155],[-46.634204949295906,-23.575614861679952],[-46.63419900221172,-23.575618723263343],[-46.634193256269285,-23.575622213393004],[-46.63418709205284,-23.575625708824703],[-46.634180808005,-23.575629021299005],[-46.63417441291974,-23.575632148917364],[-46.63416791162795,-23.575635086210767],[-46.63416131097559,-23.57563783220421],[-46.63415461973431,-23.575640383193292],[-46.63414769748028,-23.575642792127418],[-46.634140855439654,-23.57564495369128],[-46.63413394227902,-23.575646910112685],[-46.63412696385358,-23.575648659524017],[-46.63411992796656,-23.575650199134092],[-46.63411284342312,-23.57565152794728],[-46.634105717058056,-23.57565264408564],[-46.63409832188594,-23.57565357251203],[-46.63409115680478,-23.575654251991867],[-46.634083973389906,-23.57565471674379],[-46.63407678045768,-23.57565496667506],[-46.63406958585602,-23.575655002606176],[-46.63406239641976,-23.5756548226592],[-46.63405522098758,-23.57565442854723],[-46.634048067385066,-23.575653819284938],[-46.634040942491744,-23.57565299660602],[-46.63403385513513,-23.57565196132069],[-46.63402681316316,-23.575650714249434],[-46.63401971144677,-23.575649231213102],[-46.634012057434276,-23.57564737381026],[-46.63399176902533,-23.575641166648687],[-46.63397102773585,-23.575635413954355],[-46.63395004948957,-23.57563038436454],[-46.63392886573361,-23.575626085675694],[-46.63390750790391,-23.575622524781387],[-46.6338860083825,-23.575619705856216],[-46.633864025925234,-23.575617604494614],[-46.633849615212846,-23.575616650724097],[-46.63384240721119,-23.575616712070264],[-46.6338283215769,-23.57561780113867],[-46.63381402533845,-23.575619288849204],[-46.63379922343062,-23.575621240613295],[-46.633784979114246,-23.575623519729923],[-46.63377084140169,-23.575626179704763],[-46.63375682786958,-23.57562921583792],[-46.63374295416893,-23.57563262615881],[-46.633729240803945,-23.575636405033702],[-46.63371570241252,-23.5756405477936],[-46.63370235658252,-23.575645050641548],[-46.63368843030844,-23.575648567164635],[-46.63368114828123,-23.575651038557893],[-46.633674581492585,-23.575653830229435],[-46.633668289644625,-23.575657067814387],[-46.633662317507955,-23.575660727363342],[-46.63365671176764,-23.57566478129466],[-46.63365151222931,-23.575669200293014],[-46.633646759622316,-23.575673950518198],[-46.63364248878732,-23.575678997288936],[-46.63363873059077,-23.575684301450522],[-46.6336354249499,-23.575689995476694],[-46.63352523473479,-23.5758308901963],[-46.63352042504623,-23.575838074676103],[-46.633406265058916,-23.57604209562559],[-46.63326133987757,-23.57629357701475],[-46.63313398198551,-23.576539545775884],[-46.63311140752027,-23.576583760477263],[-46.633090830217334,-23.57663102447624],[-46.63307402418204,-23.576674275514783],[-46.63306290617874,-23.576710062847425],[-46.6330504427553,-23.576755887018685],[-46.63303130867892,-23.576816861854144],[-46.6330212428512,-23.576858506898656],[-46.63300660743027,-23.57692674896827],[-46.63298487447333,-23.577102345255366],[-46.63295155707889,-23.57739482469659],[-46.632932020292856,-23.577565330103052],[-46.63288980481357,-23.577985155812467],[-46.632794668719185,-23.578177142274747],[-46.632791927280046,-23.578190436553168],[-46.6327884275489,-23.578203574449812],[-46.632784178852496,-23.578216517939495],[-46.632779193478775,-23.578229230771953],[-46.63277642965806,-23.578235488898535],[-46.63275254043423,-23.578281559549723],[-46.63272554470584,-23.578321236000576],[-46.63268955608046,-23.57836187385829],[-46.632681339593475,-23.578370078417045],[-46.63267107810954,-23.57837960663074],[-46.63266048561425,-23.57838882948705],[-46.632649572771655,-23.578397737843552],[-46.63263835121421,-23.578406321644643],[-46.63252278246939,-23.57855882018814],[-46.63251552138103,-23.578558880231668],[-46.63250828988038,-23.578559193714575],[-46.63237888906565,-23.578571256949438],[-46.632314189142186,-23.578577288973225],[-46.6322854326361,-23.57857996967378],[-46.63202606103547,-23.57860254122486],[-46.63188915793204,-23.578614420985925],[-46.63181710379989,-23.578620672729375],[-46.63153620164406,-23.578644229958336],[-46.631392155118206,-23.578656266476788],[-46.63132733382396,-23.578661682599705],[-46.63129132243359,-23.57866469214267],[-46.63126247796202,-23.57866723541587],[-46.631103557161545,-23.578682302180614],[-46.63109898273033,-23.57868269696878],[-46.631096313822304,-23.57868292726696],[-46.63097443647937,-23.578693512468483],[-46.63097134595724,-23.57869332005855],[-46.630728132331356,-23.57871451609904],[-46.63003325966793,-23.578775224951496],[-46.62975527571987,-23.578798098187953],[-46.62968313960174,-23.57880431639752],[-46.629628197298715,-23.5788090529611],[-46.62962099190767,-23.578809420218192],[-46.629606559964316,-23.578810821387965],[-46.629570480115355,-23.57881432520954],[-46.62951864137491,-23.578819358786955],[-46.62951140849065,-23.57881995930858],[-46.629207634174655,-23.578845184455673],[-46.62920048676199,-23.578846042332668],[-46.62891305708743,-23.578792258439968],[-46.628908522222865,-23.578787048556276],[-46.62889680266701,-23.578779278964536],[-46.62888997476033,-23.578777049636017],[-46.628871514249056,-23.57877306396957],[-46.62885431230053,-23.578771823856933],[-46.62883979649356,-23.57877159045076],[-46.628818011491475,-23.578771397132734],[-46.62881076260374,-23.578771653735764],[-46.62879628334616,-23.57877263541832],[-46.62876733436068,-23.578774735939795],[-46.62874563338207,-23.57877650852624],[-46.628694997443155,-23.578780645154982],[-46.62859087009872,-23.578790467189563],[-46.62857837558412,-23.57878388866356],[-46.62857167290219,-23.57878132659677],[-46.628544862165775,-23.578771077423596],[-46.628491241695436,-23.578750579955283],[-46.62843494984099,-23.57872899974308],[-46.62841678572079,-23.5787220363396],[-46.628390756264,-23.57871205798549],[-46.62837094101794,-23.57870388195767],[-46.62833951255878,-23.57869091426747],[-46.6283262781272,-23.578685031582737],[-46.62830656060935,-23.578675961426963],[-46.62828704247703,-23.57866661375523],[-46.62826776313769,-23.578657006215142],[-46.62824876303413,-23.578647160958663],[-46.62823040908942,-23.57863727732185],[-46.62820009270782,-23.578614623803723],[-46.628179864477346,-23.578598303149768],[-46.62816034694818,-23.578581537076165],[-46.62814012338484,-23.57856416433947],[-46.62812506849708,-23.578548661788485],[-46.628109204835546,-23.57853232518576],[-46.62809362165643,-23.578519028847868],[-46.62796340420256,-23.578384225709343],[-46.62795948538485,-23.578378518092656],[-46.62793615189516,-23.57829280872011],[-46.627922022729024,-23.57824090981445],[-46.62791553580693,-23.5782417778681],[-46.62783439889097,-23.57824266502684],[-46.62753924417635,-23.578241671030206],[-46.627423328313895,-23.578240876941134],[-46.62739367302532,-23.57824067375023],[-46.62673549004879,-23.578236217343264],[-46.62655876361958,-23.578235336886188],[-46.626543157683464,-23.578235602310883],[-46.6261933984988,-23.57823249631567],[-46.6261861053218,-23.578232814664577],[-46.626178822169955,-23.578232356303204],[-46.62617164513447,-23.57823112745001],[-46.62603281645916,-23.578231955584442],[-46.625974999331824,-23.578231497817278],[-46.6258955508563,-23.578230827530525],[-46.62573662751598,-23.57822957199577],[-46.62559933458114,-23.578228611929084],[-46.6255921079663,-23.57822836877251],[-46.62558492801509,-23.57822738012822],[-46.625577853456875,-23.578225880169327],[-46.6255709294763,-23.578223878356404],[-46.62545346101303,-23.578222395579722],[-46.625366936349266,-23.578223912142796],[-46.62535597652449,-23.578225466228687],[-46.62534500032907,-23.578225929625635],[-46.624856502445375,-23.57822205863991],[-46.62453056107516,-23.578220821013858],[-46.62403618444542,-23.578218047397776],[-46.62402886046332,-23.57821849058562],[-46.62380767588073,-23.578216783988168],[-46.62329749552287,-23.578212780718474],[-46.622662774508264,-23.578203444694285],[-46.622471347296226,-23.578202676092495],[-46.62205562057664,-23.57819189029465],[-46.62190903716937,-23.57818977596728],[-46.62169531649922,-23.578185066230855],[-46.62151477451865,-23.57817946088116],[-46.621321174126585,-23.57817350124738],[-46.62095587931802,-23.578170990751747],[-46.62068967768147,-23.578167384332794],[-46.62044119002391,-23.578165555892014],[-46.62016955330862,-23.57816191406079],[-46.62016222610958,-23.578161538051084],[-46.620012234408556,-23.578159524295543],[-46.619795325478385,-23.578159431676372],[-46.61951021807185,-23.57815473532365],[-46.6194426470384,-23.578154076084235],[-46.619428036533655,-23.578153148350076],[-46.61941340070151,-23.578152631757693],[-46.61939875522675,-23.57815252704665],[-46.61938411284424,-23.578152834084197],[-46.61936948628885,-23.578153552737614],[-46.619354889263995,-23.57815468196105],[-46.619340336452694,-23.578156220698464],[-46.61933539535861,-23.578156838398897],[-46.619322879730454,-23.57815752330686],[-46.61931560053197,-23.57815826470938],[-46.61930835478101,-23.57815925680564],[-46.619301154210774,-23.578160497667263],[-46.61929400859521,-23.578161985386345],[-46.61928692771938,-23.578163718957875],[-46.61927992035547,-23.57816569467831],[-46.6192729982367,-23.578167910619314],[-46.619266169166714,-23.578170363990463],[-46.619259443865886,-23.57817305016491],[-46.619252832108195,-23.57817596723471],[-46.619246340673385,-23.578179108808023],[-46.61923998128359,-23.57818247205359],[-46.61923376074073,-23.57818605238538],[-46.619227689754105,-23.578189844273613],[-46.619221774146006,-23.578193843142472],[-46.61921602461466,-23.578198042559258],[-46.61921044795092,-23.57820243703504],[-46.619119536720255,-23.57827056097588],[-46.61899609316809,-23.57836018099728],[-46.61876682102823,-23.578528689826122],[-46.6181808844559,-23.57896032833828],[-46.61812611658309,-23.57900044612811],[-46.61804530472431,-23.579059640774076],[-46.61804128338808,-23.579065038534925],[-46.61803570477699,-23.57906928037938],[-46.61801896793983,-23.579082004116],[-46.617985496214935,-23.579107451563882],[-46.61791855076673,-23.57915834646031],[-46.61789606954207,-23.579175138563205],[-46.61786785784806,-23.579196014246715],[-46.6178057913013,-23.579241940380932],[-46.61768724186302,-23.57932957146452],[-46.61763630620185,-23.579367029495543],[-46.61753441896261,-23.57944193303407],[-46.61740980567764,-23.579533417980755],[-46.61735892473219,-23.579570956630043],[-46.617291169217566,-23.579621106579093],[-46.61715565606142,-23.579721405513528],[-46.616884583916026,-23.579921991788943],[-46.616607736102466,-23.580126724845535],[-46.61654084427053,-23.580175444129644],[-46.616474241764344,-23.58022395177604],[-46.61641833367356,-23.580266173192417],[-46.61639038010993,-23.580287284340073],[-46.61636228964487,-23.580308257840507],[-46.61614220691193,-23.580470860947827],[-46.61602934368336,-23.58055424704678],[-46.6159785558201,-23.580591770760204],[-46.61595033923937,-23.580612617272408],[-46.61584260765164,-23.580691193597108],[-46.61578589675347,-23.580732536373787],[-46.6157575417862,-23.580753208201372],[-46.615711802127606,-23.580785901386697],[-46.61564878092744,-23.580830720497367],[-46.615614405441846,-23.580855167277882],[-46.615597270889616,-23.58086745422759],[-46.6155913561628,-23.580871303957586],[-46.615442691172895,-23.580986743952874],[-46.61535306673222,-23.5810537742356],[-46.615308253987465,-23.58108728936432],[-46.61528584809626,-23.581104046919155],[-46.61514418551352,-23.581207684355373],[-46.61507617044156,-23.581257418900147],[-46.6150421633759,-23.581282286157226],[-46.615019491661336,-23.581298864027232],[-46.61501377468612,-23.58130294376006],[-46.61492038451747,-23.581371251015206],[-46.61463039490813,-23.58158423926645],[-46.614423536320345,-23.581739280631],[-46.614417408873905,-23.581742967274863],[-46.61432435203903,-23.581809500787852],[-46.61417904761116,-23.581887147145213],[-46.61409383196504,-23.58193247802796],[-46.614067217473924,-23.58194817925339],[-46.614111305653935,-23.582105537810406],[-46.61412401555166,-23.58211845817801],[-46.61425681383439,-23.5822921003848],[-46.61439003339613,-23.58250014902669],[-46.61446220442731,-23.582611531198943],[-46.61448484785809,-23.58265035742709],[-46.61448768669372,-23.582657199094804],[-46.61454877904248,-23.58275228284622],[-46.61456676475,-23.582774059458966],[-46.61464717626012,-23.582903877970995],[-46.61472299972565,-23.583008402334862],[-46.614801013572055,-23.583092066421433],[-46.614811599697546,-23.58310828771034],[-46.61490418004357,-23.583200837859117],[-46.614913200368406,-23.583205839893875],[-46.61494934359439,-23.583229626572322],[-46.61499316971375,-23.583265776244026],[-46.615071992003514,-23.583315642123832],[-46.615172280016445,-23.583372042155798],[-46.61523146358087,-23.583401968212804],[-46.615316197470996,-23.583433778678167],[-46.615325344095616,-23.58344277258086],[-46.615532048518276,-23.583515667634334],[-46.61563081267402,-23.583534005062297],[-46.61563081366473,-23.58353400595502],[-46.615714115747956,-23.58355097079661],[-46.61585200503568,-23.583581023423214],[-46.61600841005006,-23.58361193443221],[-46.61615233044772,-23.583641142017797],[-46.616290072948885,-23.583669915274662],[-46.61642471692056,-23.583696487452574],[-46.616555147708645,-23.583725765493305],[-46.616675134547776,-23.58375964198958],[-46.61679870238721,-23.58380174114584],[-46.61694600035988,-23.583861325110856],[-46.61705424828221,-23.58392523640738],[-46.61712786978878,-23.583972284590686],[-46.617212589122005,-23.584034021490282],[-46.617326719347375,-23.584130897900597],[-46.61739712622377,-23.584196877148152],[-46.61742514208121,-23.584227078087718],[-46.61746830146213,-23.58427669543814],[-46.617528914538575,-23.58436217731829],[-46.61756534202037,-23.58442267582558],[-46.61762808365438,-23.584532399937515],[-46.61777175015201,-23.584779014208163],[-46.617890165208244,-23.58498353376273],[-46.61807568722138,-23.58530753853659],[-46.61807844650063,-23.585315143112368],[-46.618193203049465,-23.58550840086755],[-46.61819756053036,-23.5855142594868],[-46.61824649267166,-23.585599590003206],[-46.61845290782127,-23.58595602742944],[-46.61862919829563,-23.586262639483078],[-46.61878281787212,-23.58653211203979],[-46.61889348077737,-23.586716566637566],[-46.61904962878335,-23.586996450642005],[-46.619171014124646,-23.58722015180129],[-46.619261687144295,-23.587409316969598],[-46.61933366955525,-23.587562639711887],[-46.61937503752681,-23.58765590320477],[-46.61942434061243,-23.587778344832465],[-46.61947316452829,-23.58790979464498],[-46.619514224556035,-23.588022173027028],[-46.61955055335166,-23.58813576654039],[-46.61958835197036,-23.588264446988045],[-46.619653086183746,-23.588493234569867],[-46.61970878556471,-23.58871330998246],[-46.619756626530915,-23.588937018934],[-46.619776471872655,-23.589031346550673],[-46.61987131188839,-23.589526083762415],[-46.61991871852069,-23.589764079465898],[-46.62002342996004,-23.59025613267065],[-46.62006351973554,-23.590488696129025],[-46.62009913194513,-23.590675794484785],[-46.62013901097317,-23.590875218913627],[-46.62017806422883,-23.59107122042476],[-46.620214732312945,-23.5912565016523],[-46.62024512810877,-23.591405929401184],[-46.62025362907625,-23.591447718701946],[-46.62029282099349,-23.59163902295596],[-46.62032741169988,-23.591830646107436],[-46.62036428952587,-23.59201700871107],[-46.62040401161683,-23.59221155828319],[-46.62044221989041,-23.59240251151435],[-46.62046084217924,-23.592506617080797],[-46.62046048765165,-23.59251763773772],[-46.62045798439136,-23.592529222633882],[-46.620452910558214,-23.59253893799188],[-46.620481918175344,-23.59264574541054],[-46.62050412162758,-23.592727498840016],[-46.6205374296842,-23.59288644561995],[-46.62059241490475,-23.593158857543955],[-46.62068233199975,-23.593618645522962],[-46.62073253110295,-23.593852367350785],[-46.62078777300693,-23.59410572344992],[-46.62082318057088,-23.594239702021838],[-46.62092578639093,-23.59462794937224],[-46.62099262771351,-23.59482844737452],[-46.62109927391146,-23.595102486943055],[-46.621197975387425,-23.595326513835843],[-46.621276987488145,-23.595490025670294],[-46.621329624815495,-23.59560334076645],[-46.62143195410327,-23.595805092502324],[-46.62153355487508,-23.5959953832965],[-46.621634125143,-23.596181531740676],[-46.62171876347037,-23.596339038988255],[-46.621830118796034,-23.59654159914947],[-46.621947323634714,-23.596757644436636],[-46.62206195138501,-23.59697118715219],[-46.6221748440951,-23.597179149112502],[-46.622329450399576,-23.59746433645888],[-46.6224307066116,-23.59765029557831],[-46.622579344595636,-23.59792019259502],[-46.62270319843254,-23.598150796735524],[-46.622826049611525,-23.59837951396962],[-46.62294056025284,-23.598591341339546],[-46.6230980435774,-23.59887911643166],[-46.62326227518326,-23.599189576165294],[-46.62334716355164,-23.599351144208736],[-46.623353218928635,-23.599365439035413],[-46.62341108463284,-23.599473107010336],[-46.62347109356175,-23.599587705859967],[-46.62352997801285,-23.599706470365813],[-46.623592835316636,-23.599821990258143],[-46.623617160410156,-23.59981554742923],[-46.6237175019466,-23.599791651465306],[-46.62382514492228,-23.599771832999235],[-46.62385572192217,-23.59976739267819],[-46.623945750902855,-23.59975431704501],[-46.62407690159306,-23.599741657345923],[-46.624130615825614,-23.599739114212916],[-46.624182180430296,-23.599736673015624],[-46.624324151863405,-23.599735368357766],[-46.6244751917107,-23.599738393520077],[-46.62465375762935,-23.599740678983036],[-46.62489112775108,-23.599743793660597],[-46.62510231442004,-23.599745196286875],[-46.62530684986866,-23.599747660680553],[-46.62545353552781,-23.59974913662751],[-46.62554430902568,-23.59975005100348],[-46.62599390782019,-23.59975166422706],[-46.625999479164506,-23.59975052224647],[-46.626012693851116,-23.59974939051945],[-46.626260521841395,-23.59975031661126],[-46.62656384379459,-23.599753731219316],[-46.62675325501298,-23.59975346246828],[-46.62675823737149,-23.599752236329344],[-46.627177884030125,-23.599756598122262],[-46.62733037659528,-23.599758160432287],[-46.62756283988284,-23.599760690329056],[-46.62767722388693,-23.599763103299786],[-46.62779108567759,-23.59976290288489],[-46.627885085957345,-23.599765168203653],[-46.62791146189366,-23.599766517093784],[-46.627922974278015,-23.599770369698128],[-46.62806276880688,-23.599767368693694],[-46.62860002238854,-23.59977320241037],[-46.628754760702186,-23.59977419794531],[-46.62913924995424,-23.599780188386973],[-46.629302916439464,-23.599782083017416],[-46.62930978822925,-23.599783094533873],[-46.62943827867954,-23.59978517756023],[-46.62944277558617,-23.59978431764131],[-46.629450011389665,-23.59978306776667],[-46.63013653478103,-23.59977559013242],[-46.630548327929944,-23.599770814396233],[-46.63066191209665,-23.599769012822133],[-46.63091904862146,-23.5997649338831],[-46.63133396678484,-23.599759310513626],[-46.631704090485684,-23.599752711979644],[-46.63193130588102,-23.5997508656563],[-46.631937293653635,-23.59975170574258],[-46.63207075719234,-23.5997517476591],[-46.63236903939472,-23.599751862692482],[-46.63351273495937,-23.599732700658773],[-46.63369936693642,-23.59972161637391],[-46.63412179738613,-23.599713468342724],[-46.634480049377416,-23.599705633612093],[-46.63476034432262,-23.599701327989198],[-46.634774368442905,-23.599702263951873],[-46.63495252837721,-23.599703458196966],[-46.63495869084066,-23.59970258058044],[-46.63497513863093,-23.59970141404656],[-46.63543045687075,-23.5996981536583],[-46.63577582279835,-23.599694334679903],[-46.635870288871885,-23.599693165980874],[-46.636465368495614,-23.599685803897398],[-46.6364784050045,-23.599686117998782],[-46.63687410100592,-23.59968718420752],[-46.63688673103494,-23.599686328629502],[-46.63735214011994,-23.59969090282016],[-46.63763349049433,-23.599692632038327],[-46.63787052859973,-23.59969275036568],[-46.63829014094228,-23.59969446367706],[-46.63830143069487,-23.599696150591587],[-46.63831224739277,-23.599699197031676],[-46.63832447825433,-23.599705569733516],[-46.63848480390248,-23.59970786648659],[-46.638755054192934,-23.59969849707244],[-46.63949158322778,-23.599701647725656],[-46.6397522910976,-23.599698894458363],[-46.63978401261217,-23.599701445486154],[-46.63995745697947,-23.599704132232514],[-46.64040463412824,-23.599708257720337],[-46.64107866652896,-23.59971277543569],[-46.641493107545394,-23.599716529513262],[-46.64190373590075,-23.599720767089675],[-46.64211857232924,-23.599724274289333],[-46.6427768589789,-23.59973157804701],[-46.64280171452069,-23.599736733176556],[-46.643004506564424,-23.59974090840372],[-46.64349496891732,-23.59969571343601],[-46.64408436556999,-23.599639897275427],[-46.64409191537631,-23.599640268837405]]]},"geometry_name":"ge_poligono","properties":{"cd_identificador_distrito":8583434,"cd_identificador_subprefeitura":20,"cd_distrito_municipal":"90","nm_distrito_municipal":"VILA MARIANA","sg_distrito_municipal":"VMN","tx_escala":"1:5000","sg_fonte_original":"GEOGSG","dt_criacao":"2004-01-01Z","dt_atualizacao":"2026-03-20T16:13:20.071Z","cd_usuario_atualizacao":null,"cd_tipo_discrepancia":199299399,"qt_area_quilometro":8.598,"qt_area_metro":8597789.8,"cd_regiao_05":5,"nm_regiao_05":"Sul","cd_regiao_08":7,"nm_regiao_08":"Sul 1"}}]}
